{"type":"Feature","geometry":{"type":"Point","coordinates":[47.78,13.02,430]},"properties":{"stationId":"LOWS","rawText":"LOWS 191850Z VRB01KT 8000 FEW010 SCT017 BKN022 00/M00 Q1038 R15/290195 NOSIG","observationTime":"2020-01-19T18:50:00Z","temp":0,"dewpoint":0,"windDirection":0,"windSpeed":1.852,"visibility":4.97,"altim":30.649607,"qualityControlFlag":"TRUE","skyCondition1a":"FEW","skyCondition1b":1000,"skyCondition2a":"SCT","skyCondition2b":1700,"flightCategory":"MVFR","metarType":"METAR","geometry_esri":{"x":47.78,"y":13.02,"z":430}}}