{"type":"Feature","geometry":{"type":"Point","coordinates":[47.78,13.02,430]},"properties":{"stationId":"LOWS","rawText":"LOWS 071550Z 17008KT 150V210 9999 FEW060 FEW060CB SCT150 BKN300 22/17 Q1015 NOSIG","observationTime":"2018-08-07T15:50:00Z","temp":22,"dewpoint":17,"windDirection":170,"windSpeed":14.816,"visibility":6.21,"altim":29.970472,"qualityControlFlag":"TRUE","skyCondition1a":"FEW","skyCondition1b":6000,"skyCondition2a":"FEW","skyCondition2b":6000,"flightCategory":"VFR","metarType":"METAR","geometry_esri":{"x":47.78,"y":13.02,"z":430}}}