{"type":"Feature","geometry":{"type":"Point","coordinates":[47.78,13.02,430]},"properties":{"stationId":"LOWS","rawText":"LOWS 050450Z VRB01KT 9999 FEW003 BKN060 03/03 Q1027 NOSIG","observationTime":"2018-12-05T04:50:00Z","temp":3,"dewpoint":3,"windDirection":0,"windSpeed":1.852,"visibility":6.21,"altim":30.324802,"qualityControlFlag":"TRUE","skyCondition1a":"FEW","skyCondition1b":300,"skyCondition2a":"BKN","skyCondition2b":6000,"flightCategory":"VFR","metarType":"METAR","geometry_esri":{"x":47.78,"y":13.02,"z":430}}}