{"type":"Feature","geometry":{"type":"Point","coordinates":[47.78,13.02,430]},"properties":{"stationId":"LOWS","rawText":"LOWS 201150Z 32004KT 280V020 8000 FEW025 SCT050 15/10 Q1028 NOSIG","observationTime":"2018-10-20T11:50:00Z","temp":15,"dewpoint":10,"windDirection":320,"windSpeed":7.408,"visibility":4.97,"altim":30.35433,"qualityControlFlag":"TRUE","skyCondition1a":"FEW","skyCondition1b":2500,"skyCondition2a":"SCT","skyCondition2b":5000,"flightCategory":"MVFR","metarType":"METAR","geometry_esri":{"x":47.78,"y":13.02,"z":430}}}