{"type":"Feature","geometry":{"type":"Point","coordinates":[47.78,13.02,430]},"properties":{"stationId":"LOWS","rawText":"LOWS 241450Z 03008KT 350V060 9999 FEW035 SCT300 10/01 Q1000 NOSIG","observationTime":"2018-03-24T14:50:00Z","temp":10,"dewpoint":1,"windDirection":30,"windSpeed":14.816,"visibility":6.21,"altim":29.52756,"qualityControlFlag":"TRUE","skyCondition1a":"FEW","skyCondition1b":3500,"skyCondition2a":"SCT","skyCondition2b":30000,"flightCategory":"VFR","metarType":"METAR","geometry_esri":{"x":47.78,"y":13.02,"z":430}}}