{"type":"Feature","geometry":{"type":"Point","coordinates":[47.78,13.02,430]},"properties":{"stationId":"LOWS","rawText":"LOWS 041550Z 05009KT 020V080 9999 FEW025 BKN030 18/12 Q1016 NOSIG","observationTime":"2018-05-04T15:50:00Z","temp":18,"dewpoint":12,"windDirection":50,"windSpeed":16.668,"visibility":6.21,"altim":30,"qualityControlFlag":"TRUE","skyCondition1a":"FEW","skyCondition1b":2500,"skyCondition2a":"BKN","skyCondition2b":3000,"flightCategory":"MVFR","metarType":"METAR","geometry_esri":{"x":47.78,"y":13.02,"z":430}}}