{"type":"Feature","geometry":{"type":"Point","coordinates":[47.78,13.02,430]},"properties":{"stationId":"LOWS","rawText":"LOWS 241450Z 29007KT 9999 FEW010 FEW015TCU BKN030 04/01 Q1027 NOSIG","observationTime":"2018-12-24T14:50:00Z","temp":4,"dewpoint":1,"windDirection":290,"windSpeed":12.964,"visibility":6.21,"altim":30.324802,"qualityControlFlag":"TRUE","skyCondition1a":"FEW","skyCondition1b":1000,"skyCondition2a":"FEW","skyCondition2b":1500,"flightCategory":"MVFR","metarType":"METAR","geometry_esri":{"x":47.78,"y":13.02,"z":430}}}