{"type":"Feature","geometry":{"type":"Point","coordinates":[47.78,13.02,427]},"properties":{"stationId":"LOWS","rawText":"LOWS 211050Z 16014KT 9999 FEW080 BKN090 08/M03 Q1004 NOSIG","observationTime":"2021-01-21T10:50:00Z","temp":8,"dewpoint":-3,"windDirection":160,"windSpeed":25.928,"visibility":6.21,"altim":29.64567,"qualityControlFlag":"TRUE","skyCondition1a":"FEW","skyCondition1b":8000,"skyCondition2a":"BKN","skyCondition2b":9000,"flightCategory":"VFR","metarType":"METAR","geometry_esri":{"x":47.78,"y":13.02,"z":427}}}