{"type":"Feature","geometry":{"type":"Point","coordinates":[47.78,13.02,427]},"properties":{"stationId":"LOWS","rawText":"LOWS 111150Z 29004KT 240V340 9999 -RA FEW006 SCT016 BKN030 08/05 Q1020 NOSIG","observationTime":"2020-10-11T11:50:00Z","temp":8,"dewpoint":5,"windDirection":290,"windSpeed":7.408,"visibility":6.21,"altim":30.11811,"qualityControlFlag":"TRUE","skyCondition1a":"FEW","skyCondition1b":600,"skyCondition2a":"SCT","skyCondition2b":1600,"flightCategory":"MVFR","metarType":"METAR","geometry_esri":{"x":47.78,"y":13.02,"z":427}}}