{"type":"Feature","geometry":{"type":"Point","coordinates":[47.78,13.02,430]},"properties":{"stationId":"LOWS","rawText":"LOWS 260850Z 34003KT 290V050 9999 FEW012 SCT020 BKN080 13/08 Q1033 NOSIG","observationTime":"2020-05-26T08:50:00Z","temp":13,"dewpoint":8,"windDirection":340,"windSpeed":5.556,"visibility":6.21,"altim":30.501968,"qualityControlFlag":"TRUE","skyCondition1a":"FEW","skyCondition1b":1200,"skyCondition2a":"SCT","skyCondition2b":2000,"flightCategory":"VFR","metarType":"METAR","geometry_esri":{"x":47.78,"y":13.02,"z":430}}}