{"type":"Feature","geometry":{"type":"Point","coordinates":[47.78,13.02,430]},"properties":{"stationId":"LOWS","rawText":"LOWS 081750Z 25014G26KT 190V290 9999 -RA FEW012 SCT020 BKN028 02/00 Q1010 R15/29//95 NOSIG","observationTime":"2019-01-08T17:50:00Z","temp":2,"dewpoint":0,"windDirection":250,"windSpeed":25.928,"visibility":6.21,"altim":29.822834,"qualityControlFlag":"TRUE","skyCondition1a":"FEW","skyCondition1b":1200,"skyCondition2a":"SCT","skyCondition2b":2000,"flightCategory":"MVFR","metarType":"METAR","geometry_esri":{"x":47.78,"y":13.02,"z":430}}}