{"type":"Feature","geometry":{"type":"Point","coordinates":[47.78,13.02,430]},"properties":{"stationId":"LOWS","rawText":"LOWS 241950Z 29008KT 250V320 9999 FEW036 BKN060 08/03 Q1015 NOSIG","observationTime":"2019-12-24T19:50:00Z","temp":8,"dewpoint":3,"windDirection":290,"windSpeed":14.816,"visibility":6.21,"altim":29.970472,"qualityControlFlag":"TRUE","skyCondition1a":"FEW","skyCondition1b":3600,"skyCondition2a":"BKN","skyCondition2b":6000,"flightCategory":"VFR","metarType":"METAR","geometry_esri":{"x":47.78,"y":13.02,"z":430}}}