{"type":"Feature","geometry":{"type":"Point","coordinates":[47.78,13.02,430]},"properties":{"stationId":"LOWS","rawText":"LOWS 130950Z 14007KT 100V170 9999 FEW060 FEW060TCU SCT090 BKN100 14/05 Q1007 NOSIG","observationTime":"2018-04-13T09:50:00Z","temp":14,"dewpoint":5,"windDirection":140,"windSpeed":12.964,"visibility":6.21,"altim":29.734253,"qualityControlFlag":"TRUE","skyCondition1a":"FEW","skyCondition1b":6000,"skyCondition2a":"FEW","skyCondition2b":6000,"flightCategory":"VFR","metarType":"METAR","geometry_esri":{"x":47.78,"y":13.02,"z":430}}}