{"type":"Feature","geometry":{"type":"Point","coordinates":[47.78,13.02,430]},"properties":{"stationId":"LOWS","rawText":"LOWS 021250Z 02006KT 9000 SCT170 BKN250 M03/M08 Q0992 NOSIG","observationTime":"2018-03-02T12:50:00Z","temp":-3,"dewpoint":-8,"windDirection":20,"windSpeed":11.112,"visibility":5.59,"altim":29.291338,"qualityControlFlag":"TRUE","skyCondition1a":"SCT","skyCondition1b":17000,"skyCondition2a":"BKN","skyCondition2b":25000,"flightCategory":"VFR","metarType":"METAR","geometry_esri":{"x":47.78,"y":13.02,"z":430}}}