{"type":"Feature","geometry":{"type":"Point","coordinates":[47.78,13.02,430]},"properties":{"stationId":"LOWS","rawText":"LOWS 241150Z 28007KT 240V320 9999 FEW050 SCT090 15/06 Q1030 NOSIG","observationTime":"2020-05-24T11:50:00Z","temp":15,"dewpoint":6,"windDirection":280,"windSpeed":12.964,"visibility":6.21,"altim":30.413385,"qualityControlFlag":"TRUE","skyCondition1a":"FEW","skyCondition1b":5000,"skyCondition2a":"SCT","skyCondition2b":9000,"flightCategory":"VFR","metarType":"METAR","geometry_esri":{"x":47.78,"y":13.02,"z":430}}}