{"type":"Feature","geometry":{"type":"Point","coordinates":[47.78,13.02,427]},"properties":{"stationId":"LOWS","rawText":"LOWS 131750Z 31005KT 250V340 9999 FEW032 SCT048 M00/M04 Q1014 R15/29//95 NOSIG","observationTime":"2021-01-13T17:50:00Z","temp":0,"dewpoint":-4,"windDirection":310,"windSpeed":9.26,"visibility":6.21,"altim":29.940945,"qualityControlFlag":"TRUE","skyCondition1a":"FEW","skyCondition1b":3200,"skyCondition2a":"SCT","skyCondition2b":4800,"flightCategory":"VFR","metarType":"METAR","geometry_esri":{"x":47.78,"y":13.02,"z":427}}}