{"type":"Feature","geometry":{"type":"Point","coordinates":[47.78,13.02,430]},"properties":{"stationId":"LOWS","rawText":"LOWS 051550Z 24003KT 9999 FEW050 BKN065 10/M00 Q0996 NOSIG","observationTime":"2020-03-05T15:50:00Z","temp":10,"dewpoint":0,"windDirection":240,"windSpeed":5.556,"visibility":6.21,"altim":29.409449,"qualityControlFlag":"TRUE","skyCondition1a":"FEW","skyCondition1b":5000,"skyCondition2a":"BKN","skyCondition2b":6500,"flightCategory":"VFR","metarType":"METAR","geometry_esri":{"x":47.78,"y":13.02,"z":430}}}