{"type":"Feature","geometry":{"type":"Point","coordinates":[47.78,13.02,430]},"properties":{"stationId":"LOWS","rawText":"LOWS 201050Z 06006KT 020V090 9999 FEW030 SCT120 BKN250 19/12 Q1019 NOSIG","observationTime":"2018-05-20T10:50:00Z","temp":19,"dewpoint":12,"windDirection":60,"windSpeed":11.112,"visibility":6.21,"altim":30.088583,"qualityControlFlag":"TRUE","skyCondition1a":"FEW","skyCondition1b":3000,"skyCondition2a":"SCT","skyCondition2b":12000,"flightCategory":"VFR","metarType":"METAR","geometry_esri":{"x":47.78,"y":13.02,"z":430}}}