{"type":"Feature","geometry":{"type":"Point","coordinates":[47.78,13.02,427]},"properties":{"stationId":"LOWS","rawText":"LOWS 111350Z 11004KT 080V160 9999 -SHRA FEW009 SCT019 BKN035 07/05 Q1019 NOSIG","observationTime":"2020-10-11T13:50:00Z","temp":7,"dewpoint":5,"windDirection":110,"windSpeed":7.408,"visibility":6.21,"altim":30.088583,"qualityControlFlag":"TRUE","skyCondition1a":"FEW","skyCondition1b":900,"skyCondition2a":"SCT","skyCondition2b":1900,"flightCategory":"VFR","metarType":"METAR","geometry_esri":{"x":47.78,"y":13.02,"z":427}}}