{"type":"Feature","geometry":{"type":"Point","coordinates":[47.78,13.02,430]},"properties":{"stationId":"LOWS","rawText":"LOWS 291450Z 24008KT 200V270 9999 -SHRA FEW008 SCT011 BKN026 02/M00 Q1012 NOSIG","observationTime":"2020-01-29T14:50:00Z","temp":2,"dewpoint":0,"windDirection":240,"windSpeed":14.816,"visibility":6.21,"altim":29.88189,"qualityControlFlag":"TRUE","skyCondition1a":"FEW","skyCondition1b":800,"skyCondition2a":"SCT","skyCondition2b":1100,"flightCategory":"MVFR","metarType":"METAR","geometry_esri":{"x":47.78,"y":13.02,"z":430}}}