{"type":"Feature","geometry":{"type":"Point","coordinates":[47.78,13.02,430]},"properties":{"stationId":"LOWS","rawText":"LOWS 171050Z 27008KT 220V320 9999 FEW030 BKN045 BKN070 16/08 Q1016 NOSIG","observationTime":"2018-05-17T10:50:00Z","temp":16,"dewpoint":8,"windDirection":270,"windSpeed":14.816,"visibility":6.21,"altim":30,"qualityControlFlag":"TRUE","skyCondition1a":"FEW","skyCondition1b":3000,"skyCondition2a":"BKN","skyCondition2b":4500,"flightCategory":"VFR","metarType":"METAR","geometry_esri":{"x":47.78,"y":13.02,"z":430}}}