{"type":"Feature","geometry":{"type":"Point","coordinates":[47.78,13.02,430]},"properties":{"stationId":"LOWS","rawText":"LOWS 220920Z 28015G31KT 240V310 9999 -SHRA FEW018 BKN050 11/06 Q1015 NOSIG","observationTime":"2018-12-22T09:20:00Z","temp":11,"dewpoint":6,"windDirection":280,"windSpeed":27.78,"visibility":6.21,"altim":29.970472,"qualityControlFlag":"TRUE","skyCondition1a":"FEW","skyCondition1b":1800,"skyCondition2a":"BKN","skyCondition2b":5000,"flightCategory":"VFR","metarType":"METAR","geometry_esri":{"x":47.78,"y":13.02,"z":430}}}