{"type":"Feature","geometry":{"type":"Point","coordinates":[47.78,13.02,430]},"properties":{"stationId":"LOWS","rawText":"LOWS 232020Z 03003KT 6000 FEW016 BKN017 M04/M06 Q0998 NOSIG","observationTime":"2019-01-23T20:20:00Z","temp":-4,"dewpoint":-6,"windDirection":30,"windSpeed":5.556,"visibility":3.73,"altim":29.468504,"qualityControlFlag":"TRUE","skyCondition1a":"FEW","skyCondition1b":1600,"skyCondition2a":"BKN","skyCondition2b":1700,"flightCategory":"MVFR","metarType":"METAR","geometry_esri":{"x":47.78,"y":13.02,"z":430}}}