{"type":"Feature","geometry":{"type":"Point","coordinates":[47.78,13.02,430]},"properties":{"stationId":"LOWS","rawText":"LOWS 271450Z 33003KT 310V030 9999 FEW040 BKN120 BKN300 21/14 Q1013 NOSIG","observationTime":"2019-09-27T14:50:00Z","temp":21,"dewpoint":14,"windDirection":330,"windSpeed":5.556,"visibility":6.21,"altim":29.911417,"qualityControlFlag":"TRUE","skyCondition1a":"FEW","skyCondition1b":4000,"skyCondition2a":"BKN","skyCondition2b":12000,"flightCategory":"VFR","metarType":"METAR","geometry_esri":{"x":47.78,"y":13.02,"z":430}}}