{"type":"Feature","geometry":{"type":"Point","coordinates":[47.78,13.02,430]},"properties":{"stationId":"LOWS","rawText":"LOWS 280850Z 14009KT 9999 FEW005 SCT050 BKN075 05/03 Q1009 NOSIG","observationTime":"2018-03-28T08:50:00Z","temp":5,"dewpoint":3,"windDirection":140,"windSpeed":16.668,"visibility":6.21,"altim":29.793306,"qualityControlFlag":"TRUE","skyCondition1a":"FEW","skyCondition1b":500,"skyCondition2a":"SCT","skyCondition2b":5000,"flightCategory":"VFR","metarType":"METAR","geometry_esri":{"x":47.78,"y":13.02,"z":430}}}