{"type":"Feature","geometry":{"type":"Point","coordinates":[47.78,13.02,427]},"properties":{"stationId":"LOWS","rawText":"LOWS 281620Z 16007KT 130V190 9999 FEW050 BKN060 10/05 Q1017 NOSIG","observationTime":"2020-10-28T16:20:00Z","temp":10,"dewpoint":5,"windDirection":160,"windSpeed":12.964,"visibility":6.21,"altim":30.029528,"qualityControlFlag":"TRUE","skyCondition1a":"FEW","skyCondition1b":5000,"skyCondition2a":"BKN","skyCondition2b":6000,"flightCategory":"VFR","metarType":"METAR","geometry_esri":{"x":47.78,"y":13.02,"z":427}}}