{"type":"Feature","geometry":{"type":"Point","coordinates":[47.78,13.02,430]},"properties":{"stationId":"LOWS","rawText":"LOWS 042150Z 13003KT 9999 FEW025 BKN050 04/03 Q1026 NOSIG","observationTime":"2018-12-04T21:50:00Z","temp":4,"dewpoint":3,"windDirection":130,"windSpeed":5.556,"visibility":6.21,"altim":30.295275,"qualityControlFlag":"TRUE","skyCondition1a":"FEW","skyCondition1b":2500,"skyCondition2a":"BKN","skyCondition2b":5000,"flightCategory":"VFR","metarType":"METAR","geometry_esri":{"x":47.78,"y":13.02,"z":430}}}