{"type":"Feature","geometry":{"type":"Point","coordinates":[47.78,13.02,430]},"properties":{"stationId":"LOWS","rawText":"LOWS 291750Z 11003KT 030V160 9999 -RA FEW018 SCT035 BKN045 05/02 Q1009 RERA NOSIG","observationTime":"2018-03-29T17:50:00Z","temp":5,"dewpoint":2,"windDirection":110,"windSpeed":5.556,"visibility":6.21,"altim":29.793306,"qualityControlFlag":"TRUE","skyCondition1a":"FEW","skyCondition1b":1800,"skyCondition2a":"SCT","skyCondition2b":3500,"flightCategory":"VFR","metarType":"METAR","geometry_esri":{"x":47.78,"y":13.02,"z":430}}}