{"type":"Feature","geometry":{"type":"Point","coordinates":[47.78,13.02,430]},"properties":{"stationId":"LOWS","rawText":"LOWS 100750Z 28005KT 230V320 9999 -RA FEW040 BKN080 15/12 Q1009 NOSIG","observationTime":"2020-05-10T07:50:00Z","temp":15,"dewpoint":12,"windDirection":280,"windSpeed":9.26,"visibility":6.21,"altim":29.793306,"qualityControlFlag":"TRUE","skyCondition1a":"FEW","skyCondition1b":4000,"skyCondition2a":"BKN","skyCondition2b":8000,"flightCategory":"VFR","metarType":"METAR","geometry_esri":{"x":47.78,"y":13.02,"z":430}}}