{"type":"Feature","geometry":{"type":"Point","coordinates":[47.78,13.02,430]},"properties":{"stationId":"LOWS","rawText":"LOWS 310650Z 33007KT 9999 FEW022 BKN036 19/14 Q1018 NOSIG","observationTime":"2019-07-31T06:50:00Z","temp":19,"dewpoint":14,"windDirection":330,"windSpeed":12.964,"visibility":6.21,"altim":30.059055,"qualityControlFlag":"TRUE","skyCondition1a":"FEW","skyCondition1b":2200,"skyCondition2a":"BKN","skyCondition2b":3600,"flightCategory":"VFR","metarType":"METAR","geometry_esri":{"x":47.78,"y":13.02,"z":430}}}