{"type":"Feature","geometry":{"type":"Point","coordinates":[47.78,13.02,427]},"properties":{"stationId":"LOWS","rawText":"LOWS 120950Z 22004KT 180V240 9999 FEW008 SCT022 BKN045 07/04 Q1020 NOSIG","observationTime":"2020-10-12T09:50:00Z","temp":7,"dewpoint":4,"windDirection":220,"windSpeed":7.408,"visibility":6.21,"altim":30.11811,"qualityControlFlag":"TRUE","skyCondition1a":"FEW","skyCondition1b":800,"skyCondition2a":"SCT","skyCondition2b":2200,"flightCategory":"VFR","metarType":"METAR","geometry_esri":{"x":47.78,"y":13.02,"z":427}}}