{"type":"Feature","geometry":{"type":"Point","coordinates":[47.78,13.02,430]},"properties":{"stationId":"LOWS","rawText":"LOWS 160850Z 15006KT 9999 FEW010 BKN055 BKN140 07/05 Q1002 NOSIG","observationTime":"2018-03-16T08:50:00Z","temp":7,"dewpoint":5,"windDirection":150,"windSpeed":11.112,"visibility":6.21,"altim":29.586615,"qualityControlFlag":"TRUE","skyCondition1a":"FEW","skyCondition1b":1000,"skyCondition2a":"BKN","skyCondition2b":5500,"flightCategory":"VFR","metarType":"METAR","geometry_esri":{"x":47.78,"y":13.02,"z":430}}}