{"type":"Feature","geometry":{"type":"Point","coordinates":[47.78,13.02,427]},"properties":{"stationId":"LOWS","rawText":"LOWS 140950Z 31014KT 9999 FEW020 SCT038 BKN050 01/M03 Q1015 R15/15//95 NOSIG","observationTime":"2021-01-14T09:50:00Z","temp":1,"dewpoint":-3,"windDirection":310,"windSpeed":25.928,"visibility":6.21,"altim":29.970472,"qualityControlFlag":"TRUE","skyCondition1a":"FEW","skyCondition1b":2000,"skyCondition2a":"SCT","skyCondition2b":3800,"flightCategory":"VFR","metarType":"METAR","geometry_esri":{"x":47.78,"y":13.02,"z":427}}}