{"type":"Feature","geometry":{"type":"Point","coordinates":[47.78,13.02,430]},"properties":{"stationId":"LOWS","rawText":"LOWS 140550Z 28013KT 9999 -SHRA FEW025 SCT040 BKN055 07/01 Q1014 NOSIG","observationTime":"2020-02-14T05:50:00Z","temp":7,"dewpoint":1,"windDirection":280,"windSpeed":24.076,"visibility":6.21,"altim":29.940945,"qualityControlFlag":"TRUE","skyCondition1a":"FEW","skyCondition1b":2500,"skyCondition2a":"SCT","skyCondition2b":4000,"flightCategory":"VFR","metarType":"METAR","geometry_esri":{"x":47.78,"y":13.02,"z":430}}}