{"type":"Feature","geometry":{"type":"Point","coordinates":[47.78,13.02,430]},"properties":{"stationId":"LOWS","rawText":"LOWS 230450Z 30013KT 9999 -RA FEW017 SCT024 BKN030 06/03 Q1002 NOSIG","observationTime":"2019-12-23T04:50:00Z","temp":6,"dewpoint":3,"windDirection":300,"windSpeed":24.076,"visibility":6.21,"altim":29.586615,"qualityControlFlag":"TRUE","skyCondition1a":"FEW","skyCondition1b":1700,"skyCondition2a":"SCT","skyCondition2b":2400,"flightCategory":"MVFR","metarType":"METAR","geometry_esri":{"x":47.78,"y":13.02,"z":430}}}