{"type":"Feature","geometry":{"type":"Point","coordinates":[47.78,13.02,427]},"properties":{"stationId":"LOWS","rawText":"LOWS 301050Z 15004KT 110V200 9999 FEW050 SCT120 08/04 Q1000 R15/19//95 NOSIG","observationTime":"2021-01-30T10:50:00Z","temp":8,"dewpoint":4,"windDirection":150,"windSpeed":7.408,"visibility":6.21,"altim":29.52756,"qualityControlFlag":"TRUE","skyCondition1a":"FEW","skyCondition1b":5000,"skyCondition2a":"SCT","skyCondition2b":12000,"flightCategory":"VFR","metarType":"METAR","geometry_esri":{"x":47.78,"y":13.02,"z":427}}}