{"type":"Feature","geometry":{"type":"Point","coordinates":[47.78,13.02,430]},"properties":{"stationId":"LOWS","rawText":"LOWS 042050Z 21006KT 9999 -RA FEW016 BKN028 04/03 Q1026 NOSIG","observationTime":"2018-12-04T20:50:00Z","temp":4,"dewpoint":3,"windDirection":210,"windSpeed":11.112,"visibility":6.21,"altim":30.295275,"qualityControlFlag":"TRUE","skyCondition1a":"FEW","skyCondition1b":1600,"skyCondition2a":"BKN","skyCondition2b":2800,"flightCategory":"MVFR","metarType":"METAR","geometry_esri":{"x":47.78,"y":13.02,"z":430}}}