{"type":"Feature","geometry":{"type":"Point","coordinates":[47.78,13.02,430]},"properties":{"stationId":"LOWS","rawText":"LOWS 040450Z 33004KT 3600 BR FEW012 SCT026 BKN036 M01/M02 Q1003 R15/590195 NOSIG","observationTime":"2018-03-04T04:50:00Z","temp":-1,"dewpoint":-2,"windDirection":330,"windSpeed":7.408,"visibility":2.24,"altim":29.616142,"qualityControlFlag":"TRUE","skyCondition1a":"FEW","skyCondition1b":1200,"skyCondition2a":"SCT","skyCondition2b":2600,"flightCategory":"IFR","metarType":"METAR","geometry_esri":{"x":47.78,"y":13.02,"z":430}}}