{"type":"Feature","geometry":{"type":"Point","coordinates":[47.78,13.02,430]},"properties":{"stationId":"LOWS","rawText":"LOWS 210950Z 15011KT 9999 FEW130 BKN150 BKN250 05/M02 Q1017 NOSIG","observationTime":"2018-12-21T09:50:00Z","temp":5,"dewpoint":-2,"windDirection":150,"windSpeed":20.372,"visibility":6.21,"altim":30.029528,"qualityControlFlag":"TRUE","skyCondition1a":"FEW","skyCondition1b":13000,"skyCondition2a":"BKN","skyCondition2b":15000,"flightCategory":"VFR","metarType":"METAR","geometry_esri":{"x":47.78,"y":13.02,"z":430}}}