{"type":"Feature","geometry":{"type":"Point","coordinates":[47.78,13.02,430]},"properties":{"stationId":"LOWS","rawText":"LOWS 200750Z VRB01KT 9999 FEW120 SCT250 BKN300 10/08 Q1011 NOSIG","observationTime":"2019-10-20T07:50:00Z","temp":10,"dewpoint":8,"windDirection":0,"windSpeed":1.852,"visibility":6.21,"altim":29.852362,"qualityControlFlag":"TRUE","skyCondition1a":"FEW","skyCondition1b":12000,"skyCondition2a":"SCT","skyCondition2b":25000,"flightCategory":"VFR","metarType":"METAR","geometry_esri":{"x":47.78,"y":13.02,"z":430}}}