{"type":"Feature","geometry":{"type":"Point","coordinates":[47.78,13.02,430]},"properties":{"stationId":"LOWS","rawText":"LOWS 030620Z 25008KT 220V290 9999 -RA FEW010 SCT020 BKN026 04/03 Q1000 NOSIG","observationTime":"2020-03-03T06:20:00Z","temp":4,"dewpoint":3,"windDirection":250,"windSpeed":14.816,"visibility":6.21,"altim":29.52756,"qualityControlFlag":"TRUE","skyCondition1a":"FEW","skyCondition1b":1000,"skyCondition2a":"SCT","skyCondition2b":2000,"flightCategory":"MVFR","metarType":"METAR","geometry_esri":{"x":47.78,"y":13.02,"z":430}}}