{"type":"Feature","geometry":{"type":"Point","coordinates":[47.78,13.02,427]},"properties":{"stationId":"LOWS","rawText":"LOWS 221450Z 16005KT 130V210 9999 -SHRA FEW044 BKN075 08/06 Q1021 WS ALL RWY NOSIG","observationTime":"2020-12-22T14:50:00Z","temp":8,"dewpoint":6,"windDirection":160,"windSpeed":9.26,"visibility":6.21,"altim":30.147638,"qualityControlFlag":"TRUE","skyCondition1a":"FEW","skyCondition1b":4400,"skyCondition2a":"BKN","skyCondition2b":7500,"flightCategory":"VFR","metarType":"METAR","geometry_esri":{"x":47.78,"y":13.02,"z":427}}}