{"type":"Feature","geometry":{"type":"Point","coordinates":[47.78,13.02,430]},"properties":{"stationId":"LOWS","rawText":"LOWS 161050Z 30015KT 9999 FEW060 BKN070 14/06 Q1015 NOSIG","observationTime":"2019-03-16T10:50:00Z","temp":14,"dewpoint":6,"windDirection":300,"windSpeed":27.78,"visibility":6.21,"altim":29.970472,"qualityControlFlag":"TRUE","skyCondition1a":"FEW","skyCondition1b":6000,"skyCondition2a":"BKN","skyCondition2b":7000,"flightCategory":"VFR","metarType":"METAR","geometry_esri":{"x":47.78,"y":13.02,"z":430}}}