{"type":"Feature","geometry":{"type":"Point","coordinates":[47.78,13.02,430]},"properties":{"stationId":"LOWS","rawText":"LOWS 052050Z 30003KT 9999 FEW038 BKN042 00/M03 Q1035 R15/2///95 NOSIG","observationTime":"2020-02-05T20:50:00Z","temp":0,"dewpoint":-3,"windDirection":300,"windSpeed":5.556,"visibility":6.21,"altim":30.561024,"qualityControlFlag":"TRUE","skyCondition1a":"FEW","skyCondition1b":3800,"skyCondition2a":"BKN","skyCondition2b":4200,"flightCategory":"VFR","metarType":"METAR","geometry_esri":{"x":47.78,"y":13.02,"z":430}}}