{"type":"Feature","geometry":{"type":"Point","coordinates":[47.78,13.02,430]},"properties":{"stationId":"LOWS","rawText":"LOWS 200550Z 04002KT 4000 BR FEW001 SCT010 BKN025 01/01 Q1016 NOSIG","observationTime":"2019-11-20T05:50:00Z","temp":1,"dewpoint":1,"windDirection":40,"windSpeed":3.704,"visibility":2.49,"altim":30,"qualityControlFlag":"TRUE","skyCondition1a":"FEW","skyCondition1b":100,"skyCondition2a":"SCT","skyCondition2b":1000,"flightCategory":"IFR","metarType":"METAR","geometry_esri":{"x":47.78,"y":13.02,"z":430}}}