{"type":"Feature","geometry":{"type":"Point","coordinates":[47.78,13.02,430]},"properties":{"stationId":"LOWS","rawText":"LOWS 290550Z 16003KT 9999 FEW010 BKN028 05/04 Q1020 NOSIG","observationTime":"2019-04-29T05:50:00Z","temp":5,"dewpoint":4,"windDirection":160,"windSpeed":5.556,"visibility":6.21,"altim":30.11811,"qualityControlFlag":"TRUE","skyCondition1a":"FEW","skyCondition1b":1000,"skyCondition2a":"BKN","skyCondition2b":2800,"flightCategory":"MVFR","metarType":"METAR","geometry_esri":{"x":47.78,"y":13.02,"z":430}}}