{"type":"Feature","geometry":{"type":"Point","coordinates":[47.78,13.02,430]},"properties":{"stationId":"LOWS","rawText":"LOWS 121650Z 02006KT 340V040 9999 FEW038 BKN042 10/03 Q1015 NOSIG","observationTime":"2020-05-12T16:50:00Z","temp":10,"dewpoint":3,"windDirection":20,"windSpeed":11.112,"visibility":6.21,"altim":29.970472,"qualityControlFlag":"TRUE","skyCondition1a":"FEW","skyCondition1b":3800,"skyCondition2a":"BKN","skyCondition2b":4200,"flightCategory":"VFR","metarType":"METAR","geometry_esri":{"x":47.78,"y":13.02,"z":430}}}