{"type":"Feature","geometry":{"type":"Point","coordinates":[47.78,13.02,427]},"properties":{"stationId":"LOWS","rawText":"LOWS 050450Z 24004KT 9999 FEW014 OVC016 M02/M05 Q1009 NOSIG","observationTime":"2021-01-05T04:50:00Z","temp":-2,"dewpoint":-5,"windDirection":240,"windSpeed":7.408,"visibility":6.21,"altim":29.793306,"qualityControlFlag":"TRUE","skyCondition1a":"FEW","skyCondition1b":1400,"skyCondition2a":"OVC","skyCondition2b":1600,"flightCategory":"MVFR","metarType":"METAR","geometry_esri":{"x":47.78,"y":13.02,"z":427}}}