{"type":"Feature","geometry":{"type":"Point","coordinates":[47.78,13.02,427]},"properties":{"stationId":"LOWS","rawText":"LOWS 110550Z 17004KT 8000 FEW003 BKN063 14/13 Q1018 NOSIG","observationTime":"2020-09-11T05:50:00Z","temp":14,"dewpoint":13,"windDirection":170,"windSpeed":7.408,"visibility":4.97,"altim":30.059055,"qualityControlFlag":"TRUE","skyCondition1a":"FEW","skyCondition1b":300,"skyCondition2a":"BKN","skyCondition2b":6300,"flightCategory":"MVFR","metarType":"METAR","geometry_esri":{"x":47.78,"y":13.02,"z":427}}}