{"type":"Feature","geometry":{"type":"Point","coordinates":[47.78,13.02,427]},"properties":{"stationId":"LOWS","rawText":"LOWS 041450Z 02006KT 9999 FEW020 BKN026 10/06 Q1029 NOSIG","observationTime":"2020-11-04T14:50:00Z","temp":10,"dewpoint":6,"windDirection":20,"windSpeed":11.112,"visibility":6.21,"altim":30.383858,"qualityControlFlag":"TRUE","skyCondition1a":"FEW","skyCondition1b":2000,"skyCondition2a":"BKN","skyCondition2b":2600,"flightCategory":"MVFR","metarType":"METAR","geometry_esri":{"x":47.78,"y":13.02,"z":427}}}