{"type":"Feature","geometry":{"type":"Point","coordinates":[47.78,13.02,430]},"properties":{"stationId":"LOWS","rawText":"LOWS 101150Z 17008KT 9999 FEW100 BKN120 BKN250 10/M01 Q1004 NOSIG","observationTime":"2019-02-10T11:50:00Z","temp":10,"dewpoint":-1,"windDirection":170,"windSpeed":14.816,"visibility":6.21,"altim":29.64567,"qualityControlFlag":"TRUE","skyCondition1a":"FEW","skyCondition1b":10000,"skyCondition2a":"BKN","skyCondition2b":12000,"flightCategory":"VFR","metarType":"METAR","geometry_esri":{"x":47.78,"y":13.02,"z":430}}}