{"type":"Feature","geometry":{"type":"Point","coordinates":[47.78,13.02,430]},"properties":{"stationId":"LOWS","rawText":"LOWS 021050Z 34005KT 300V360 9999 FEW020 BKN110 09/07 Q1022 NOSIG","observationTime":"2018-11-02T10:50:00Z","temp":9,"dewpoint":7,"windDirection":340,"windSpeed":9.26,"visibility":6.21,"altim":30.177166,"qualityControlFlag":"TRUE","skyCondition1a":"FEW","skyCondition1b":2000,"skyCondition2a":"BKN","skyCondition2b":11000,"flightCategory":"VFR","metarType":"METAR","geometry_esri":{"x":47.78,"y":13.02,"z":430}}}