{"type":"Feature","geometry":{"type":"Point","coordinates":[47.78,13.02,427]},"properties":{"stationId":"LOWS","rawText":"LOWS 311550Z 01007KT 340V040 9999 FEW034 SCT042 BKN070 17/11 Q1017 NOSIG","observationTime":"2020-08-31T15:50:00Z","temp":17,"dewpoint":11,"windDirection":10,"windSpeed":12.964,"visibility":6.21,"altim":30.029528,"qualityControlFlag":"TRUE","skyCondition1a":"FEW","skyCondition1b":3400,"skyCondition2a":"SCT","skyCondition2b":4200,"flightCategory":"VFR","metarType":"METAR","geometry_esri":{"x":47.78,"y":13.02,"z":427}}}