{"type":"Feature","geometry":{"type":"Point","coordinates":[47.78,13.02,430]},"properties":{"stationId":"LOWS","rawText":"LOWS 021450Z 25003KT 220V290 9999 FEW025 FEW040CB SCT060 BKN110 22/16 Q1018 NOSIG","observationTime":"2018-06-02T14:50:00Z","temp":22,"dewpoint":16,"windDirection":250,"windSpeed":5.556,"visibility":6.21,"altim":30.059055,"qualityControlFlag":"TRUE","skyCondition1a":"FEW","skyCondition1b":2500,"skyCondition2a":"FEW","skyCondition2b":4000,"flightCategory":"VFR","metarType":"METAR","geometry_esri":{"x":47.78,"y":13.02,"z":430}}}