{"type":"Feature","geometry":{"type":"Point","coordinates":[47.78,13.02,430]},"properties":{"stationId":"LOWS","rawText":"LOWS 230750Z 31005KT 9999 FEW030 SCT050 14/07 Q1025 NOSIG","observationTime":"2018-06-23T07:50:00Z","temp":14,"dewpoint":7,"windDirection":310,"windSpeed":9.26,"visibility":6.21,"altim":30.265747,"qualityControlFlag":"TRUE","skyCondition1a":"FEW","skyCondition1b":3000,"skyCondition2a":"SCT","skyCondition2b":5000,"flightCategory":"VFR","metarType":"METAR","geometry_esri":{"x":47.78,"y":13.02,"z":430}}}