{"type":"Feature","geometry":{"type":"Point","coordinates":[47.78,13.02,430]},"properties":{"stationId":"LOWS","rawText":"LOWS 221650Z 01003KT 9999 FEW070 BKN160 27/15 Q1023 NOSIG","observationTime":"2019-07-22T16:50:00Z","temp":27,"dewpoint":15,"windDirection":10,"windSpeed":5.556,"visibility":6.21,"altim":30.206694,"qualityControlFlag":"TRUE","skyCondition1a":"FEW","skyCondition1b":7000,"skyCondition2a":"BKN","skyCondition2b":16000,"flightCategory":"VFR","metarType":"METAR","geometry_esri":{"x":47.78,"y":13.02,"z":430}}}