{"type":"Feature","geometry":{"type":"Point","coordinates":[47.78,13.02,430]},"properties":{"stationId":"LOWS","rawText":"LOWS 071050Z 30012KT 9999 FEW012 SCT022 BKN028 16/13 Q1007 NOSIG","observationTime":"2020-06-07T10:50:00Z","temp":16,"dewpoint":13,"windDirection":300,"windSpeed":22.224,"visibility":6.21,"altim":29.734253,"qualityControlFlag":"TRUE","skyCondition1a":"FEW","skyCondition1b":1200,"skyCondition2a":"SCT","skyCondition2b":2200,"flightCategory":"MVFR","metarType":"METAR","geometry_esri":{"x":47.78,"y":13.02,"z":430}}}