{"type":"Feature","geometry":{"type":"Point","coordinates":[47.78,13.02,430]},"properties":{"stationId":"LOWS","rawText":"LOWS 171450Z 36009KT 320V020 9999 FEW016 BKN018 04/00 Q0994 NOSIG","observationTime":"2018-03-17T14:50:00Z","temp":4,"dewpoint":0,"windDirection":360,"windSpeed":16.668,"visibility":6.21,"altim":29.350393,"qualityControlFlag":"TRUE","skyCondition1a":"FEW","skyCondition1b":1600,"skyCondition2a":"BKN","skyCondition2b":1800,"flightCategory":"MVFR","metarType":"METAR","geometry_esri":{"x":47.78,"y":13.02,"z":430}}}