{"type":"Feature","geometry":{"type":"Point","coordinates":[47.78,13.02,430]},"properties":{"stationId":"LOWS","rawText":"LOWS 161250Z 31004KT 230V350 7000 SCT007 BKN008 04/03 Q1010 NOSIG","observationTime":"2019-11-16T12:50:00Z","temp":4,"dewpoint":3,"windDirection":310,"windSpeed":7.408,"visibility":4.35,"altim":29.822834,"qualityControlFlag":"TRUE","skyCondition1a":"SCT","skyCondition1b":700,"skyCondition2a":"BKN","skyCondition2b":800,"flightCategory":"IFR","metarType":"METAR","geometry_esri":{"x":47.78,"y":13.02,"z":430}}}