{"type":"Feature","geometry":{"type":"Point","coordinates":[47.78,13.02,430]},"properties":{"stationId":"LOWS","rawText":"LOWS 052050Z 31005KT 0650 R15/0800N R33/1000D FZFG FEW001 BKN002 M05/M05 Q1030 NOSIG","observationTime":"2019-02-05T20:50:00Z","temp":-5,"dewpoint":-5,"windDirection":310,"windSpeed":9.26,"visibility":0.4,"altim":30.413385,"qualityControlFlag":"TRUE","skyCondition1a":"FEW","skyCondition1b":100,"skyCondition2a":"BKN","skyCondition2b":200,"flightCategory":"LIFR","metarType":"METAR","geometry_esri":{"x":47.78,"y":13.02,"z":430}}}