{"type":"Feature","geometry":{"type":"Point","coordinates":[47.78,13.02,430]},"properties":{"stationId":"LOWS","rawText":"LOWS 181250Z 36008KT 320V030 9999 SCT020 BKN028 M01/M06 Q1001 NOSIG","observationTime":"2018-03-18T12:50:00Z","temp":-1,"dewpoint":-6,"windDirection":360,"windSpeed":14.816,"visibility":6.21,"altim":29.557087,"qualityControlFlag":"TRUE","skyCondition1a":"SCT","skyCondition1b":2000,"skyCondition2a":"BKN","skyCondition2b":2800,"flightCategory":"MVFR","metarType":"METAR","geometry_esri":{"x":47.78,"y":13.02,"z":430}}}