{"type":"Feature","geometry":{"type":"Point","coordinates":[47.78,13.02,427]},"properties":{"stationId":"LOWS","rawText":"LOWS 291250Z VRB04KT 8000 -RA FEW004 SCT015 BKN030 08/08 Q1021 RERA NOSIG","observationTime":"2020-10-29T12:50:00Z","temp":8,"dewpoint":8,"windDirection":0,"windSpeed":7.408,"visibility":4.97,"altim":30.147638,"qualityControlFlag":"TRUE","skyCondition1a":"FEW","skyCondition1b":400,"skyCondition2a":"SCT","skyCondition2b":1500,"flightCategory":"MVFR","metarType":"METAR","geometry_esri":{"x":47.78,"y":13.02,"z":427}}}