{"type":"Feature","geometry":{"type":"Point","coordinates":[47.78,13.02,430]},"properties":{"stationId":"LOWS","rawText":"LOWS 151250Z 26005KT 9999 FEW022 BKN033 12/08 Q1011 NOSIG","observationTime":"2018-05-15T12:50:00Z","temp":12,"dewpoint":8,"windDirection":260,"windSpeed":9.26,"visibility":6.21,"altim":29.852362,"qualityControlFlag":"TRUE","skyCondition1a":"FEW","skyCondition1b":2200,"skyCondition2a":"BKN","skyCondition2b":3300,"flightCategory":"VFR","metarType":"METAR","geometry_esri":{"x":47.78,"y":13.02,"z":430}}}