{"type":"Feature","geometry":{"type":"Point","coordinates":[47.78,13.02,430]},"properties":{"stationId":"LOWS","rawText":"LOWS 051150Z 05011KT 010V080 9999 FEW025 SCT130 21/14 Q1020 NOSIG","observationTime":"2018-05-05T11:50:00Z","temp":21,"dewpoint":14,"windDirection":50,"windSpeed":20.372,"visibility":6.21,"altim":30.11811,"qualityControlFlag":"TRUE","skyCondition1a":"FEW","skyCondition1b":2500,"skyCondition2a":"SCT","skyCondition2b":13000,"flightCategory":"VFR","metarType":"METAR","geometry_esri":{"x":47.78,"y":13.02,"z":430}}}