{"type":"Feature","geometry":{"type":"Point","coordinates":[47.78,13.02,430]},"properties":{"stationId":"LOWS","rawText":"LOWS 041050Z 17004KT 130V210 7000 -RA FEW005 SCT015 BKN025 15/14 Q1016 NOSIG","observationTime":"2018-09-04T10:50:00Z","temp":15,"dewpoint":14,"windDirection":170,"windSpeed":7.408,"visibility":4.35,"altim":30,"qualityControlFlag":"TRUE","skyCondition1a":"FEW","skyCondition1b":500,"skyCondition2a":"SCT","skyCondition2b":1500,"flightCategory":"MVFR","metarType":"METAR","geometry_esri":{"x":47.78,"y":13.02,"z":430}}}