{"type":"Feature","geometry":{"type":"Point","coordinates":[47.78,13.02,430]},"properties":{"stationId":"LOWS","rawText":"LOWS 010950Z 32003KT 260V350 9999 -RA FEW003 SCT008 BKN025 13/12 Q1021 NOSIG","observationTime":"2018-09-01T09:50:00Z","temp":13,"dewpoint":12,"windDirection":320,"windSpeed":5.556,"visibility":6.21,"altim":30.147638,"qualityControlFlag":"TRUE","skyCondition1a":"FEW","skyCondition1b":300,"skyCondition2a":"SCT","skyCondition2b":800,"flightCategory":"MVFR","metarType":"METAR","geometry_esri":{"x":47.78,"y":13.02,"z":430}}}