{"type":"Feature","geometry":{"type":"Point","coordinates":[47.78,13.02,427]},"properties":{"stationId":"LOWS","rawText":"LOWS 140650Z 30009KT 260V320 9999 FEW020 SCT026 BKN120 01/M02 Q1012 R88/////// NOSIG","observationTime":"2021-01-14T06:50:00Z","temp":1,"dewpoint":-2,"windDirection":300,"windSpeed":16.668,"visibility":6.21,"altim":29.88189,"qualityControlFlag":"TRUE","skyCondition1a":"FEW","skyCondition1b":2000,"skyCondition2a":"SCT","skyCondition2b":2600,"flightCategory":"VFR","metarType":"METAR","geometry_esri":{"x":47.78,"y":13.02,"z":427}}}