{"type":"Feature","geometry":{"type":"Point","coordinates":[47.78,13.02,430]},"properties":{"stationId":"LOWS","rawText":"LOWS 040550Z 27010KT 230V310 9999 FEW040 SCT060 11/03 Q1014 NOSIG","observationTime":"2018-12-04T05:50:00Z","temp":11,"dewpoint":3,"windDirection":270,"windSpeed":18.52,"visibility":6.21,"altim":29.940945,"qualityControlFlag":"TRUE","skyCondition1a":"FEW","skyCondition1b":4000,"skyCondition2a":"SCT","skyCondition2b":6000,"flightCategory":"VFR","metarType":"METAR","geometry_esri":{"x":47.78,"y":13.02,"z":430}}}