{"type":"Feature","geometry":{"type":"Point","coordinates":[47.78,13.02,430]},"properties":{"stationId":"LOWS","rawText":"LOWS 120550Z VRB03KT 9999 FEW014 BKN018 20/16 Q1010 NOSIG","observationTime":"2018-06-12T05:50:00Z","temp":20,"dewpoint":16,"windDirection":0,"windSpeed":5.556,"visibility":6.21,"altim":29.822834,"qualityControlFlag":"TRUE","skyCondition1a":"FEW","skyCondition1b":1400,"skyCondition2a":"BKN","skyCondition2b":1800,"flightCategory":"MVFR","metarType":"METAR","geometry_esri":{"x":47.78,"y":13.02,"z":430}}}