{"type":"Feature","geometry":{"type":"Point","coordinates":[47.78,13.02,430]},"properties":{"stationId":"LOWS","rawText":"LOWS 050750Z 19003KT 9999 FEW050 BKN140 BKN300 02/M01 Q1000 NOSIG","observationTime":"2018-03-05T07:50:00Z","temp":2,"dewpoint":-1,"windDirection":190,"windSpeed":5.556,"visibility":6.21,"altim":29.52756,"qualityControlFlag":"TRUE","skyCondition1a":"FEW","skyCondition1b":5000,"skyCondition2a":"BKN","skyCondition2b":14000,"flightCategory":"VFR","metarType":"METAR","geometry_esri":{"x":47.78,"y":13.02,"z":430}}}