{"type":"Feature","geometry":{"type":"Point","coordinates":[47.78,13.02,430]},"properties":{"stationId":"LOWS","rawText":"LOWS 210750Z 32007KT 9999 FEW024 BKN038 09/06 Q1028 NOSIG","observationTime":"2018-10-21T07:50:00Z","temp":9,"dewpoint":6,"windDirection":320,"windSpeed":12.964,"visibility":6.21,"altim":30.35433,"qualityControlFlag":"TRUE","skyCondition1a":"FEW","skyCondition1b":2400,"skyCondition2a":"BKN","skyCondition2b":3800,"flightCategory":"VFR","metarType":"METAR","geometry_esri":{"x":47.78,"y":13.02,"z":430}}}