{"type":"Feature","geometry":{"type":"Point","coordinates":[47.78,13.02,430]},"properties":{"stationId":"LOWS","rawText":"LOWS 181050Z 33010KT 300V360 9999 FEW040 BKN060 BKN110 19/10 Q1014 NOSIG","observationTime":"2020-06-18T10:50:00Z","temp":19,"dewpoint":10,"windDirection":330,"windSpeed":18.52,"visibility":6.21,"altim":29.940945,"qualityControlFlag":"TRUE","skyCondition1a":"FEW","skyCondition1b":4000,"skyCondition2a":"BKN","skyCondition2b":6000,"flightCategory":"VFR","metarType":"METAR","geometry_esri":{"x":47.78,"y":13.02,"z":430}}}