{"type":"Feature","geometry":{"type":"Point","coordinates":[47.78,13.02,430]},"properties":{"stationId":"LOWS","rawText":"LOWS 160850Z 30003KT 260V320 9999 FEW070 BKN100 M05/M08 Q1014 NOSIG","observationTime":"2018-12-16T08:50:00Z","temp":-5,"dewpoint":-8,"windDirection":300,"windSpeed":5.556,"visibility":6.21,"altim":29.940945,"qualityControlFlag":"TRUE","skyCondition1a":"FEW","skyCondition1b":7000,"skyCondition2a":"BKN","skyCondition2b":10000,"flightCategory":"VFR","metarType":"METAR","geometry_esri":{"x":47.78,"y":13.02,"z":430}}}