{"type":"Feature","geometry":{"type":"Point","coordinates":[47.78,13.02,430]},"properties":{"stationId":"LOWS","rawText":"LOWS 070650Z 19002KT 9999 MIFG FEW140 BKN300 05/04 Q1012 NOSIG","observationTime":"2018-11-07T06:50:00Z","temp":5,"dewpoint":4,"windDirection":190,"windSpeed":3.704,"visibility":6.21,"altim":29.88189,"qualityControlFlag":"TRUE","skyCondition1a":"FEW","skyCondition1b":14000,"skyCondition2a":"BKN","skyCondition2b":30000,"flightCategory":"VFR","metarType":"METAR","geometry_esri":{"x":47.78,"y":13.02,"z":430}}}