{"type":"Feature","geometry":{"type":"Point","coordinates":[47.78,13.02,430]},"properties":{"stationId":"LOWS","rawText":"LOWS 110350Z 19004KT 150V220 9999 4000NW FEW001 SCT100 14/13 Q1024 NOSIG","observationTime":"2018-08-11T03:50:00Z","temp":14,"dewpoint":13,"windDirection":190,"windSpeed":7.408,"visibility":6.21,"altim":30.236221,"qualityControlFlag":"TRUE","skyCondition1a":"FEW","skyCondition1b":100,"skyCondition2a":"SCT","skyCondition2b":10000,"flightCategory":"VFR","metarType":"METAR","geometry_esri":{"x":47.78,"y":13.02,"z":430}}}