{"type":"Feature","geometry":{"type":"Point","coordinates":[47.78,13.02,427]},"properties":{"stationId":"LOWS","rawText":"LOWS 230950Z VRB02KT 9999 FEW035 SCT055 BKN090 04/01 Q1029 NOSIG","observationTime":"2020-11-23T09:50:00Z","temp":4,"dewpoint":1,"windDirection":0,"windSpeed":3.704,"visibility":6.21,"altim":30.383858,"qualityControlFlag":"TRUE","skyCondition1a":"FEW","skyCondition1b":3500,"skyCondition2a":"SCT","skyCondition2b":5500,"flightCategory":"VFR","metarType":"METAR","geometry_esri":{"x":47.78,"y":13.02,"z":427}}}