{"type":"Feature","geometry":{"type":"Point","coordinates":[47.78,13.02,430]},"properties":{"stationId":"LOWS","rawText":"LOWS 270720Z 16004KT 130V200 9999 FEW050 BKN075 01/M03 Q1010 R15/19//95 NOSIG","observationTime":"2020-02-27T07:20:00Z","temp":1,"dewpoint":-3,"windDirection":160,"windSpeed":7.408,"visibility":6.21,"altim":29.822834,"qualityControlFlag":"TRUE","skyCondition1a":"FEW","skyCondition1b":5000,"skyCondition2a":"BKN","skyCondition2b":7500,"flightCategory":"VFR","metarType":"METAR","geometry_esri":{"x":47.78,"y":13.02,"z":430}}}