{"type":"Feature","geometry":{"type":"Point","coordinates":[47.78,13.02,430]},"properties":{"stationId":"LOWS","rawText":"LOWS 010650Z 14016G29KT 9999 FEW090 SCT140 BKN300 15/02 Q1011 NOSIG","observationTime":"2018-11-01T06:50:00Z","temp":15,"dewpoint":2,"windDirection":140,"windSpeed":29.632,"visibility":6.21,"altim":29.852362,"qualityControlFlag":"TRUE","skyCondition1a":"FEW","skyCondition1b":9000,"skyCondition2a":"SCT","skyCondition2b":14000,"flightCategory":"VFR","metarType":"METAR","geometry_esri":{"x":47.78,"y":13.02,"z":430}}}