{"type":"Feature","geometry":{"type":"Point","coordinates":[47.78,13.02,430]},"properties":{"stationId":"LOWS","rawText":"LOWS 241450Z 22008KT 180V250 9999 -SHRA FEW020 BKN032 05/03 Q1012 RERA NOSIG","observationTime":"2019-12-24T14:50:00Z","temp":5,"dewpoint":3,"windDirection":220,"windSpeed":14.816,"visibility":6.21,"altim":29.88189,"qualityControlFlag":"TRUE","skyCondition1a":"FEW","skyCondition1b":2000,"skyCondition2a":"BKN","skyCondition2b":3200,"flightCategory":"VFR","metarType":"METAR","geometry_esri":{"x":47.78,"y":13.02,"z":430}}}