{"type":"Feature","geometry":{"type":"Point","coordinates":[47.78,13.02,430]},"properties":{"stationId":"LOWS","rawText":"LOWS 050850Z VRB02KT 9999 -SHRA FEW035 BKN040 09/06 Q1014 NOSIG","observationTime":"2018-04-05T08:50:00Z","temp":9,"dewpoint":6,"windDirection":0,"windSpeed":3.704,"visibility":6.21,"altim":29.940945,"qualityControlFlag":"TRUE","skyCondition1a":"FEW","skyCondition1b":3500,"skyCondition2a":"BKN","skyCondition2b":4000,"flightCategory":"VFR","metarType":"METAR","geometry_esri":{"x":47.78,"y":13.02,"z":430}}}