{"type":"Feature","geometry":{"type":"Point","coordinates":[47.78,13.02,430]},"properties":{"stationId":"LOWS","rawText":"LOWS 061150Z 34007KT 310V010 9999 SCT045 BKN060 23/13 Q1012 NOSIG","observationTime":"2019-06-06T11:50:00Z","temp":23,"dewpoint":13,"windDirection":340,"windSpeed":12.964,"visibility":6.21,"altim":29.88189,"qualityControlFlag":"TRUE","skyCondition1a":"SCT","skyCondition1b":4500,"skyCondition2a":"BKN","skyCondition2b":6000,"flightCategory":"VFR","metarType":"METAR","geometry_esri":{"x":47.78,"y":13.02,"z":430}}}