{"type":"Feature","geometry":{"type":"Point","coordinates":[47.78,13.02,430]},"properties":{"stationId":"LOWS","rawText":"LOWS 050950Z 17002KT 9999 FEW009 BKN060 BKN100 05/04 Q1028 NOSIG","observationTime":"2018-12-05T09:50:00Z","temp":5,"dewpoint":4,"windDirection":170,"windSpeed":3.704,"visibility":6.21,"altim":30.35433,"qualityControlFlag":"TRUE","skyCondition1a":"FEW","skyCondition1b":900,"skyCondition2a":"BKN","skyCondition2b":6000,"flightCategory":"VFR","metarType":"METAR","geometry_esri":{"x":47.78,"y":13.02,"z":430}}}