{"type":"Feature","geometry":{"type":"Point","coordinates":[47.78,13.02,427]},"properties":{"stationId":"LOWS","rawText":"LOWS 071250Z 29005KT 250V310 9999 FEW017 SCT020 BKN026 04/01 Q1002 NOSIG","observationTime":"2020-12-07T12:50:00Z","temp":4,"dewpoint":1,"windDirection":290,"windSpeed":9.26,"visibility":6.21,"altim":29.586615,"qualityControlFlag":"TRUE","skyCondition1a":"FEW","skyCondition1b":1700,"skyCondition2a":"SCT","skyCondition2b":2000,"flightCategory":"MVFR","metarType":"METAR","geometry_esri":{"x":47.78,"y":13.02,"z":427}}}