{"type":"Feature","geometry":{"type":"Point","coordinates":[47.78,13.02,430]},"properties":{"stationId":"LOWS","rawText":"LOWS 261620Z 28009KT 250V320 9999 FEW022 BKN048 02/M02 Q1004 R15/2///95 NOSIG","observationTime":"2020-02-26T16:20:00Z","temp":2,"dewpoint":-2,"windDirection":280,"windSpeed":16.668,"visibility":6.21,"altim":29.64567,"qualityControlFlag":"TRUE","skyCondition1a":"FEW","skyCondition1b":2200,"skyCondition2a":"BKN","skyCondition2b":4800,"flightCategory":"VFR","metarType":"SPECI","geometry_esri":{"x":47.78,"y":13.02,"z":430}}}