{"type":"Feature","geometry":{"type":"Point","coordinates":[47.78,13.02,430]},"properties":{"stationId":"LOWS","rawText":"LOWS 270750Z 36005KT 330V030 3000 -SN FEW012 SCT019 BKN036 M11/M14 Q1014 R15/490195 NOSIG","observationTime":"2018-02-27T07:50:00Z","temp":-11,"dewpoint":-14,"windDirection":360,"windSpeed":9.26,"visibility":1.86,"altim":29.940945,"qualityControlFlag":"TRUE","skyCondition1a":"FEW","skyCondition1b":1200,"skyCondition2a":"SCT","skyCondition2b":1900,"flightCategory":"IFR","metarType":"METAR","geometry_esri":{"x":47.78,"y":13.02,"z":430}}}