{"type":"Feature","geometry":{"type":"Point","coordinates":[47.78,13.02,427]},"properties":{"stationId":"LOWS","rawText":"LOWS 091750Z 05003KT 9999 -RA FEW013 SCT017 BKN024 02/01 Q1008 NOSIG","observationTime":"2020-12-09T17:50:00Z","temp":2,"dewpoint":1,"windDirection":50,"windSpeed":5.556,"visibility":6.21,"altim":29.763779,"qualityControlFlag":"TRUE","skyCondition1a":"FEW","skyCondition1b":1300,"skyCondition2a":"SCT","skyCondition2b":1700,"flightCategory":"MVFR","metarType":"METAR","geometry_esri":{"x":47.78,"y":13.02,"z":427}}}