{"type":"Feature","geometry":{"type":"Point","coordinates":[47.78,13.02,430]},"properties":{"stationId":"LOWS","rawText":"LOWS 041550Z 27010KT 230V300 9999 FEW015 BKN055 04/M01 Q1029 NOSIG","observationTime":"2020-01-04T15:50:00Z","temp":4,"dewpoint":-1,"windDirection":270,"windSpeed":18.52,"visibility":6.21,"altim":30.383858,"qualityControlFlag":"TRUE","skyCondition1a":"FEW","skyCondition1b":1500,"skyCondition2a":"BKN","skyCondition2b":5500,"flightCategory":"VFR","metarType":"METAR","geometry_esri":{"x":47.78,"y":13.02,"z":430}}}