{"type":"Feature","geometry":{"type":"Point","coordinates":[47.78,13.02,427]},"properties":{"stationId":"LOWS","rawText":"LOWS 091450Z 32006KT 9999 FEW022 SCT024 M01/M04 Q1020 NOSIG","observationTime":"2021-01-09T14:50:00Z","temp":-1,"dewpoint":-4,"windDirection":320,"windSpeed":11.112,"visibility":6.21,"altim":30.11811,"qualityControlFlag":"TRUE","skyCondition1a":"FEW","skyCondition1b":2200,"skyCondition2a":"SCT","skyCondition2b":2400,"flightCategory":"VFR","metarType":"METAR","geometry_esri":{"x":47.78,"y":13.02,"z":427}}}