{"type":"Feature","geometry":{"type":"Point","coordinates":[47.78,13.02,430]},"properties":{"stationId":"LOWS","rawText":"LOWS 161050Z 22004KT 120V270 9999 FEW030 SCT045 21/11 Q1020 NOSIG","observationTime":"2019-08-16T10:50:00Z","temp":21,"dewpoint":11,"windDirection":220,"windSpeed":7.408,"visibility":6.21,"altim":30.11811,"qualityControlFlag":"TRUE","skyCondition1a":"FEW","skyCondition1b":3000,"skyCondition2a":"SCT","skyCondition2b":4500,"flightCategory":"VFR","metarType":"METAR","geometry_esri":{"x":47.78,"y":13.02,"z":430}}}