{"type":"Feature","geometry":{"type":"Point","coordinates":[47.78,13.02,430]},"properties":{"stationId":"LOWS","rawText":"LOWS 191920Z 22004KT 170V240 9999 FEW030 SCT034 BKN060 01/M00 Q1025 NOSIG","observationTime":"2020-02-19T19:20:00Z","temp":1,"dewpoint":0,"windDirection":220,"windSpeed":7.408,"visibility":6.21,"altim":30.265747,"qualityControlFlag":"TRUE","skyCondition1a":"FEW","skyCondition1b":3000,"skyCondition2a":"SCT","skyCondition2b":3400,"flightCategory":"VFR","metarType":"METAR","geometry_esri":{"x":47.78,"y":13.02,"z":430}}}