{"type":"Feature","geometry":{"type":"Point","coordinates":[47.78,13.02,430]},"properties":{"stationId":"LOWS","rawText":"LOWS 081950Z 27013G26KT 210V310 9999 -RA FEW009 SCT012 BKN020 03/00 Q1010 R15/29//95 NOSIG","observationTime":"2019-01-08T19:50:00Z","temp":3,"dewpoint":0,"windDirection":270,"windSpeed":24.076,"visibility":6.21,"altim":29.822834,"qualityControlFlag":"TRUE","skyCondition1a":"FEW","skyCondition1b":900,"skyCondition2a":"SCT","skyCondition2b":1200,"flightCategory":"MVFR","metarType":"METAR","geometry_esri":{"x":47.78,"y":13.02,"z":430}}}