{"type":"Feature","geometry":{"type":"Point","coordinates":[47.78,13.02,430]},"properties":{"stationId":"LOWS","rawText":"LOWS 021150Z 28003KT 240V300 9999 FEW018 BKN030 16/12 Q1021 NOSIG","observationTime":"2018-09-02T11:50:00Z","temp":16,"dewpoint":12,"windDirection":280,"windSpeed":5.556,"visibility":6.21,"altim":30.147638,"qualityControlFlag":"TRUE","skyCondition1a":"FEW","skyCondition1b":1800,"skyCondition2a":"BKN","skyCondition2b":3000,"flightCategory":"MVFR","metarType":"METAR","geometry_esri":{"x":47.78,"y":13.02,"z":430}}}