{"type":"Feature","geometry":{"type":"Point","coordinates":[47.78,13.02,430]},"properties":{"stationId":"LOWS","rawText":"LOWS 020350Z 21004KT 170V240 9999 -RA FEW004 SCT070 BKN080 15/14 Q1020 NOSIG","observationTime":"2018-06-02T03:50:00Z","temp":15,"dewpoint":14,"windDirection":210,"windSpeed":7.408,"visibility":6.21,"altim":30.11811,"qualityControlFlag":"TRUE","skyCondition1a":"FEW","skyCondition1b":400,"skyCondition2a":"SCT","skyCondition2b":7000,"flightCategory":"VFR","metarType":"METAR","geometry_esri":{"x":47.78,"y":13.02,"z":430}}}