{"type":"Feature","geometry":{"type":"Point","coordinates":[47.78,13.02,430]},"properties":{"stationId":"LOWS","rawText":"LOWS 111950Z 26007KT 230V300 9999 -SHSN FEW015 SCT025 BKN050 02/M02 Q1021 NOSIG","observationTime":"2018-12-11T19:50:00Z","temp":2,"dewpoint":-2,"windDirection":260,"windSpeed":12.964,"visibility":6.21,"altim":30.147638,"qualityControlFlag":"TRUE","skyCondition1a":"FEW","skyCondition1b":1500,"skyCondition2a":"SCT","skyCondition2b":2500,"flightCategory":"VFR","metarType":"METAR","geometry_esri":{"x":47.78,"y":13.02,"z":430}}}