{"type":"Feature","geometry":{"type":"Point","coordinates":[47.78,13.02,430]},"properties":{"stationId":"LOWS","rawText":"LOWS 122050Z 27008KT 220V300 9999 FEW040 SCT080 BKN300 06/M04 Q1020 NOSIG","observationTime":"2020-02-12T20:50:00Z","temp":6,"dewpoint":-4,"windDirection":270,"windSpeed":14.816,"visibility":6.21,"altim":30.11811,"qualityControlFlag":"TRUE","skyCondition1a":"FEW","skyCondition1b":4000,"skyCondition2a":"SCT","skyCondition2b":8000,"flightCategory":"VFR","metarType":"METAR","geometry_esri":{"x":47.78,"y":13.02,"z":430}}}