{"type":"Feature","geometry":{"type":"Point","coordinates":[47.78,13.02,430]},"properties":{"stationId":"LOWS","rawText":"LOWS 071150Z 35006KT 290V050 9999 FEW060 FEW060TCU 31/16 Q1014 NOSIG","observationTime":"2018-08-07T11:50:00Z","temp":31,"dewpoint":16,"windDirection":350,"windSpeed":11.112,"visibility":6.21,"altim":29.940945,"qualityControlFlag":"TRUE","skyCondition1a":"FEW","skyCondition1b":6000,"skyCondition2a":"FEW","skyCondition2b":6000,"flightCategory":"VFR","metarType":"METAR","geometry_esri":{"x":47.78,"y":13.02,"z":430}}}