{"type":"Feature","geometry":{"type":"Point","coordinates":[47.78,13.02,430]},"properties":{"stationId":"LOWS","rawText":"LOWS 210650Z 01003KT 300V110 9999 FEW015 SCT044 15/11 Q1022 NOSIG","observationTime":"2020-05-21T06:50:00Z","temp":15,"dewpoint":11,"windDirection":10,"windSpeed":5.556,"visibility":6.21,"altim":30.177166,"qualityControlFlag":"TRUE","skyCondition1a":"FEW","skyCondition1b":1500,"skyCondition2a":"SCT","skyCondition2b":4400,"flightCategory":"VFR","metarType":"METAR","geometry_esri":{"x":47.78,"y":13.02,"z":430}}}