{"type":"Feature","geometry":{"type":"Point","coordinates":[47.78,13.02,430]},"properties":{"stationId":"LOWS","rawText":"LOWS 270950Z 09003KT 040V160 9999 -DZ FEW003 SCT070 BKN090 04/03 Q1001 NOSIG","observationTime":"2019-11-27T09:50:00Z","temp":4,"dewpoint":3,"windDirection":90,"windSpeed":5.556,"visibility":6.21,"altim":29.557087,"qualityControlFlag":"TRUE","skyCondition1a":"FEW","skyCondition1b":300,"skyCondition2a":"SCT","skyCondition2b":7000,"flightCategory":"VFR","metarType":"METAR","geometry_esri":{"x":47.78,"y":13.02,"z":430}}}