{"type":"Feature","geometry":{"type":"Point","coordinates":[47.78,13.02,427]},"properties":{"stationId":"LOWS","rawText":"LOWS 050950Z 02004KT 310V110 9999 FEW011 BKN016 09/06 Q1036 NOSIG","observationTime":"2020-11-05T09:50:00Z","temp":9,"dewpoint":6,"windDirection":20,"windSpeed":7.408,"visibility":6.21,"altim":30.590551,"qualityControlFlag":"TRUE","skyCondition1a":"FEW","skyCondition1b":1100,"skyCondition2a":"BKN","skyCondition2b":1600,"flightCategory":"MVFR","metarType":"METAR","geometry_esri":{"x":47.78,"y":13.02,"z":427}}}