{"type":"Feature","geometry":{"type":"Point","coordinates":[47.78,13.02,430]},"properties":{"stationId":"LOWS","rawText":"LOWS 191450Z 28007KT 240V310 9999 FEW025 SCT035 BKN065 16/10 Q1018 NOSIG","observationTime":"2020-06-19T14:50:00Z","temp":16,"dewpoint":10,"windDirection":280,"windSpeed":12.964,"visibility":6.21,"altim":30.059055,"qualityControlFlag":"TRUE","skyCondition1a":"FEW","skyCondition1b":2500,"skyCondition2a":"SCT","skyCondition2b":3500,"flightCategory":"VFR","metarType":"METAR","geometry_esri":{"x":47.78,"y":13.02,"z":430}}}