{"type":"Feature","geometry":{"type":"Point","coordinates":[47.78,13.02,430]},"properties":{"stationId":"LOWS","rawText":"LOWS 241350Z 34006KT 290V030 9999 FEW045 SCT055 BKN070 19/09 Q1020 NOSIG","observationTime":"2018-06-24T13:50:00Z","temp":19,"dewpoint":9,"windDirection":340,"windSpeed":11.112,"visibility":6.21,"altim":30.11811,"qualityControlFlag":"TRUE","skyCondition1a":"FEW","skyCondition1b":4500,"skyCondition2a":"SCT","skyCondition2b":5500,"flightCategory":"VFR","metarType":"METAR","geometry_esri":{"x":47.78,"y":13.02,"z":430}}}