{"type":"Feature","geometry":{"type":"Point","coordinates":[47.78,13.02,430]},"properties":{"stationId":"LOWS","rawText":"LOWS 031850Z 15006KT 9999 VCSH FEW007 SCT036 BKN050 15/14 Q1017 NOSIG","observationTime":"2019-08-03T18:50:00Z","temp":15,"dewpoint":14,"windDirection":150,"windSpeed":11.112,"visibility":6.21,"altim":30.029528,"qualityControlFlag":"TRUE","skyCondition1a":"FEW","skyCondition1b":700,"skyCondition2a":"SCT","skyCondition2b":3600,"flightCategory":"VFR","metarType":"METAR","geometry_esri":{"x":47.78,"y":13.02,"z":430}}}