{"type":"Feature","geometry":{"type":"Point","coordinates":[47.78,13.02,430]},"properties":{"stationId":"LOWS","rawText":"LOWS 031350Z 33007KT 8000 -SHRA FEW015 BKN032 13/10 Q1025 NOSIG","observationTime":"2018-10-03T13:50:00Z","temp":13,"dewpoint":10,"windDirection":330,"windSpeed":12.964,"visibility":4.97,"altim":30.265747,"qualityControlFlag":"TRUE","skyCondition1a":"FEW","skyCondition1b":1500,"skyCondition2a":"BKN","skyCondition2b":3200,"flightCategory":"MVFR","metarType":"METAR","geometry_esri":{"x":47.78,"y":13.02,"z":430}}}