{"type":"Feature","geometry":{"type":"Point","coordinates":[47.78,13.02,430]},"properties":{"stationId":"LOWS","rawText":"LOWS 241750Z 04008KT 9999 FEW070 SCT130 22/08 Q1021 NOSIG","observationTime":"2020-06-24T17:50:00Z","temp":22,"dewpoint":8,"windDirection":40,"windSpeed":14.816,"visibility":6.21,"altim":30.147638,"qualityControlFlag":"TRUE","skyCondition1a":"FEW","skyCondition1b":7000,"skyCondition2a":"SCT","skyCondition2b":13000,"flightCategory":"VFR","metarType":"METAR","geometry_esri":{"x":47.78,"y":13.02,"z":430}}}