{"type":"Feature","geometry":{"type":"Point","coordinates":[47.78,13.02,430]},"properties":{"stationId":"LOWS","rawText":"LOWS 041650Z 36007KT 330V030 9999 FEW060 FEW060CB 28/10 Q1008 NOSIG","observationTime":"2018-06-04T16:50:00Z","temp":28,"dewpoint":10,"windDirection":360,"windSpeed":12.964,"visibility":6.21,"altim":29.763779,"qualityControlFlag":"TRUE","skyCondition1a":"FEW","skyCondition1b":6000,"skyCondition2a":"FEW","skyCondition2b":6000,"flightCategory":"VFR","metarType":"METAR","geometry_esri":{"x":47.78,"y":13.02,"z":430}}}