{"type":"Feature","geometry":{"type":"Point","coordinates":[47.78,13.02,430]},"properties":{"stationId":"LOWS","rawText":"LOWS 070950Z 28010KT 240V310 9999 FEW026 SCT038 BKN048 06/M01 Q1016 NOSIG","observationTime":"2020-03-07T09:50:00Z","temp":6,"dewpoint":-1,"windDirection":280,"windSpeed":18.52,"visibility":6.21,"altim":30,"qualityControlFlag":"TRUE","skyCondition1a":"FEW","skyCondition1b":2600,"skyCondition2a":"SCT","skyCondition2b":3800,"flightCategory":"VFR","metarType":"METAR","geometry_esri":{"x":47.78,"y":13.02,"z":430}}}