{"type":"Feature","geometry":{"type":"Point","coordinates":[47.78,13.02,427]},"properties":{"stationId":"LOWS","rawText":"LOWS 221550Z 31006KT 8000 SHRA FEW007 SCT015 OVC025 FEW040CB 18/17 Q1021 NOSIG","observationTime":"2020-08-22T15:50:00Z","temp":18,"dewpoint":17,"windDirection":310,"windSpeed":11.112,"visibility":4.97,"altim":30.147638,"qualityControlFlag":"TRUE","skyCondition1a":"FEW","skyCondition1b":700,"skyCondition2a":"SCT","skyCondition2b":1500,"flightCategory":"MVFR","metarType":"METAR","geometry_esri":{"x":47.78,"y":13.02,"z":427}}}