{"type":"Feature","geometry":{"type":"Point","coordinates":[47.78,13.02,427]},"properties":{"stationId":"LOWS","rawText":"LOWS 180550Z 29006KT 250V320 9999 -SN FEW010 SCT018 BKN020 02/M01 Q1022 R88/////// NOSIG","observationTime":"2021-01-18T05:50:00Z","temp":2,"dewpoint":-1,"windDirection":290,"windSpeed":11.112,"visibility":6.21,"altim":30.177166,"qualityControlFlag":"TRUE","skyCondition1a":"FEW","skyCondition1b":1000,"skyCondition2a":"SCT","skyCondition2b":1800,"flightCategory":"MVFR","metarType":"METAR","geometry_esri":{"x":47.78,"y":13.02,"z":427}}}