{"type":"Feature","geometry":{"type":"Point","coordinates":[47.78,13.02,427]},"properties":{"stationId":"LOWS","rawText":"LOWS 121450Z 23006KT 200V270 9999 FEW026 SCT044 BKN050 09/03 Q1018 NOSIG","observationTime":"2020-10-12T14:50:00Z","temp":9,"dewpoint":3,"windDirection":230,"windSpeed":11.112,"visibility":6.21,"altim":30.059055,"qualityControlFlag":"TRUE","skyCondition1a":"FEW","skyCondition1b":2600,"skyCondition2a":"SCT","skyCondition2b":4400,"flightCategory":"VFR","metarType":"METAR","geometry_esri":{"x":47.78,"y":13.02,"z":427}}}