{"type":"Feature","geometry":{"type":"Point","coordinates":[47.78,13.02,430]},"properties":{"stationId":"LOWS","rawText":"LOWS 271150Z 23009KT 200V260 9999 FEW025 FEW040CB 18/12 Q1020 NOSIG","observationTime":"2018-06-27T11:50:00Z","temp":18,"dewpoint":12,"windDirection":230,"windSpeed":16.668,"visibility":6.21,"altim":30.11811,"qualityControlFlag":"TRUE","skyCondition1a":"FEW","skyCondition1b":2500,"skyCondition2a":"FEW","skyCondition2b":4000,"flightCategory":"VFR","metarType":"METAR","geometry_esri":{"x":47.78,"y":13.02,"z":430}}}