{"type":"Feature","geometry":{"type":"Point","coordinates":[47.78,13.02,430]},"properties":{"stationId":"LOWS","rawText":"LOWS 210450Z VRB01KT 8000 FEW012 SCT028 BKN040 M03/M05 Q1018 NOSIG","observationTime":"2019-01-21T04:50:00Z","temp":-3,"dewpoint":-5,"windDirection":0,"windSpeed":1.852,"visibility":4.97,"altim":30.059055,"qualityControlFlag":"TRUE","skyCondition1a":"FEW","skyCondition1b":1200,"skyCondition2a":"SCT","skyCondition2b":2800,"flightCategory":"MVFR","metarType":"METAR","geometry_esri":{"x":47.78,"y":13.02,"z":430}}}