{"type":"Feature","geometry":{"type":"Point","coordinates":[47.78,13.02,430]},"properties":{"stationId":"LOWS","rawText":"LOWS 191850Z 20004KT 160V240 9999 FEW025 BKN060 02/M00 Q1025 NOSIG","observationTime":"2020-02-19T18:50:00Z","temp":2,"dewpoint":0,"windDirection":200,"windSpeed":7.408,"visibility":6.21,"altim":30.265747,"qualityControlFlag":"TRUE","skyCondition1a":"FEW","skyCondition1b":2500,"skyCondition2a":"BKN","skyCondition2b":6000,"flightCategory":"VFR","metarType":"METAR","geometry_esri":{"x":47.78,"y":13.02,"z":430}}}