{"type":"Feature","geometry":{"type":"Point","coordinates":[47.78,13.02,430]},"properties":{"stationId":"LOWS","rawText":"LOWS 251150Z 13004KT 070V160 9999 FEW025 SCT060 BKN070 16/10 Q1014 NOSIG","observationTime":"2018-08-25T11:50:00Z","temp":16,"dewpoint":10,"windDirection":130,"windSpeed":7.408,"visibility":6.21,"altim":29.940945,"qualityControlFlag":"TRUE","skyCondition1a":"FEW","skyCondition1b":2500,"skyCondition2a":"SCT","skyCondition2b":6000,"flightCategory":"VFR","metarType":"METAR","geometry_esri":{"x":47.78,"y":13.02,"z":430}}}