{"type":"Feature","geometry":{"type":"Point","coordinates":[47.78,13.02,430]},"properties":{"stationId":"LOWS","rawText":"LOWS 020450Z 14005KT 110V170 9999 FEW042 BKN050 16/15 Q1014 NOSIG","observationTime":"2020-07-02T04:50:00Z","temp":16,"dewpoint":15,"windDirection":140,"windSpeed":9.26,"visibility":6.21,"altim":29.940945,"qualityControlFlag":"TRUE","skyCondition1a":"FEW","skyCondition1b":4200,"skyCondition2a":"BKN","skyCondition2b":5000,"flightCategory":"VFR","metarType":"METAR","geometry_esri":{"x":47.78,"y":13.02,"z":430}}}