{"type":"Feature","geometry":{"type":"Point","coordinates":[47.78,13.02,430]},"properties":{"stationId":"LOWS","rawText":"LOWS 010550Z 27007KT 220V290 9999 FEW028 SCT040 BKN050 06/01 Q1004 NOSIG","observationTime":"2018-04-01T05:50:00Z","temp":6,"dewpoint":1,"windDirection":270,"windSpeed":12.964,"visibility":6.21,"altim":29.64567,"qualityControlFlag":"TRUE","skyCondition1a":"FEW","skyCondition1b":2800,"skyCondition2a":"SCT","skyCondition2b":4000,"flightCategory":"VFR","metarType":"METAR","geometry_esri":{"x":47.78,"y":13.02,"z":430}}}