{"type":"Feature","geometry":{"type":"Point","coordinates":[47.78,13.02,427]},"properties":{"stationId":"LOWS","rawText":"LOWS 101620Z 33006KT 8000 FEW009 BKN012 01/00 Q1006 NOSIG","observationTime":"2020-12-10T16:20:00Z","temp":1,"dewpoint":0,"windDirection":330,"windSpeed":11.112,"visibility":4.97,"altim":29.704725,"qualityControlFlag":"TRUE","skyCondition1a":"FEW","skyCondition1b":900,"skyCondition2a":"BKN","skyCondition2b":1200,"flightCategory":"MVFR","metarType":"METAR","geometry_esri":{"x":47.78,"y":13.02,"z":427}}}