{"type":"Feature","geometry":{"type":"Point","coordinates":[47.78,13.02,430]},"properties":{"stationId":"LOWS","rawText":"LOWS 021450Z 33004KT 8000 SCT100 BKN160 M03/M08 Q0994 NOSIG","observationTime":"2018-03-02T14:50:00Z","temp":-3,"dewpoint":-8,"windDirection":330,"windSpeed":7.408,"visibility":4.97,"altim":29.350393,"qualityControlFlag":"TRUE","skyCondition1a":"SCT","skyCondition1b":10000,"skyCondition2a":"BKN","skyCondition2b":16000,"flightCategory":"MVFR","metarType":"METAR","geometry_esri":{"x":47.78,"y":13.02,"z":430}}}