{"type":"Feature","geometry":{"type":"Point","coordinates":[47.78,13.02,430]},"properties":{"stationId":"LOWS","rawText":"LOWS 221350Z 32009KT 9999 FEW050 SCT110 BKN300 05/M07 Q1015 NOSIG","observationTime":"2018-03-22T13:50:00Z","temp":5,"dewpoint":-7,"windDirection":320,"windSpeed":16.668,"visibility":6.21,"altim":29.970472,"qualityControlFlag":"TRUE","skyCondition1a":"FEW","skyCondition1b":5000,"skyCondition2a":"SCT","skyCondition2b":11000,"flightCategory":"VFR","metarType":"METAR","geometry_esri":{"x":47.78,"y":13.02,"z":430}}}