{"type":"Feature","geometry":{"type":"Point","coordinates":[47.78,13.02,430]},"properties":{"stationId":"LOWS","rawText":"LOWS 200820Z 05008KT 010V080 9999 FEW013 SCT150 BKN300 04/M01 Q1004 NOSIG","observationTime":"2018-11-20T08:20:00Z","temp":4,"dewpoint":-1,"windDirection":50,"windSpeed":14.816,"visibility":6.21,"altim":29.64567,"qualityControlFlag":"TRUE","skyCondition1a":"FEW","skyCondition1b":1300,"skyCondition2a":"SCT","skyCondition2b":15000,"flightCategory":"VFR","metarType":"METAR","geometry_esri":{"x":47.78,"y":13.02,"z":430}}}