{"type":"Feature","geometry":{"type":"Point","coordinates":[47.78,13.02,430]},"properties":{"stationId":"LOWS","rawText":"LOWS 030650Z VRB01KT 3500 BR FEW003 SCT015 BKN020 08/08 Q1026 NOSIG","observationTime":"2018-11-03T06:50:00Z","temp":8,"dewpoint":8,"windDirection":0,"windSpeed":1.852,"visibility":2.17,"altim":30.295275,"qualityControlFlag":"TRUE","skyCondition1a":"FEW","skyCondition1b":300,"skyCondition2a":"SCT","skyCondition2b":1500,"flightCategory":"IFR","metarType":"METAR","geometry_esri":{"x":47.78,"y":13.02,"z":430}}}