{"type":"Feature","geometry":{"type":"Point","coordinates":[47.78,13.02,430]},"properties":{"stationId":"LOWS","rawText":"LOWS 131650Z 32014KT 9999 FEW060 SCT120 14/03 Q1013 NOSIG","observationTime":"2018-04-13T16:50:00Z","temp":14,"dewpoint":3,"windDirection":320,"windSpeed":25.928,"visibility":6.21,"altim":29.911417,"qualityControlFlag":"TRUE","skyCondition1a":"FEW","skyCondition1b":6000,"skyCondition2a":"SCT","skyCondition2b":12000,"flightCategory":"VFR","metarType":"METAR","geometry_esri":{"x":47.78,"y":13.02,"z":430}}}