{"type":"Feature","geometry":{"type":"Point","coordinates":[47.78,13.02,430]},"properties":{"stationId":"LOWS","rawText":"LOWS 021750Z 30011KT 9999 R15/P1500U R33/P1500U FEW015 BKN028 BKN065 M01/M04 Q1029 R15/29//95 NOSIG","observationTime":"2019-01-02T17:50:00Z","temp":-1,"dewpoint":-4,"windDirection":300,"windSpeed":20.372,"visibility":6.21,"altim":30.383858,"qualityControlFlag":"TRUE","skyCondition1a":"FEW","skyCondition1b":1500,"skyCondition2a":"BKN","skyCondition2b":2800,"flightCategory":"MVFR","metarType":"METAR","geometry_esri":{"x":47.78,"y":13.02,"z":430}}}