{"type":"Feature","geometry":{"type":"Point","coordinates":[47.78,13.02,430]},"properties":{"stationId":"LOWS","rawText":"LOWS 031750Z 29009KT 260V320 5000 -SN FEW003 BKN030 00/M02 Q1018 R15/29//95 NOSIG","observationTime":"2019-02-03T17:50:00Z","temp":0,"dewpoint":-2,"windDirection":290,"windSpeed":16.668,"visibility":3.11,"altim":30.059055,"qualityControlFlag":"TRUE","skyCondition1a":"FEW","skyCondition1b":300,"skyCondition2a":"BKN","skyCondition2b":3000,"flightCategory":"MVFR","metarType":"METAR","geometry_esri":{"x":47.78,"y":13.02,"z":430}}}