{"type":"Feature","geometry":{"type":"Point","coordinates":[47.78,13.02,430]},"properties":{"stationId":"LOWS","rawText":"LOWS 112050Z 26011KT 220V290 9999 FEW050 BKN150 04/M05 Q1014 NOSIG","observationTime":"2020-02-11T20:50:00Z","temp":4,"dewpoint":-5,"windDirection":260,"windSpeed":20.372,"visibility":6.21,"altim":29.940945,"qualityControlFlag":"TRUE","skyCondition1a":"FEW","skyCondition1b":5000,"skyCondition2a":"BKN","skyCondition2b":15000,"flightCategory":"VFR","metarType":"METAR","geometry_esri":{"x":47.78,"y":13.02,"z":430}}}