{"type":"Feature","geometry":{"type":"Point","coordinates":[47.78,13.02,430]},"properties":{"stationId":"LOWS","rawText":"LOWS 290950Z 15008KT 110V180 9999 FEW060 BKN300 29/11 Q1014 NOSIG","observationTime":"2018-05-29T09:50:00Z","temp":29,"dewpoint":11,"windDirection":150,"windSpeed":14.816,"visibility":6.21,"altim":29.940945,"qualityControlFlag":"TRUE","skyCondition1a":"FEW","skyCondition1b":6000,"skyCondition2a":"BKN","skyCondition2b":30000,"flightCategory":"VFR","metarType":"METAR","geometry_esri":{"x":47.78,"y":13.02,"z":430}}}