{"type":"Feature","geometry":{"type":"Point","coordinates":[47.78,13.02,430]},"properties":{"stationId":"LOWS","rawText":"LOWS 121450Z 36003KT 270V060 9999 FEW034 BKN042 10/02 Q1016 NOSIG","observationTime":"2020-05-12T14:50:00Z","temp":10,"dewpoint":2,"windDirection":360,"windSpeed":5.556,"visibility":6.21,"altim":30,"qualityControlFlag":"TRUE","skyCondition1a":"FEW","skyCondition1b":3400,"skyCondition2a":"BKN","skyCondition2b":4200,"flightCategory":"VFR","metarType":"METAR","geometry_esri":{"x":47.78,"y":13.02,"z":430}}}