{"type":"Feature","geometry":{"type":"Point","coordinates":[47.78,13.02,430]},"properties":{"stationId":"LOWS","rawText":"LOWS 221250Z 01004KT 340V040 9999 FEW020 BKN028 19/14 Q1025 NOSIG","observationTime":"2019-08-22T12:50:00Z","temp":19,"dewpoint":14,"windDirection":10,"windSpeed":7.408,"visibility":6.21,"altim":30.265747,"qualityControlFlag":"TRUE","skyCondition1a":"FEW","skyCondition1b":2000,"skyCondition2a":"BKN","skyCondition2b":2800,"flightCategory":"MVFR","metarType":"METAR","geometry_esri":{"x":47.78,"y":13.02,"z":430}}}