{"type":"Feature","geometry":{"type":"Point","coordinates":[47.78,13.02,430]},"properties":{"stationId":"LOWS","rawText":"LOWS 121050Z 35006KT 320V030 9999 FEW048 SCT060 21/11 Q1017 NOSIG","observationTime":"2018-07-12T10:50:00Z","temp":21,"dewpoint":11,"windDirection":350,"windSpeed":11.112,"visibility":6.21,"altim":30.029528,"qualityControlFlag":"TRUE","skyCondition1a":"FEW","skyCondition1b":4800,"skyCondition2a":"SCT","skyCondition2b":6000,"flightCategory":"VFR","metarType":"METAR","geometry_esri":{"x":47.78,"y":13.02,"z":430}}}