{"type":"Feature","geometry":{"type":"Point","coordinates":[47.78,13.02,430]},"properties":{"stationId":"LOWS","rawText":"LOWS 020950Z 29015G26KT 250V310 9999 -SHRASN FEW013 SCT024 BKN030 01/M02 Q1025 R15/29//95 NOSIG","observationTime":"2019-01-02T09:50:00Z","temp":1,"dewpoint":-2,"windDirection":290,"windSpeed":27.78,"visibility":6.21,"altim":30.265747,"qualityControlFlag":"TRUE","skyCondition1a":"FEW","skyCondition1b":1300,"skyCondition2a":"SCT","skyCondition2b":2400,"flightCategory":"MVFR","metarType":"METAR","geometry_esri":{"x":47.78,"y":13.02,"z":430}}}