{"type":"Feature","geometry":{"type":"Point","coordinates":[47.78,13.02,430]},"properties":{"stationId":"LOWS","rawText":"LOWS 180650Z 16008KT 9999 FEW008 BKN060 01/M01 Q1028 R15/19//95 NOSIG","observationTime":"2018-12-18T06:50:00Z","temp":1,"dewpoint":-1,"windDirection":160,"windSpeed":14.816,"visibility":6.21,"altim":30.35433,"qualityControlFlag":"TRUE","skyCondition1a":"FEW","skyCondition1b":800,"skyCondition2a":"BKN","skyCondition2b":6000,"flightCategory":"VFR","metarType":"SPECI","geometry_esri":{"x":47.78,"y":13.02,"z":430}}}