{"type":"Feature","geometry":{"type":"Point","coordinates":[47.78,13.02,430]},"properties":{"stationId":"LOWS","rawText":"LOWS 091450Z 20005KT 150V250 9999 FEW040 FEW040CB SCT060 14/07 Q1004 NOSIG","observationTime":"2019-05-09T14:50:00Z","temp":14,"dewpoint":7,"windDirection":200,"windSpeed":9.26,"visibility":6.21,"altim":29.64567,"qualityControlFlag":"TRUE","skyCondition1a":"FEW","skyCondition1b":4000,"skyCondition2a":"FEW","skyCondition2b":4000,"flightCategory":"VFR","metarType":"METAR","geometry_esri":{"x":47.78,"y":13.02,"z":430}}}