{"type":"Feature","geometry":{"type":"Point","coordinates":[47.78,13.02,430]},"properties":{"stationId":"LOWS","rawText":"LOWS 051750Z 04008KT 010V070 9999 FEW022 BKN140 17/12 Q1020 NOSIG","observationTime":"2018-05-05T17:50:00Z","temp":17,"dewpoint":12,"windDirection":40,"windSpeed":14.816,"visibility":6.21,"altim":30.11811,"qualityControlFlag":"TRUE","skyCondition1a":"FEW","skyCondition1b":2200,"skyCondition2a":"BKN","skyCondition2b":14000,"flightCategory":"VFR","metarType":"METAR","geometry_esri":{"x":47.78,"y":13.02,"z":430}}}