{"type":"Feature","geometry":{"type":"Point","coordinates":[47.78,13.02,430]},"properties":{"stationId":"LOWS","rawText":"LOWS 250850Z 35006KT 310V010 9999 FEW015 SCT026 BKN045 02/M01 Q1033 NOSIG","observationTime":"2018-12-25T08:50:00Z","temp":2,"dewpoint":-1,"windDirection":350,"windSpeed":11.112,"visibility":6.21,"altim":30.501968,"qualityControlFlag":"TRUE","skyCondition1a":"FEW","skyCondition1b":1500,"skyCondition2a":"SCT","skyCondition2b":2600,"flightCategory":"VFR","metarType":"METAR","geometry_esri":{"x":47.78,"y":13.02,"z":430}}}