{"type":"Feature","geometry":{"type":"Point","coordinates":[47.78,13.02,427]},"properties":{"stationId":"LOWS","rawText":"LOWS 261050Z 35014KT 9999 FEW011 SCT014 11/08 Q1004 NOSIG","observationTime":"2020-10-26T10:50:00Z","temp":11,"dewpoint":8,"windDirection":350,"windSpeed":25.928,"visibility":6.21,"altim":29.64567,"qualityControlFlag":"TRUE","skyCondition1a":"FEW","skyCondition1b":1100,"skyCondition2a":"SCT","skyCondition2b":1400,"flightCategory":"VFR","metarType":"METAR","geometry_esri":{"x":47.78,"y":13.02,"z":427}}}