{"type":"Feature","geometry":{"type":"Point","coordinates":[47.78,13.02,430]},"properties":{"stationId":"LOWS","rawText":"LOWS 221150Z 03006KT 340V060 9999 FEW020 BKN028 19/13 Q1025 NOSIG","observationTime":"2019-08-22T11:50:00Z","temp":19,"dewpoint":13,"windDirection":30,"windSpeed":11.112,"visibility":6.21,"altim":30.265747,"qualityControlFlag":"TRUE","skyCondition1a":"FEW","skyCondition1b":2000,"skyCondition2a":"BKN","skyCondition2b":2800,"flightCategory":"MVFR","metarType":"METAR","geometry_esri":{"x":47.78,"y":13.02,"z":430}}}