{"type":"Feature","geometry":{"type":"Point","coordinates":[47.78,13.02,427]},"properties":{"stationId":"LOWS","rawText":"LOWS 231550Z 29003KT 260V320 9999 FEW060 SCT100 15/12 Q1014 NOSIG","observationTime":"2020-10-23T15:50:00Z","temp":15,"dewpoint":12,"windDirection":290,"windSpeed":5.556,"visibility":6.21,"altim":29.940945,"qualityControlFlag":"TRUE","skyCondition1a":"FEW","skyCondition1b":6000,"skyCondition2a":"SCT","skyCondition2b":10000,"flightCategory":"VFR","metarType":"METAR","geometry_esri":{"x":47.78,"y":13.02,"z":427}}}