{"type":"Feature","geometry":{"type":"Point","coordinates":[47.78,13.02,430]},"properties":{"stationId":"LOWS","rawText":"LOWS 250950Z 01004KT 340V050 9999 FEW030 SCT075 BKN100 19/13 Q1019 NOSIG","observationTime":"2020-06-25T09:50:00Z","temp":19,"dewpoint":13,"windDirection":10,"windSpeed":7.408,"visibility":6.21,"altim":30.088583,"qualityControlFlag":"TRUE","skyCondition1a":"FEW","skyCondition1b":3000,"skyCondition2a":"SCT","skyCondition2b":7500,"flightCategory":"VFR","metarType":"METAR","geometry_esri":{"x":47.78,"y":13.02,"z":430}}}