{"type":"Feature","geometry":{"type":"Point","coordinates":[47.78,13.02,427]},"properties":{"stationId":"LOWS","rawText":"LOWS 310850Z 17003KT 080V230 9999 FEW045 BKN065 15/10 Q1019 NOSIG","observationTime":"2020-08-31T08:50:00Z","temp":15,"dewpoint":10,"windDirection":170,"windSpeed":5.556,"visibility":6.21,"altim":30.088583,"qualityControlFlag":"TRUE","skyCondition1a":"FEW","skyCondition1b":4500,"skyCondition2a":"BKN","skyCondition2b":6500,"flightCategory":"VFR","metarType":"METAR","geometry_esri":{"x":47.78,"y":13.02,"z":427}}}