{"type":"Feature","geometry":{"type":"Point","coordinates":[47.78,13.02,427]},"properties":{"stationId":"LOWS","rawText":"LOWS 111250Z 34005KT 310V020 9999 FEW020 SCT035 22/16 Q1017 NOSIG","observationTime":"2020-09-11T12:50:00Z","temp":22,"dewpoint":16,"windDirection":340,"windSpeed":9.26,"visibility":6.21,"altim":30.029528,"qualityControlFlag":"TRUE","skyCondition1a":"FEW","skyCondition1b":2000,"skyCondition2a":"SCT","skyCondition2b":3500,"flightCategory":"VFR","metarType":"METAR","geometry_esri":{"x":47.78,"y":13.02,"z":427}}}