{"type":"Feature","geometry":{"type":"Point","coordinates":[47.78,13.02,430]},"properties":{"stationId":"LOWS","rawText":"LOWS 222050Z 32004KT 9999 FEW060 SCT070 12/06 Q1025 NOSIG","observationTime":"2018-06-22T20:50:00Z","temp":12,"dewpoint":6,"windDirection":320,"windSpeed":7.408,"visibility":6.21,"altim":30.265747,"qualityControlFlag":"TRUE","skyCondition1a":"FEW","skyCondition1b":6000,"skyCondition2a":"SCT","skyCondition2b":7000,"flightCategory":"VFR","metarType":"METAR","geometry_esri":{"x":47.78,"y":13.02,"z":430}}}