{"type":"Feature","geometry":{"type":"Point","coordinates":[47.78,13.02,430]},"properties":{"stationId":"LOWS","rawText":"LOWS 191350Z 04009KT 360V070 9999 FEW070 BKN130 21/08 Q1001 NOSIG","observationTime":"2019-05-19T13:50:00Z","temp":21,"dewpoint":8,"windDirection":40,"windSpeed":16.668,"visibility":6.21,"altim":29.557087,"qualityControlFlag":"TRUE","skyCondition1a":"FEW","skyCondition1b":7000,"skyCondition2a":"BKN","skyCondition2b":13000,"flightCategory":"VFR","metarType":"METAR","geometry_esri":{"x":47.78,"y":13.02,"z":430}}}