{"type":"Feature","geometry":{"type":"Point","coordinates":[47.78,13.02,430]},"properties":{"stationId":"LOWS","rawText":"LOWS 231550Z 33005KT 9999 FEW018 BKN042 04/00 Q1006 NOSIG","observationTime":"2018-03-23T15:50:00Z","temp":4,"dewpoint":0,"windDirection":330,"windSpeed":9.26,"visibility":6.21,"altim":29.704725,"qualityControlFlag":"TRUE","skyCondition1a":"FEW","skyCondition1b":1800,"skyCondition2a":"BKN","skyCondition2b":4200,"flightCategory":"VFR","metarType":"METAR","geometry_esri":{"x":47.78,"y":13.02,"z":430}}}