{"type":"Feature","geometry":{"type":"Point","coordinates":[47.78,13.02,430]},"properties":{"stationId":"LOWS","rawText":"LOWS 020650Z 13005KT 100V170 9999 FEW048 SCT060 19/16 Q1015 NOSIG","observationTime":"2020-07-02T06:50:00Z","temp":19,"dewpoint":16,"windDirection":130,"windSpeed":9.26,"visibility":6.21,"altim":29.970472,"qualityControlFlag":"TRUE","skyCondition1a":"FEW","skyCondition1b":4800,"skyCondition2a":"SCT","skyCondition2b":6000,"flightCategory":"VFR","metarType":"METAR","geometry_esri":{"x":47.78,"y":13.02,"z":430}}}