{"type":"Feature","geometry":{"type":"Point","coordinates":[47.78,13.02,430]},"properties":{"stationId":"LOWS","rawText":"LOWS 072150Z 16008KT 9999 FEW046 BKN050 04/01 Q1004 NOSIG","observationTime":"2018-03-07T21:50:00Z","temp":4,"dewpoint":1,"windDirection":160,"windSpeed":14.816,"visibility":6.21,"altim":29.64567,"qualityControlFlag":"TRUE","skyCondition1a":"FEW","skyCondition1b":4600,"skyCondition2a":"BKN","skyCondition2b":5000,"flightCategory":"VFR","metarType":"METAR","geometry_esri":{"x":47.78,"y":13.02,"z":430}}}