{"type":"Feature","geometry":{"type":"Point","coordinates":[47.78,13.02,427]},"properties":{"stationId":"LOWS","rawText":"LOWS 281350Z 33009KT 9999 FEW070 BKN095 04/M01 Q0979 R15/19//95 NOSIG","observationTime":"2020-12-28T13:50:00Z","temp":4,"dewpoint":-1,"windDirection":330,"windSpeed":16.668,"visibility":6.21,"altim":28.90748,"qualityControlFlag":"TRUE","skyCondition1a":"FEW","skyCondition1b":7000,"skyCondition2a":"BKN","skyCondition2b":9500,"flightCategory":"VFR","metarType":"METAR","geometry_esri":{"x":47.78,"y":13.02,"z":427}}}