{"type":"Feature","geometry":{"type":"Point","coordinates":[47.78,13.02,430]},"properties":{"stationId":"LOWS","rawText":"LOWS 311850Z 14004KT 9999 FEW060 BKN140 BKN250 18/15 Q1014 NOSIG","observationTime":"2018-05-31T18:50:00Z","temp":18,"dewpoint":15,"windDirection":140,"windSpeed":7.408,"visibility":6.21,"altim":29.940945,"qualityControlFlag":"TRUE","skyCondition1a":"FEW","skyCondition1b":6000,"skyCondition2a":"BKN","skyCondition2b":14000,"flightCategory":"VFR","metarType":"METAR","geometry_esri":{"x":47.78,"y":13.02,"z":430}}}