{"type":"Feature","geometry":{"type":"Point","coordinates":[47.78,13.02,430]},"properties":{"stationId":"LOWS","rawText":"LOWS 051450Z 03005KT 300V070 9999 FEW060 FEW060CB 28/12 Q1009 NOSIG","observationTime":"2018-06-05T14:50:00Z","temp":28,"dewpoint":12,"windDirection":30,"windSpeed":9.26,"visibility":6.21,"altim":29.793306,"qualityControlFlag":"TRUE","skyCondition1a":"FEW","skyCondition1b":6000,"skyCondition2a":"FEW","skyCondition2b":6000,"flightCategory":"VFR","metarType":"METAR","geometry_esri":{"x":47.78,"y":13.02,"z":430}}}