LOWS,LOWS 261450Z 06007KT 020V120 9999 FEW032 BKN040 M09/M17 Q1018 NOSIG,2018-02-26T14:50:00Z,47.78,13.02,430.0,-9.0,-17.0,60,12.964,6.21,30.059055,TRUE,FEW,3200,BKN,4000,VFR,METAR
