{"type":"Feature","geometry":{"type":"Point","coordinates":[47.78,13.02,430]},"properties":{"stationId":"LOWS","rawText":"LOWS 200950Z VRB01KT 5000 BR FEW020 SCT030 BKN050 12/10 Q1028 NOSIG","observationTime":"2018-10-20T09:50:00Z","temp":12,"dewpoint":10,"windDirection":0,"windSpeed":1.852,"visibility":3.11,"altim":30.35433,"qualityControlFlag":"TRUE","skyCondition1a":"FEW","skyCondition1b":2000,"skyCondition2a":"SCT","skyCondition2b":3000,"flightCategory":"MVFR","metarType":"METAR","geometry_esri":{"x":47.78,"y":13.02,"z":430}}}