{"type":"Feature","geometry":{"type":"Point","coordinates":[47.78,13.02,430]},"properties":{"stationId":"LOWS","rawText":"LOWS 171850Z 30004KT 9999 FEW060 SCT100 24/13 Q1012 NOSIG","observationTime":"2019-07-17T18:50:00Z","temp":24,"dewpoint":13,"windDirection":300,"windSpeed":7.408,"visibility":6.21,"altim":29.88189,"qualityControlFlag":"TRUE","skyCondition1a":"FEW","skyCondition1b":6000,"skyCondition2a":"SCT","skyCondition2b":10000,"flightCategory":"VFR","metarType":"METAR","geometry_esri":{"x":47.78,"y":13.02,"z":430}}}