{"type":"Feature","geometry":{"type":"Point","coordinates":[47.78,13.02,430]},"properties":{"stationId":"LOWS","rawText":"LOWS 071650Z 21008KT 170V230 9999 FEW020 SCT050 BKN065 05/02 Q1000 NOSIG","observationTime":"2018-03-07T16:50:00Z","temp":5,"dewpoint":2,"windDirection":210,"windSpeed":14.816,"visibility":6.21,"altim":29.52756,"qualityControlFlag":"TRUE","skyCondition1a":"FEW","skyCondition1b":2000,"skyCondition2a":"SCT","skyCondition2b":5000,"flightCategory":"VFR","metarType":"METAR","geometry_esri":{"x":47.78,"y":13.02,"z":430}}}