{"type":"Feature","geometry":{"type":"Point","coordinates":[47.78,13.02,430]},"properties":{"stationId":"LOWS","rawText":"LOWS 201250Z 34007KT 290V020 9999 FEW036 SCT050 BKN090 18/10 Q1020 NOSIG","observationTime":"2020-05-20T12:50:00Z","temp":18,"dewpoint":10,"windDirection":340,"windSpeed":12.964,"visibility":6.21,"altim":30.11811,"qualityControlFlag":"TRUE","skyCondition1a":"FEW","skyCondition1b":3600,"skyCondition2a":"SCT","skyCondition2b":5000,"flightCategory":"VFR","metarType":"METAR","geometry_esri":{"x":47.78,"y":13.02,"z":430}}}