{"type":"Feature","geometry":{"type":"Point","coordinates":[47.78,13.02,430]},"properties":{"stationId":"LOWS","rawText":"LOWS 130550Z 13004KT 9999 FEW035 BKN075 05/03 Q1006 NOSIG","observationTime":"2018-03-13T05:50:00Z","temp":5,"dewpoint":3,"windDirection":130,"windSpeed":7.408,"visibility":6.21,"altim":29.704725,"qualityControlFlag":"TRUE","skyCondition1a":"FEW","skyCondition1b":3500,"skyCondition2a":"BKN","skyCondition2b":7500,"flightCategory":"VFR","metarType":"METAR","geometry_esri":{"x":47.78,"y":13.02,"z":430}}}