{"type":"Feature","geometry":{"type":"Point","coordinates":[47.78,13.02,430]},"properties":{"stationId":"LOWS","rawText":"LOWS 301150Z VRB03KT 9999 FEW028 SCT042 BKN050 13/08 Q1027 NOSIG","observationTime":"2019-05-30T11:50:00Z","temp":13,"dewpoint":8,"windDirection":0,"windSpeed":5.556,"visibility":6.21,"altim":30.324802,"qualityControlFlag":"TRUE","skyCondition1a":"FEW","skyCondition1b":2800,"skyCondition2a":"SCT","skyCondition2b":4200,"flightCategory":"VFR","metarType":"METAR","geometry_esri":{"x":47.78,"y":13.02,"z":430}}}