{"type":"Feature","geometry":{"type":"Point","coordinates":[47.78,13.02,430]},"properties":{"stationId":"LOWS","rawText":"LOWS 131950Z 15004KT 080V200 9999 FEW070 BKN130 18/11 Q1005 NOSIG","observationTime":"2018-05-13T19:50:00Z","temp":18,"dewpoint":11,"windDirection":150,"windSpeed":7.408,"visibility":6.21,"altim":29.675198,"qualityControlFlag":"TRUE","skyCondition1a":"FEW","skyCondition1b":7000,"skyCondition2a":"BKN","skyCondition2b":13000,"flightCategory":"VFR","metarType":"METAR","geometry_esri":{"x":47.78,"y":13.02,"z":430}}}