{"type":"Feature","geometry":{"type":"Point","coordinates":[47.78,13.02,430]},"properties":{"stationId":"LOWS","rawText":"LOWS 271150Z 32005KT 290V350 9999 FEW040 BKN050 BKN080 18/12 Q1011 NOSIG","observationTime":"2019-05-27T11:50:00Z","temp":18,"dewpoint":12,"windDirection":320,"windSpeed":9.26,"visibility":6.21,"altim":29.852362,"qualityControlFlag":"TRUE","skyCondition1a":"FEW","skyCondition1b":4000,"skyCondition2a":"BKN","skyCondition2b":5000,"flightCategory":"VFR","metarType":"METAR","geometry_esri":{"x":47.78,"y":13.02,"z":430}}}