{"type":"Feature","geometry":{"type":"Point","coordinates":[47.78,13.02,430]},"properties":{"stationId":"LOWS","rawText":"LOWS 110550Z 17004KT 9999 VCFG FEW150 SCT200 09/09 Q1022 NOSIG","observationTime":"2019-09-11T05:50:00Z","temp":9,"dewpoint":9,"windDirection":170,"windSpeed":7.408,"visibility":6.21,"altim":30.177166,"qualityControlFlag":"TRUE","skyCondition1a":"FEW","skyCondition1b":15000,"skyCondition2a":"SCT","skyCondition2b":20000,"flightCategory":"VFR","metarType":"METAR","geometry_esri":{"x":47.78,"y":13.02,"z":430}}}