{"type":"Feature","geometry":{"type":"Point","coordinates":[47.78,13.02,430]},"properties":{"stationId":"LOWS","rawText":"LOWS 200350Z 27002KT 8000 FEW004 BKN011 12/12 Q1019 NOSIG","observationTime":"2018-05-20T03:50:00Z","temp":12,"dewpoint":12,"windDirection":270,"windSpeed":3.704,"visibility":4.97,"altim":30.088583,"qualityControlFlag":"TRUE","skyCondition1a":"FEW","skyCondition1b":400,"skyCondition2a":"BKN","skyCondition2b":1100,"flightCategory":"MVFR","metarType":"METAR","geometry_esri":{"x":47.78,"y":13.02,"z":430}}}