{"type":"Feature","geometry":{"type":"Point","coordinates":[47.78,13.02,427]},"properties":{"stationId":"LOWS","rawText":"LOWS 180350Z 03003KT 9999 FEW016 BKN022 15/13 Q1023 NOSIG","observationTime":"2020-09-18T03:50:00Z","temp":15,"dewpoint":13,"windDirection":30,"windSpeed":5.556,"visibility":6.21,"altim":30.206694,"qualityControlFlag":"TRUE","skyCondition1a":"FEW","skyCondition1b":1600,"skyCondition2a":"BKN","skyCondition2b":2200,"flightCategory":"MVFR","metarType":"METAR","geometry_esri":{"x":47.78,"y":13.02,"z":427}}}