{"type":"Feature","geometry":{"type":"Point","coordinates":[47.78,13.02,430]},"properties":{"stationId":"LOWS","rawText":"LOWS 131450Z 28007KT 250V330 9999 FEW046 BKN060 13/02 Q1006 NOSIG","observationTime":"2018-03-13T14:50:00Z","temp":13,"dewpoint":2,"windDirection":280,"windSpeed":12.964,"visibility":6.21,"altim":29.704725,"qualityControlFlag":"TRUE","skyCondition1a":"FEW","skyCondition1b":4600,"skyCondition2a":"BKN","skyCondition2b":6000,"flightCategory":"VFR","metarType":"METAR","geometry_esri":{"x":47.78,"y":13.02,"z":430}}}