{"type":"Feature","geometry":{"type":"Point","coordinates":[47.78,13.02,430]},"properties":{"stationId":"LOWS","rawText":"LOWS 110350Z 25005KT 210V290 9999 -SHRA FEW020 BKN025 05/03 Q1031 NOSIG","observationTime":"2020-01-11T03:50:00Z","temp":5,"dewpoint":3,"windDirection":250,"windSpeed":9.26,"visibility":6.21,"altim":30.442913,"qualityControlFlag":"TRUE","skyCondition1a":"FEW","skyCondition1b":2000,"skyCondition2a":"BKN","skyCondition2b":2500,"flightCategory":"MVFR","metarType":"METAR","geometry_esri":{"x":47.78,"y":13.02,"z":430}}}