{"type":"Feature","geometry":{"type":"Point","coordinates":[47.78,13.02,430]},"properties":{"stationId":"LOWS","rawText":"LOWS 271350Z 03006KT 320V060 9999 FEW017 SCT028 BKN032 M09/M16 Q1013 R15/CLRD// NOSIG","observationTime":"2018-02-27T13:50:00Z","temp":-9,"dewpoint":-16,"windDirection":30,"windSpeed":11.112,"visibility":6.21,"altim":29.911417,"qualityControlFlag":"TRUE","skyCondition1a":"FEW","skyCondition1b":1700,"skyCondition2a":"SCT","skyCondition2b":2800,"flightCategory":"VFR","metarType":"SPECI","geometry_esri":{"x":47.78,"y":13.02,"z":430}}}