{"type":"Feature","geometry":{"type":"Point","coordinates":[47.78,13.02,430]},"properties":{"stationId":"LOWS","rawText":"LOWS 270950Z 15011KT 9999 FEW090 SCT180 01/M02 Q0997 R88/////// NOSIG","observationTime":"2019-01-27T09:50:00Z","temp":1,"dewpoint":-2,"windDirection":150,"windSpeed":20.372,"visibility":6.21,"altim":29.438976,"qualityControlFlag":"TRUE","skyCondition1a":"FEW","skyCondition1b":9000,"skyCondition2a":"SCT","skyCondition2b":18000,"flightCategory":"VFR","metarType":"METAR","geometry_esri":{"x":47.78,"y":13.02,"z":430}}}