{"type":"Feature","geometry":{"type":"Point","coordinates":[47.78,13.02,427]},"properties":{"stationId":"LOWS","rawText":"LOWS 041450Z 02006KT 350V050 9999 FEW042 BKN090 16/07 Q1004 NOSIG","observationTime":"2020-10-04T14:50:00Z","temp":16,"dewpoint":7,"windDirection":20,"windSpeed":11.112,"visibility":6.21,"altim":29.64567,"qualityControlFlag":"TRUE","skyCondition1a":"FEW","skyCondition1b":4200,"skyCondition2a":"BKN","skyCondition2b":9000,"flightCategory":"VFR","metarType":"METAR","geometry_esri":{"x":47.78,"y":13.02,"z":427}}}