{"type":"Feature","geometry":{"type":"Point","coordinates":[47.78,13.02,427]},"properties":{"stationId":"LOWS","rawText":"LOWS 280950Z VRB02KT 6000 FEW003 BKN005 M02/M02 Q1020 NOSIG","observationTime":"2020-11-28T09:50:00Z","temp":-2,"dewpoint":-2,"windDirection":0,"windSpeed":3.704,"visibility":3.73,"altim":30.11811,"qualityControlFlag":"TRUE","skyCondition1a":"FEW","skyCondition1b":300,"skyCondition2a":"BKN","skyCondition2b":500,"flightCategory":"IFR","metarType":"METAR","geometry_esri":{"x":47.78,"y":13.02,"z":427}}}