{"type":"Feature","geometry":{"type":"Point","coordinates":[47.78,13.02,430]},"properties":{"stationId":"LOWS","rawText":"LOWS 111450Z 29009KT 250V320 9999 -RA FEW007 SCT018 BKN025 03/02 Q1011 NOSIG","observationTime":"2020-02-11T14:50:00Z","temp":3,"dewpoint":2,"windDirection":290,"windSpeed":16.668,"visibility":6.21,"altim":29.852362,"qualityControlFlag":"TRUE","skyCondition1a":"FEW","skyCondition1b":700,"skyCondition2a":"SCT","skyCondition2b":1800,"flightCategory":"MVFR","metarType":"METAR","geometry_esri":{"x":47.78,"y":13.02,"z":430}}}