{"type":"Feature","geometry":{"type":"Point","coordinates":[47.78,13.02,430]},"properties":{"stationId":"LOWS","rawText":"LOWS 020750Z 04003KT 010V080 9999 FEW006 SCT008 BKN030 14/12 Q1021 NOSIG","observationTime":"2018-09-02T07:50:00Z","temp":14,"dewpoint":12,"windDirection":40,"windSpeed":5.556,"visibility":6.21,"altim":30.147638,"qualityControlFlag":"TRUE","skyCondition1a":"FEW","skyCondition1b":600,"skyCondition2a":"SCT","skyCondition2b":800,"flightCategory":"MVFR","metarType":"METAR","geometry_esri":{"x":47.78,"y":13.02,"z":430}}}