{"type":"Feature","geometry":{"type":"Point","coordinates":[47.78,13.02,430]},"properties":{"stationId":"LOWS","rawText":"LOWS 081050Z 30013KT 9999 FEW060 SCT300 29/16 Q1016 NOSIG","observationTime":"2018-08-08T10:50:00Z","temp":29,"dewpoint":16,"windDirection":300,"windSpeed":24.076,"visibility":6.21,"altim":30,"qualityControlFlag":"TRUE","skyCondition1a":"FEW","skyCondition1b":6000,"skyCondition2a":"SCT","skyCondition2b":30000,"flightCategory":"VFR","metarType":"METAR","geometry_esri":{"x":47.78,"y":13.02,"z":430}}}