{"type":"Feature","geometry":{"type":"Point","coordinates":[47.78,13.02,430]},"properties":{"stationId":"LOWS","rawText":"LOWS 031250Z 33009KT 300V360 9999 SCT042 BKN070 21/11 Q1019 NOSIG","observationTime":"2020-07-03T12:50:00Z","temp":21,"dewpoint":11,"windDirection":330,"windSpeed":16.668,"visibility":6.21,"altim":30.088583,"qualityControlFlag":"TRUE","skyCondition1a":"SCT","skyCondition1b":4200,"skyCondition2a":"BKN","skyCondition2b":7000,"flightCategory":"VFR","metarType":"METAR","geometry_esri":{"x":47.78,"y":13.02,"z":430}}}