{"type":"Feature","geometry":{"type":"Point","coordinates":[47.78,13.02,430]},"properties":{"stationId":"LOWS","rawText":"LOWS 141850Z 02006KT 9999 FEW030 BKN035 07/03 Q1020 NOSIG","observationTime":"2019-04-14T18:50:00Z","temp":7,"dewpoint":3,"windDirection":20,"windSpeed":11.112,"visibility":6.21,"altim":30.11811,"qualityControlFlag":"TRUE","skyCondition1a":"FEW","skyCondition1b":3000,"skyCondition2a":"BKN","skyCondition2b":3500,"flightCategory":"VFR","metarType":"METAR","geometry_esri":{"x":47.78,"y":13.02,"z":430}}}