{"type":"Feature","geometry":{"type":"Point","coordinates":[47.78,13.02,430]},"properties":{"stationId":"LOWS","rawText":"LOWS 280650Z 15004KT 3500 R15/P1500U R33/1500U BR FEW002 BKN020 M00/M01 Q1025 NOSIG","observationTime":"2018-11-28T06:50:00Z","temp":0,"dewpoint":-1,"windDirection":150,"windSpeed":7.408,"visibility":2.17,"altim":30.265747,"qualityControlFlag":"TRUE","skyCondition1a":"FEW","skyCondition1b":200,"skyCondition2a":"BKN","skyCondition2b":2000,"flightCategory":"IFR","metarType":"METAR","geometry_esri":{"x":47.78,"y":13.02,"z":430}}}