{"type":"Feature","geometry":{"type":"Point","coordinates":[47.78,13.02,430]},"properties":{"stationId":"LOWS","rawText":"LOWS 251950Z 15007KT 9999 FEW050 BKN070 13/11 Q1013 NOSIG","observationTime":"2019-09-25T19:50:00Z","temp":13,"dewpoint":11,"windDirection":150,"windSpeed":12.964,"visibility":6.21,"altim":29.911417,"qualityControlFlag":"TRUE","skyCondition1a":"FEW","skyCondition1b":5000,"skyCondition2a":"BKN","skyCondition2b":7000,"flightCategory":"VFR","metarType":"METAR","geometry_esri":{"x":47.78,"y":13.02,"z":430}}}