{"type":"Feature","geometry":{"type":"Point","coordinates":[47.78,13.02,430]},"properties":{"stationId":"LOWS","rawText":"LOWS 300450Z 03003KT 290V090 9999 FEW050 BKN060 02/M00 Q1022 NOSIG","observationTime":"2019-11-30T04:50:00Z","temp":2,"dewpoint":0,"windDirection":30,"windSpeed":5.556,"visibility":6.21,"altim":30.177166,"qualityControlFlag":"TRUE","skyCondition1a":"FEW","skyCondition1b":5000,"skyCondition2a":"BKN","skyCondition2b":6000,"flightCategory":"VFR","metarType":"METAR","geometry_esri":{"x":47.78,"y":13.02,"z":430}}}