{"type":"Feature","geometry":{"type":"Point","coordinates":[47.78,13.02,430]},"properties":{"stationId":"LOWS","rawText":"LOWS 091550Z 32006KT 9999 FEW050 FEW060TCU SCT120 BKN300 22/07 Q1006 NOSIG","observationTime":"2018-05-09T15:50:00Z","temp":22,"dewpoint":7,"windDirection":320,"windSpeed":11.112,"visibility":6.21,"altim":29.704725,"qualityControlFlag":"TRUE","skyCondition1a":"FEW","skyCondition1b":5000,"skyCondition2a":"FEW","skyCondition2b":6000,"flightCategory":"VFR","metarType":"METAR","geometry_esri":{"x":47.78,"y":13.02,"z":430}}}