{"type":"Feature","geometry":{"type":"Point","coordinates":[47.78,13.02,430]},"properties":{"stationId":"LOWS","rawText":"LOWS 261520Z 05007KT 010V090 9999 FEW030 BKN045 M09/M18 Q1018 NOSIG","observationTime":"2018-02-26T15:20:00Z","temp":-9,"dewpoint":-18,"windDirection":50,"windSpeed":12.964,"visibility":6.21,"altim":30.059055,"qualityControlFlag":"TRUE","skyCondition1a":"FEW","skyCondition1b":3000,"skyCondition2a":"BKN","skyCondition2b":4500,"flightCategory":"VFR","metarType":"METAR","geometry_esri":{"x":47.78,"y":13.02,"z":430}}}