{"type":"Feature","geometry":{"type":"Point","coordinates":[47.78,13.02,427]},"properties":{"stationId":"LOWS","rawText":"LOWS 170550Z 19003KT 6000 -RA FEW002 SCT004 BKN018 05/05 Q1017 NOSIG","observationTime":"2020-10-17T05:50:00Z","temp":5,"dewpoint":5,"windDirection":190,"windSpeed":5.556,"visibility":3.73,"altim":30.029528,"qualityControlFlag":"TRUE","skyCondition1a":"FEW","skyCondition1b":200,"skyCondition2a":"SCT","skyCondition2b":400,"flightCategory":"MVFR","metarType":"METAR","geometry_esri":{"x":47.78,"y":13.02,"z":427}}}