{"type":"Feature","geometry":{"type":"Point","coordinates":[47.78,13.02,430]},"properties":{"stationId":"LOWS","rawText":"LOWS 091850Z 17007KT 9999 FEW040 SCT055 BKN140 09/05 Q1016 WS ALL RWY NOSIG","observationTime":"2019-03-09T18:50:00Z","temp":9,"dewpoint":5,"windDirection":170,"windSpeed":12.964,"visibility":6.21,"altim":30,"qualityControlFlag":"TRUE","skyCondition1a":"FEW","skyCondition1b":4000,"skyCondition2a":"SCT","skyCondition2b":5500,"flightCategory":"VFR","metarType":"METAR","geometry_esri":{"x":47.78,"y":13.02,"z":430}}}