{"type":"Feature","geometry":{"type":"Point","coordinates":[47.78,13.02,427]},"properties":{"stationId":"LOWS","rawText":"LOWS 091750Z 08004KT 040V120 9999 FEW020 BKN026 M01/M04 Q1021 NOSIG","observationTime":"2021-01-09T17:50:00Z","temp":-1,"dewpoint":-4,"windDirection":80,"windSpeed":7.408,"visibility":6.21,"altim":30.147638,"qualityControlFlag":"TRUE","skyCondition1a":"FEW","skyCondition1b":2000,"skyCondition2a":"BKN","skyCondition2b":2600,"flightCategory":"MVFR","metarType":"METAR","geometry_esri":{"x":47.78,"y":13.02,"z":427}}}