{"type":"Feature","geometry":{"type":"Point","coordinates":[47.78,13.02,427]},"properties":{"stationId":"LOWS","rawText":"LOWS 290650Z 15006KT 110V170 9999 FEW042 BKN048 09/07 Q1017 NOSIG","observationTime":"2020-09-29T06:50:00Z","temp":9,"dewpoint":7,"windDirection":150,"windSpeed":11.112,"visibility":6.21,"altim":30.029528,"qualityControlFlag":"TRUE","skyCondition1a":"FEW","skyCondition1b":4200,"skyCondition2a":"BKN","skyCondition2b":4800,"flightCategory":"VFR","metarType":"METAR","geometry_esri":{"x":47.78,"y":13.02,"z":427}}}