{"type":"Feature","geometry":{"type":"Point","coordinates":[47.78,13.02,430]},"properties":{"stationId":"LOWS","rawText":"LOWS 191750Z 16003KT 120V180 7000 -SHSN FEW004 BKN018 BKN022 00/M00 Q1037 R15/290195 NOSIG","observationTime":"2020-01-19T17:50:00Z","temp":0,"dewpoint":0,"windDirection":160,"windSpeed":5.556,"visibility":4.35,"altim":30.620079,"qualityControlFlag":"TRUE","skyCondition1a":"FEW","skyCondition1b":400,"skyCondition2a":"BKN","skyCondition2b":1800,"flightCategory":"MVFR","metarType":"METAR","geometry_esri":{"x":47.78,"y":13.02,"z":430}}}