{"type":"Feature","geometry":{"type":"Point","coordinates":[47.78,13.02,430]},"properties":{"stationId":"LOWS","rawText":"LOWS 280950Z 31005KT 200V360 9999 FEW035 SCT050 BKN100 09/01 Q1020 NOSIG","observationTime":"2019-04-28T09:50:00Z","temp":9,"dewpoint":1,"windDirection":310,"windSpeed":9.26,"visibility":6.21,"altim":30.11811,"qualityControlFlag":"TRUE","skyCondition1a":"FEW","skyCondition1b":3500,"skyCondition2a":"SCT","skyCondition2b":5000,"flightCategory":"VFR","metarType":"METAR","geometry_esri":{"x":47.78,"y":13.02,"z":430}}}