{"type":"Feature","geometry":{"type":"Point","coordinates":[47.78,13.02,430]},"properties":{"stationId":"LOWS","rawText":"LOWS 101150Z 01006KT 320V030 9999 FEW022 BKN026 11/06 Q1008 NOSIG","observationTime":"2019-04-10T11:50:00Z","temp":11,"dewpoint":6,"windDirection":10,"windSpeed":11.112,"visibility":6.21,"altim":29.763779,"qualityControlFlag":"TRUE","skyCondition1a":"FEW","skyCondition1b":2200,"skyCondition2a":"BKN","skyCondition2b":2600,"flightCategory":"MVFR","metarType":"METAR","geometry_esri":{"x":47.78,"y":13.02,"z":430}}}