{"type":"Feature","geometry":{"type":"Point","coordinates":[47.78,13.02,430]},"properties":{"stationId":"LOWS","rawText":"LOWS 190450Z 17004KT 9999 FEW043 BKN070 15/13 Q1025 NOSIG","observationTime":"2018-06-19T04:50:00Z","temp":15,"dewpoint":13,"windDirection":170,"windSpeed":7.408,"visibility":6.21,"altim":30.265747,"qualityControlFlag":"TRUE","skyCondition1a":"FEW","skyCondition1b":4300,"skyCondition2a":"BKN","skyCondition2b":7000,"flightCategory":"VFR","metarType":"METAR","geometry_esri":{"x":47.78,"y":13.02,"z":430}}}