{"type":"Feature","geometry":{"type":"Point","coordinates":[47.78,13.02,427]},"properties":{"stationId":"LOWS","rawText":"LOWS 150550Z VRB01KT 0650 R15/0900N R33/0550N FZFG FEW001 BKN002 M01/M01 Q1015 NOSIG","observationTime":"2020-12-15T05:50:00Z","temp":-1,"dewpoint":-1,"windDirection":0,"windSpeed":1.852,"visibility":0.4,"altim":29.970472,"qualityControlFlag":"TRUE","skyCondition1a":"FEW","skyCondition1b":100,"skyCondition2a":"BKN","skyCondition2b":200,"flightCategory":"LIFR","metarType":"METAR","geometry_esri":{"x":47.78,"y":13.02,"z":427}}}