{"type":"Feature","geometry":{"type":"Point","coordinates":[47.78,13.02,430]},"properties":{"stationId":"LOWS","rawText":"LOWS 180950Z 22005KT 190V250 9999 -RA FEW011 SCT024 BKN030 04/03 Q1027 NOSIG","observationTime":"2020-01-18T09:50:00Z","temp":4,"dewpoint":3,"windDirection":220,"windSpeed":9.26,"visibility":6.21,"altim":30.324802,"qualityControlFlag":"TRUE","skyCondition1a":"FEW","skyCondition1b":1100,"skyCondition2a":"SCT","skyCondition2b":2400,"flightCategory":"MVFR","metarType":"METAR","geometry_esri":{"x":47.78,"y":13.02,"z":430}}}