{"type":"Feature","geometry":{"type":"Point","coordinates":[47.78,13.02,430]},"properties":{"stationId":"LOWS","rawText":"LOWS 071750Z 16006KT 120V200 9999 FEW050 BKN070 05/01 Q1001 NOSIG","observationTime":"2018-03-07T17:50:00Z","temp":5,"dewpoint":1,"windDirection":160,"windSpeed":11.112,"visibility":6.21,"altim":29.557087,"qualityControlFlag":"TRUE","skyCondition1a":"FEW","skyCondition1b":5000,"skyCondition2a":"BKN","skyCondition2b":7000,"flightCategory":"VFR","metarType":"METAR","geometry_esri":{"x":47.78,"y":13.02,"z":430}}}