{"type":"Feature","geometry":{"type":"Point","coordinates":[47.78,13.02,430]},"properties":{"stationId":"LOWS","rawText":"LOWS 151050Z 14012KT 9999 FEW110 BKN300 07/M01 Q1008 R15/19//95 NOSIG","observationTime":"2019-12-15T10:50:00Z","temp":7,"dewpoint":-1,"windDirection":140,"windSpeed":22.224,"visibility":6.21,"altim":29.763779,"qualityControlFlag":"TRUE","skyCondition1a":"FEW","skyCondition1b":11000,"skyCondition2a":"BKN","skyCondition2b":30000,"flightCategory":"VFR","metarType":"SPECI","geometry_esri":{"x":47.78,"y":13.02,"z":430}}}