{"type":"Feature","geometry":{"type":"Point","coordinates":[47.78,13.02,427]},"properties":{"stationId":"LOWS","rawText":"LOWS 071950Z 15006KT 9999 FEW005 BKN065 14/13 Q1026 NOSIG","observationTime":"2020-09-07T19:50:00Z","temp":14,"dewpoint":13,"windDirection":150,"windSpeed":11.112,"visibility":6.21,"altim":30.295275,"qualityControlFlag":"TRUE","skyCondition1a":"FEW","skyCondition1b":500,"skyCondition2a":"BKN","skyCondition2b":6500,"flightCategory":"VFR","metarType":"METAR","geometry_esri":{"x":47.78,"y":13.02,"z":427}}}