{"type":"Feature","geometry":{"type":"Point","coordinates":[47.78,13.02,430]},"properties":{"stationId":"LOWS","rawText":"LOWS 071150Z 10004KT 070V160 9999 FEW040 BKN060 05/02 Q1017 R15/19//95 NOSIG","observationTime":"2019-12-07T11:50:00Z","temp":5,"dewpoint":2,"windDirection":100,"windSpeed":7.408,"visibility":6.21,"altim":30.029528,"qualityControlFlag":"TRUE","skyCondition1a":"FEW","skyCondition1b":4000,"skyCondition2a":"BKN","skyCondition2b":6000,"flightCategory":"VFR","metarType":"METAR","geometry_esri":{"x":47.78,"y":13.02,"z":430}}}