{"type":"Feature","geometry":{"type":"Point","coordinates":[47.78,13.02,430]},"properties":{"stationId":"LOWS","rawText":"LOWS 251050Z 28003KT 160V330 9999 FEW060 SCT085 27/14 Q1016 NOSIG","observationTime":"2018-07-25T10:50:00Z","temp":27,"dewpoint":14,"windDirection":280,"windSpeed":5.556,"visibility":6.21,"altim":30,"qualityControlFlag":"TRUE","skyCondition1a":"FEW","skyCondition1b":6000,"skyCondition2a":"SCT","skyCondition2b":8500,"flightCategory":"VFR","metarType":"METAR","geometry_esri":{"x":47.78,"y":13.02,"z":430}}}