{"type":"Feature","geometry":{"type":"Point","coordinates":[47.78,13.02,430]},"properties":{"stationId":"LOWS","rawText":"LOWS 200920Z VRB04KT 9999 FEW060 SCT300 04/M00 Q1004 WS R15 NOSIG","observationTime":"2018-11-20T09:20:00Z","temp":4,"dewpoint":0,"windDirection":0,"windSpeed":7.408,"visibility":6.21,"altim":29.64567,"qualityControlFlag":"TRUE","skyCondition1a":"FEW","skyCondition1b":6000,"skyCondition2a":"SCT","skyCondition2b":30000,"flightCategory":"VFR","metarType":"SPECI","geometry_esri":{"x":47.78,"y":13.02,"z":430}}}