{"type":"Feature","geometry":{"type":"Point","coordinates":[47.78,13.02,430]},"properties":{"stationId":"LOWS","rawText":"LOWS 090950Z 02005KT 330V050 9999 FEW012 BKN020 16/12 Q1023 NOSIG","observationTime":"2018-10-09T09:50:00Z","temp":16,"dewpoint":12,"windDirection":20,"windSpeed":9.26,"visibility":6.21,"altim":30.206694,"qualityControlFlag":"TRUE","skyCondition1a":"FEW","skyCondition1b":1200,"skyCondition2a":"BKN","skyCondition2b":2000,"flightCategory":"MVFR","metarType":"METAR","geometry_esri":{"x":47.78,"y":13.02,"z":430}}}