{"type":"Feature","geometry":{"type":"Point","coordinates":[47.78,13.02,430]},"properties":{"stationId":"LOWS","rawText":"LOWS 181150Z 31006KT 280V340 9999 FEW060 BKN085 25/12 Q1017 NOSIG","observationTime":"2018-07-18T11:50:00Z","temp":25,"dewpoint":12,"windDirection":310,"windSpeed":11.112,"visibility":6.21,"altim":30.029528,"qualityControlFlag":"TRUE","skyCondition1a":"FEW","skyCondition1b":6000,"skyCondition2a":"BKN","skyCondition2b":8500,"flightCategory":"VFR","metarType":"METAR","geometry_esri":{"x":47.78,"y":13.02,"z":430}}}