{"type":"Feature","geometry":{"type":"Point","coordinates":[47.78,13.02,430]},"properties":{"stationId":"LOWS","rawText":"LOWS 291950Z 17005KT 140V210 9999 FEW100 BKN110 23/11 Q1013 NOSIG","observationTime":"2018-05-29T19:50:00Z","temp":23,"dewpoint":11,"windDirection":170,"windSpeed":9.26,"visibility":6.21,"altim":29.911417,"qualityControlFlag":"TRUE","skyCondition1a":"FEW","skyCondition1b":10000,"skyCondition2a":"BKN","skyCondition2b":11000,"flightCategory":"VFR","metarType":"METAR","geometry_esri":{"x":47.78,"y":13.02,"z":430}}}