{"type":"Feature","geometry":{"type":"Point","coordinates":[47.78,13.02,430]},"properties":{"stationId":"LOWS","rawText":"LOWS 220450Z VRB01KT 9999 FEW100 BKN130 01/01 Q0989 NOSIG","observationTime":"2019-12-22T04:50:00Z","temp":1,"dewpoint":1,"windDirection":0,"windSpeed":1.852,"visibility":6.21,"altim":29.202755,"qualityControlFlag":"TRUE","skyCondition1a":"FEW","skyCondition1b":10000,"skyCondition2a":"BKN","skyCondition2b":13000,"flightCategory":"VFR","metarType":"METAR","geometry_esri":{"x":47.78,"y":13.02,"z":430}}}