{"type":"Feature","geometry":{"type":"Point","coordinates":[47.78,13.02,430]},"properties":{"stationId":"LOWS","rawText":"LOWS 080850Z 33008KT 300V360 9999 FEW050 BKN070 18/07 Q1026 NOSIG","observationTime":"2019-06-08T08:50:00Z","temp":18,"dewpoint":7,"windDirection":330,"windSpeed":14.816,"visibility":6.21,"altim":30.295275,"qualityControlFlag":"TRUE","skyCondition1a":"FEW","skyCondition1b":5000,"skyCondition2a":"BKN","skyCondition2b":7000,"flightCategory":"VFR","metarType":"METAR","geometry_esri":{"x":47.78,"y":13.02,"z":430}}}