{"type":"Feature","geometry":{"type":"Point","coordinates":[47.78,13.02,427]},"properties":{"stationId":"LOWS","rawText":"LOWS 151750Z 34003KT 9999 FEW040 BKN060 M02/M05 Q1023 R15/810195 NOSIG","observationTime":"2021-01-15T17:50:00Z","temp":-2,"dewpoint":-5,"windDirection":340,"windSpeed":5.556,"visibility":6.21,"altim":30.206694,"qualityControlFlag":"TRUE","skyCondition1a":"FEW","skyCondition1b":4000,"skyCondition2a":"BKN","skyCondition2b":6000,"flightCategory":"VFR","metarType":"METAR","geometry_esri":{"x":47.78,"y":13.02,"z":427}}}