{"type":"Feature","geometry":{"type":"Point","coordinates":[47.78,13.02,430]},"properties":{"stationId":"LOWS","rawText":"LOWS 120450Z 18005KT 150V220 9999 FEW009 SCT021 BKN028 M02/M03 Q1022 R15/19//95 NOSIG","observationTime":"2019-01-12T04:50:00Z","temp":-2,"dewpoint":-3,"windDirection":180,"windSpeed":9.26,"visibility":6.21,"altim":30.177166,"qualityControlFlag":"TRUE","skyCondition1a":"FEW","skyCondition1b":900,"skyCondition2a":"SCT","skyCondition2b":2100,"flightCategory":"MVFR","metarType":"METAR","geometry_esri":{"x":47.78,"y":13.02,"z":430}}}