{"type":"Feature","geometry":{"type":"Point","coordinates":[47.78,13.02,427]},"properties":{"stationId":"LOWS","rawText":"LOWS 070650Z 29010KT 270V330 9999 -SHRA FEW030 SCT043 BKN055 11/07 Q1014 NOSIG","observationTime":"2020-10-07T06:50:00Z","temp":11,"dewpoint":7,"windDirection":290,"windSpeed":18.52,"visibility":6.21,"altim":29.940945,"qualityControlFlag":"TRUE","skyCondition1a":"FEW","skyCondition1b":3000,"skyCondition2a":"SCT","skyCondition2b":4300,"flightCategory":"VFR","metarType":"METAR","geometry_esri":{"x":47.78,"y":13.02,"z":427}}}