{"type":"Feature","geometry":{"type":"Point","coordinates":[47.78,13.02,430]},"properties":{"stationId":"LOWS","rawText":"LOWS 021150Z 13007KT 090V160 9999 FEW070 BKN090 BKN120 14/07 Q1001 NOSIG","observationTime":"2019-11-02T11:50:00Z","temp":14,"dewpoint":7,"windDirection":130,"windSpeed":12.964,"visibility":6.21,"altim":29.557087,"qualityControlFlag":"TRUE","skyCondition1a":"FEW","skyCondition1b":7000,"skyCondition2a":"BKN","skyCondition2b":9000,"flightCategory":"VFR","metarType":"METAR","geometry_esri":{"x":47.78,"y":13.02,"z":430}}}