{"type":"Feature","geometry":{"type":"Point","coordinates":[47.78,13.02,430]},"properties":{"stationId":"LOWS","rawText":"LOWS 050450Z 08003KT 9999 FEW070 BKN150 01/M02 Q1000 NOSIG","observationTime":"2018-03-05T04:50:00Z","temp":1,"dewpoint":-2,"windDirection":80,"windSpeed":5.556,"visibility":6.21,"altim":29.52756,"qualityControlFlag":"TRUE","skyCondition1a":"FEW","skyCondition1b":7000,"skyCondition2a":"BKN","skyCondition2b":15000,"flightCategory":"VFR","metarType":"METAR","geometry_esri":{"x":47.78,"y":13.02,"z":430}}}