{"type":"Feature","geometry":{"type":"Point","coordinates":[47.78,13.02,430]},"properties":{"stationId":"LOWS","rawText":"LOWS 222020Z 16004KT 9999 FEW130 BKN140 BKN300 07/M01 Q1026 NOSIG","observationTime":"2020-02-22T20:20:00Z","temp":7,"dewpoint":-1,"windDirection":160,"windSpeed":7.408,"visibility":6.21,"altim":30.295275,"qualityControlFlag":"TRUE","skyCondition1a":"FEW","skyCondition1b":13000,"skyCondition2a":"BKN","skyCondition2b":14000,"flightCategory":"VFR","metarType":"METAR","geometry_esri":{"x":47.78,"y":13.02,"z":430}}}