{"type":"Feature","geometry":{"type":"Point","coordinates":[47.78,13.02,430]},"properties":{"stationId":"LOWS","rawText":"LOWS 201150Z 01004KT 330V040 9000 FEW006 SCT009 BKN040 02/M00 Q1044 R15/29//95 NOSIG","observationTime":"2020-01-20T11:50:00Z","temp":2,"dewpoint":0,"windDirection":10,"windSpeed":7.408,"visibility":5.59,"altim":30.82677,"qualityControlFlag":"TRUE","skyCondition1a":"FEW","skyCondition1b":600,"skyCondition2a":"SCT","skyCondition2b":900,"flightCategory":"VFR","metarType":"METAR","geometry_esri":{"x":47.78,"y":13.02,"z":430}}}