{"type":"Feature","geometry":{"type":"Point","coordinates":[47.78,13.02,430]},"properties":{"stationId":"LOWS","rawText":"LOWS 230450Z 19003KT 9999 FEW007 SCT030 BKN040 16/15 Q1017 NOSIG","observationTime":"2018-07-23T04:50:00Z","temp":16,"dewpoint":15,"windDirection":190,"windSpeed":5.556,"visibility":6.21,"altim":30.029528,"qualityControlFlag":"TRUE","skyCondition1a":"FEW","skyCondition1b":700,"skyCondition2a":"SCT","skyCondition2b":3000,"flightCategory":"VFR","metarType":"METAR","geometry_esri":{"x":47.78,"y":13.02,"z":430}}}