{"type":"Feature","geometry":{"type":"Point","coordinates":[47.78,13.02,430]},"properties":{"stationId":"LOWS","rawText":"LOWS 020450Z 29012KT 9999 FEW022 SCT026 BKN030 01/M02 Q1024 NOSIG","observationTime":"2019-01-02T04:50:00Z","temp":1,"dewpoint":-2,"windDirection":290,"windSpeed":22.224,"visibility":6.21,"altim":30.236221,"qualityControlFlag":"TRUE","skyCondition1a":"FEW","skyCondition1b":2200,"skyCondition2a":"SCT","skyCondition2b":2600,"flightCategory":"MVFR","metarType":"METAR","geometry_esri":{"x":47.78,"y":13.02,"z":430}}}