{"type":"Feature","geometry":{"type":"Point","coordinates":[47.78,13.02,430]},"properties":{"stationId":"LOWS","rawText":"LOWS 041650Z 33003KT 270V360 9999 -RA FEW008 SCT020 BKN025 06/04 Q1023 NOSIG","observationTime":"2018-12-04T16:50:00Z","temp":6,"dewpoint":4,"windDirection":330,"windSpeed":5.556,"visibility":6.21,"altim":30.206694,"qualityControlFlag":"TRUE","skyCondition1a":"FEW","skyCondition1b":800,"skyCondition2a":"SCT","skyCondition2b":2000,"flightCategory":"MVFR","metarType":"METAR","geometry_esri":{"x":47.78,"y":13.02,"z":430}}}