{"type":"Feature","geometry":{"type":"Point","coordinates":[47.78,13.02,427]},"properties":{"stationId":"LOWS","rawText":"LOWS 261320Z 30008KT 250V320 9999 FEW030 SCT050 00/M05 Q1025 R15/19//95 NOSIG","observationTime":"2020-12-26T13:20:00Z","temp":0,"dewpoint":-5,"windDirection":300,"windSpeed":14.816,"visibility":6.21,"altim":30.265747,"qualityControlFlag":"TRUE","skyCondition1a":"FEW","skyCondition1b":3000,"skyCondition2a":"SCT","skyCondition2b":5000,"flightCategory":"VFR","metarType":"SPECI","geometry_esri":{"x":47.78,"y":13.02,"z":427}}}