{"type":"Feature","geometry":{"type":"Point","coordinates":[47.78,13.02,427]},"properties":{"stationId":"LOWS","rawText":"LOWS 161750Z 15003KT 120V180 9999 FEW050 BKN070 07/06 Q1024 NOSIG","observationTime":"2020-11-16T17:50:00Z","temp":7,"dewpoint":6,"windDirection":150,"windSpeed":5.556,"visibility":6.21,"altim":30.236221,"qualityControlFlag":"TRUE","skyCondition1a":"FEW","skyCondition1b":5000,"skyCondition2a":"BKN","skyCondition2b":7000,"flightCategory":"VFR","metarType":"METAR","geometry_esri":{"x":47.78,"y":13.02,"z":427}}}