{"type":"Feature","geometry":{"type":"Point","coordinates":[47.78,13.02,427]},"properties":{"stationId":"LOWS","rawText":"LOWS 302150Z 18003KT 150V220 9999 FEW034 BKN040 01/00 Q1009 R88/////// NOSIG","observationTime":"2020-12-30T21:50:00Z","temp":1,"dewpoint":0,"windDirection":180,"windSpeed":5.556,"visibility":6.21,"altim":29.793306,"qualityControlFlag":"TRUE","skyCondition1a":"FEW","skyCondition1b":3400,"skyCondition2a":"BKN","skyCondition2b":4000,"flightCategory":"VFR","metarType":"METAR","geometry_esri":{"x":47.78,"y":13.02,"z":427}}}