{"type":"Feature","geometry":{"type":"Point","coordinates":[47.78,13.02,427]},"properties":{"stationId":"LOWS","rawText":"LOWS 141150Z 31007KT 8000 -SHSN FEW002 SCT022 BKN029 M00/M02 Q1016 R15/15//95 NOSIG","observationTime":"2021-01-14T11:50:00Z","temp":0,"dewpoint":-2,"windDirection":310,"windSpeed":12.964,"visibility":4.97,"altim":30,"qualityControlFlag":"TRUE","skyCondition1a":"FEW","skyCondition1b":200,"skyCondition2a":"SCT","skyCondition2b":2200,"flightCategory":"MVFR","metarType":"METAR","geometry_esri":{"x":47.78,"y":13.02,"z":427}}}