{"type":"Feature","geometry":{"type":"Point","coordinates":[47.78,13.02,427]},"properties":{"stationId":"LOWS","rawText":"LOWS 181050Z 29007KT 250V320 9999 -SHSN FEW003 SCT011 BKN026 01/M00 Q1024 R15/29//95 NOSIG","observationTime":"2021-01-18T10:50:00Z","temp":1,"dewpoint":0,"windDirection":290,"windSpeed":12.964,"visibility":6.21,"altim":30.236221,"qualityControlFlag":"TRUE","skyCondition1a":"FEW","skyCondition1b":300,"skyCondition2a":"SCT","skyCondition2b":1100,"flightCategory":"MVFR","metarType":"METAR","geometry_esri":{"x":47.78,"y":13.02,"z":427}}}