{"type":"Feature","geometry":{"type":"Point","coordinates":[47.78,13.02,430]},"properties":{"stationId":"LOWS","rawText":"LOWS 190950Z 15003KT 090V220 9999 FEW060 SCT140 22/16 Q1023 NOSIG","observationTime":"2018-09-19T09:50:00Z","temp":22,"dewpoint":16,"windDirection":150,"windSpeed":5.556,"visibility":6.21,"altim":30.206694,"qualityControlFlag":"TRUE","skyCondition1a":"FEW","skyCondition1b":6000,"skyCondition2a":"SCT","skyCondition2b":14000,"flightCategory":"VFR","metarType":"METAR","geometry_esri":{"x":47.78,"y":13.02,"z":430}}}