{"type":"Feature","geometry":{"type":"Point","coordinates":[47.78,13.02,430]},"properties":{"stationId":"LOWS","rawText":"LOWS 032150Z 26004KT 220V290 7000 -SN FEW007 BKN034 M00/M02 Q1023 R88/////// NOSIG","observationTime":"2019-02-03T21:50:00Z","temp":0,"dewpoint":-2,"windDirection":260,"windSpeed":7.408,"visibility":4.35,"altim":30.206694,"qualityControlFlag":"TRUE","skyCondition1a":"FEW","skyCondition1b":700,"skyCondition2a":"BKN","skyCondition2b":3400,"flightCategory":"MVFR","metarType":"METAR","geometry_esri":{"x":47.78,"y":13.02,"z":430}}}