{"type":"Feature","geometry":{"type":"Point","coordinates":[47.78,13.02,430]},"properties":{"stationId":"LOWS","rawText":"LOWS 252150Z 21003KT 180V250 9999 FEW016 BKN100 M03/M03 Q1033 NOSIG","observationTime":"2018-12-25T21:50:00Z","temp":-3,"dewpoint":-3,"windDirection":210,"windSpeed":5.556,"visibility":6.21,"altim":30.501968,"qualityControlFlag":"TRUE","skyCondition1a":"FEW","skyCondition1b":1600,"skyCondition2a":"BKN","skyCondition2b":10000,"flightCategory":"VFR","metarType":"METAR","geometry_esri":{"x":47.78,"y":13.02,"z":430}}}