{"type":"Feature","geometry":{"type":"Point","coordinates":[47.78,13.02,430]},"properties":{"stationId":"LOWS","rawText":"LOWS 302150Z 16003KT 120V190 9999 FEW050 BKN180 M02/M03 Q1001 NOSIG","observationTime":"2019-01-30T21:50:00Z","temp":-2,"dewpoint":-3,"windDirection":160,"windSpeed":5.556,"visibility":6.21,"altim":29.557087,"qualityControlFlag":"TRUE","skyCondition1a":"FEW","skyCondition1b":5000,"skyCondition2a":"BKN","skyCondition2b":18000,"flightCategory":"VFR","metarType":"METAR","geometry_esri":{"x":47.78,"y":13.02,"z":430}}}