{"type":"Feature","geometry":{"type":"Point","coordinates":[47.78,13.02,430]},"properties":{"stationId":"LOWS","rawText":"LOWS 300950Z 17007KT 9999 FEW100 SCT160 BKN300 M01/M07 Q0996 NOSIG","observationTime":"2019-01-30T09:50:00Z","temp":-1,"dewpoint":-7,"windDirection":170,"windSpeed":12.964,"visibility":6.21,"altim":29.409449,"qualityControlFlag":"TRUE","skyCondition1a":"FEW","skyCondition1b":10000,"skyCondition2a":"SCT","skyCondition2b":16000,"flightCategory":"VFR","metarType":"METAR","geometry_esri":{"x":47.78,"y":13.02,"z":430}}}