{"type":"Feature","geometry":{"type":"Point","coordinates":[47.78,13.02,427]},"properties":{"stationId":"LOWS","rawText":"LOWS 301250Z 30010KT 280V340 9999 FEW018 SCT022 21/16 Q1002 NOSIG","observationTime":"2020-08-30T12:50:00Z","temp":21,"dewpoint":16,"windDirection":300,"windSpeed":18.52,"visibility":6.21,"altim":29.586615,"qualityControlFlag":"TRUE","skyCondition1a":"FEW","skyCondition1b":1800,"skyCondition2a":"SCT","skyCondition2b":2200,"flightCategory":"VFR","metarType":"METAR","geometry_esri":{"x":47.78,"y":13.02,"z":427}}}