{"type":"Feature","geometry":{"type":"Point","coordinates":[47.78,13.02,430]},"properties":{"stationId":"LOWS","rawText":"LOWS 141250Z VRB03KT 9999 FEW035 SCT060 19/10 Q1020 NOSIG","observationTime":"2019-08-14T12:50:00Z","temp":19,"dewpoint":10,"windDirection":0,"windSpeed":5.556,"visibility":6.21,"altim":30.11811,"qualityControlFlag":"TRUE","skyCondition1a":"FEW","skyCondition1b":3500,"skyCondition2a":"SCT","skyCondition2b":6000,"flightCategory":"VFR","metarType":"METAR","geometry_esri":{"x":47.78,"y":13.02,"z":430}}}