{"type":"Feature","geometry":{"type":"Point","coordinates":[47.78,13.02,430]},"properties":{"stationId":"LOWS","rawText":"LOWS 050350Z 17002KT 8000 FEW005 BKN120 12/12 Q1018 NOSIG","observationTime":"2018-05-05T03:50:00Z","temp":12,"dewpoint":12,"windDirection":170,"windSpeed":3.704,"visibility":4.97,"altim":30.059055,"qualityControlFlag":"TRUE","skyCondition1a":"FEW","skyCondition1b":500,"skyCondition2a":"BKN","skyCondition2b":12000,"flightCategory":"MVFR","metarType":"METAR","geometry_esri":{"x":47.78,"y":13.02,"z":430}}}