{"type":"Feature","geometry":{"type":"Point","coordinates":[47.78,13.02,430]},"properties":{"stationId":"LOWS","rawText":"LOWS 301750Z 03003KT 350V090 9999 FEW050 SCT080 23/15 Q1014 NOSIG","observationTime":"2018-06-30T17:50:00Z","temp":23,"dewpoint":15,"windDirection":30,"windSpeed":5.556,"visibility":6.21,"altim":29.940945,"qualityControlFlag":"TRUE","skyCondition1a":"FEW","skyCondition1b":5000,"skyCondition2a":"SCT","skyCondition2b":8000,"flightCategory":"VFR","metarType":"METAR","geometry_esri":{"x":47.78,"y":13.02,"z":430}}}