{"type":"Feature","geometry":{"type":"Point","coordinates":[47.78,13.02,427]},"properties":{"stationId":"LOWS","rawText":"LOWS 291550Z 24003KT 9999 FEW010 BKN024 01/M02 Q1022 NOSIG","observationTime":"2020-11-29T15:50:00Z","temp":1,"dewpoint":-2,"windDirection":240,"windSpeed":5.556,"visibility":6.21,"altim":30.177166,"qualityControlFlag":"TRUE","skyCondition1a":"FEW","skyCondition1b":1000,"skyCondition2a":"BKN","skyCondition2b":2400,"flightCategory":"MVFR","metarType":"METAR","geometry_esri":{"x":47.78,"y":13.02,"z":427}}}