{"type":"Feature","geometry":{"type":"Point","coordinates":[47.78,13.02,430]},"properties":{"stationId":"LOWS","rawText":"LOWS 110950Z 32005KT 280V010 9999 FEW012 SCT025 BKN050 17/13 Q1009 NOSIG","observationTime":"2020-06-11T09:50:00Z","temp":17,"dewpoint":13,"windDirection":320,"windSpeed":9.26,"visibility":6.21,"altim":29.793306,"qualityControlFlag":"TRUE","skyCondition1a":"FEW","skyCondition1b":1200,"skyCondition2a":"SCT","skyCondition2b":2500,"flightCategory":"VFR","metarType":"METAR","geometry_esri":{"x":47.78,"y":13.02,"z":430}}}