{"type":"Feature","geometry":{"type":"Point","coordinates":[47.78,13.02,430]},"properties":{"stationId":"LOWS","rawText":"LOWS 240850Z 13004KT 060V180 9999 FEW010 BKN080 16/12 Q1021 NOSIG","observationTime":"2018-04-24T08:50:00Z","temp":16,"dewpoint":12,"windDirection":130,"windSpeed":7.408,"visibility":6.21,"altim":30.147638,"qualityControlFlag":"TRUE","skyCondition1a":"FEW","skyCondition1b":1000,"skyCondition2a":"BKN","skyCondition2b":8000,"flightCategory":"VFR","metarType":"METAR","geometry_esri":{"x":47.78,"y":13.02,"z":430}}}