{"type":"Feature","geometry":{"type":"Point","coordinates":[47.78,13.02,430]},"properties":{"stationId":"LOWS","rawText":"LOWS 181320Z 29011KT 250V330 9999 FEW050 SCT070 10/M02 Q1026 NOSIG","observationTime":"2020-02-18T13:20:00Z","temp":10,"dewpoint":-2,"windDirection":290,"windSpeed":20.372,"visibility":6.21,"altim":30.295275,"qualityControlFlag":"TRUE","skyCondition1a":"FEW","skyCondition1b":5000,"skyCondition2a":"SCT","skyCondition2b":7000,"flightCategory":"VFR","metarType":"METAR","geometry_esri":{"x":47.78,"y":13.02,"z":430}}}