{"type":"Feature","geometry":{"type":"Point","coordinates":[47.78,13.02,430]},"properties":{"stationId":"LOWS","rawText":"LOWS 100850Z 33003KT 290V050 7000 FEW008 SCT010 BKN019 10/07 Q1008 NOSIG","observationTime":"2019-04-10T08:50:00Z","temp":10,"dewpoint":7,"windDirection":330,"windSpeed":5.556,"visibility":4.35,"altim":29.763779,"qualityControlFlag":"TRUE","skyCondition1a":"FEW","skyCondition1b":800,"skyCondition2a":"SCT","skyCondition2b":1000,"flightCategory":"MVFR","metarType":"METAR","geometry_esri":{"x":47.78,"y":13.02,"z":430}}}