{"type":"Feature","geometry":{"type":"Point","coordinates":[47.78,13.02,430]},"properties":{"stationId":"LOWS","rawText":"LOWS 040650Z 15005KT 130V200 9999 -RA FEW013 SCT022 BKN028 02/02 Q1027 WS ALL RWY NOSIG","observationTime":"2020-01-04T06:50:00Z","temp":2,"dewpoint":2,"windDirection":150,"windSpeed":9.26,"visibility":6.21,"altim":30.324802,"qualityControlFlag":"TRUE","skyCondition1a":"FEW","skyCondition1b":1300,"skyCondition2a":"SCT","skyCondition2b":2200,"flightCategory":"MVFR","metarType":"SPECI","geometry_esri":{"x":47.78,"y":13.02,"z":430}}}