{"type":"Feature","geometry":{"type":"Point","coordinates":[47.78,13.02,430]},"properties":{"stationId":"LOWS","rawText":"LOWS 021950Z 25003KT 200V290 9999 FEW034 BKN038 01/M02 Q1027 R15/290095 NOSIG","observationTime":"2019-12-02T19:50:00Z","temp":1,"dewpoint":-2,"windDirection":250,"windSpeed":5.556,"visibility":6.21,"altim":30.324802,"qualityControlFlag":"TRUE","skyCondition1a":"FEW","skyCondition1b":3400,"skyCondition2a":"BKN","skyCondition2b":3800,"flightCategory":"VFR","metarType":"METAR","geometry_esri":{"x":47.78,"y":13.02,"z":430}}}