{"type":"Feature","geometry":{"type":"Point","coordinates":[47.78,13.02,430]},"properties":{"stationId":"LOWS","rawText":"LOWS 101650Z 14003KT 110V180 9999 -RA FEW015 SCT050 BKN060 16/13 Q1026 NOSIG","observationTime":"2018-08-10T16:50:00Z","temp":16,"dewpoint":13,"windDirection":140,"windSpeed":5.556,"visibility":6.21,"altim":30.295275,"qualityControlFlag":"TRUE","skyCondition1a":"FEW","skyCondition1b":1500,"skyCondition2a":"SCT","skyCondition2b":5000,"flightCategory":"VFR","metarType":"METAR","geometry_esri":{"x":47.78,"y":13.02,"z":430}}}