{"type":"Feature","geometry":{"type":"Point","coordinates":[47.78,13.02,430]},"properties":{"stationId":"LOWS","rawText":"LOWS 181250Z 32009G19KT 260V350 9999 FEW050 FEW060TCU BKN090 27/14 Q1017 NOSIG","observationTime":"2018-07-18T12:50:00Z","temp":27,"dewpoint":14,"windDirection":320,"windSpeed":16.668,"visibility":6.21,"altim":30.029528,"qualityControlFlag":"TRUE","skyCondition1a":"FEW","skyCondition1b":5000,"skyCondition2a":"FEW","skyCondition2b":6000,"flightCategory":"VFR","metarType":"METAR","geometry_esri":{"x":47.78,"y":13.02,"z":430}}}