{"type":"Feature","geometry":{"type":"Point","coordinates":[47.78,13.02,430]},"properties":{"stationId":"LOWS","rawText":"LOWS 060920Z 17003KT 120V220 9999 FEW130 BKN300 19/10 Q1016 NOSIG","observationTime":"2018-10-06T09:20:00Z","temp":19,"dewpoint":10,"windDirection":170,"windSpeed":5.556,"visibility":6.21,"altim":30,"qualityControlFlag":"TRUE","skyCondition1a":"FEW","skyCondition1b":13000,"skyCondition2a":"BKN","skyCondition2b":30000,"flightCategory":"VFR","metarType":"METAR","geometry_esri":{"x":47.78,"y":13.02,"z":430}}}