{"type":"Feature","geometry":{"type":"Point","coordinates":[47.78,13.02,430]},"properties":{"stationId":"LOWS","rawText":"LOWS 130950Z 16004KT 140V200 9999 FEW040 BKN300 08/05 Q1027 NOSIG","observationTime":"2018-11-13T09:50:00Z","temp":8,"dewpoint":5,"windDirection":160,"windSpeed":7.408,"visibility":6.21,"altim":30.324802,"qualityControlFlag":"TRUE","skyCondition1a":"FEW","skyCondition1b":4000,"skyCondition2a":"BKN","skyCondition2b":30000,"flightCategory":"VFR","metarType":"METAR","geometry_esri":{"x":47.78,"y":13.02,"z":430}}}