{"type":"Feature","geometry":{"type":"Point","coordinates":[47.78,13.02,430]},"properties":{"stationId":"LOWS","rawText":"LOWS 100850Z 25003KT 1000 R15/1300N R33/1200U SN FEW003 BKN007 BKN010 M01/M02 Q1016 R15/490194 NOSIG","observationTime":"2019-01-10T08:50:00Z","temp":-1,"dewpoint":-2,"windDirection":250,"windSpeed":5.556,"visibility":0.62,"altim":30,"qualityControlFlag":"TRUE","skyCondition1a":"FEW","skyCondition1b":300,"skyCondition2a":"BKN","skyCondition2b":700,"flightCategory":"LIFR","metarType":"SPECI","geometry_esri":{"x":47.78,"y":13.02,"z":430}}}