{"type":"Feature","geometry":{"type":"Point","coordinates":[47.78,13.02,427]},"properties":{"stationId":"LOWS","rawText":"LOWS 300850Z 17003KT 120V230 9999 FEW018 BKN050 14/10 Q1018 NOSIG","observationTime":"2020-09-30T08:50:00Z","temp":14,"dewpoint":10,"windDirection":170,"windSpeed":5.556,"visibility":6.21,"altim":30.059055,"qualityControlFlag":"TRUE","skyCondition1a":"FEW","skyCondition1b":1800,"skyCondition2a":"BKN","skyCondition2b":5000,"flightCategory":"VFR","metarType":"METAR","geometry_esri":{"x":47.78,"y":13.02,"z":427}}}