{"type":"Feature","geometry":{"type":"Point","coordinates":[47.78,13.02,430]},"properties":{"stationId":"LOWS","rawText":"LOWS 140650Z 14004KT 110V170 9999 FEW010 BKN018 M04/M07 Q1017 NOSIG","observationTime":"2018-12-14T06:50:00Z","temp":-4,"dewpoint":-7,"windDirection":140,"windSpeed":7.408,"visibility":6.21,"altim":30.029528,"qualityControlFlag":"TRUE","skyCondition1a":"FEW","skyCondition1b":1000,"skyCondition2a":"BKN","skyCondition2b":1800,"flightCategory":"MVFR","metarType":"METAR","geometry_esri":{"x":47.78,"y":13.02,"z":430}}}