{"type":"Feature","geometry":{"type":"Point","coordinates":[47.78,13.02,430]},"properties":{"stationId":"LOWS","rawText":"LOWS 270920Z 32005KT 7000 -SN FEW014 BKN028 M11/M14 Q1014 R15/490195 NOSIG","observationTime":"2018-02-27T09:20:00Z","temp":-11,"dewpoint":-14,"windDirection":320,"windSpeed":9.26,"visibility":4.35,"altim":29.940945,"qualityControlFlag":"TRUE","skyCondition1a":"FEW","skyCondition1b":1400,"skyCondition2a":"BKN","skyCondition2b":2800,"flightCategory":"MVFR","metarType":"SPECI","geometry_esri":{"x":47.78,"y":13.02,"z":430}}}