{"type":"Feature","geometry":{"type":"Point","coordinates":[47.78,13.02,430]},"properties":{"stationId":"LOWS","rawText":"LOWS 021350Z 36004KT 320V020 8000 SCT170 BKN250 M03/M08 Q0993 NOSIG","observationTime":"2018-03-02T13:50:00Z","temp":-3,"dewpoint":-8,"windDirection":360,"windSpeed":7.408,"visibility":4.97,"altim":29.320866,"qualityControlFlag":"TRUE","skyCondition1a":"SCT","skyCondition1b":17000,"skyCondition2a":"BKN","skyCondition2b":25000,"flightCategory":"MVFR","metarType":"METAR","geometry_esri":{"x":47.78,"y":13.02,"z":430}}}