{"type":"Feature","geometry":{"type":"Point","coordinates":[47.78,13.02,427]},"properties":{"stationId":"LOWS","rawText":"LOWS 030850Z 18003KT 7000 FEW007 BKN044 M02/M03 Q1010 R15/810195 NOSIG","observationTime":"2020-12-03T08:50:00Z","temp":-2,"dewpoint":-3,"windDirection":180,"windSpeed":5.556,"visibility":4.35,"altim":29.822834,"qualityControlFlag":"TRUE","skyCondition1a":"FEW","skyCondition1b":700,"skyCondition2a":"BKN","skyCondition2b":4400,"flightCategory":"MVFR","metarType":"METAR","geometry_esri":{"x":47.78,"y":13.02,"z":427}}}