{"type":"Feature","geometry":{"type":"Point","coordinates":[47.78,13.02,427]},"properties":{"stationId":"LOWS","rawText":"LOWS 081550Z 18003KT 120V240 9999 FEW050 BKN080 00/M03 Q1015 NOSIG","observationTime":"2021-01-08T15:50:00Z","temp":0,"dewpoint":-3,"windDirection":180,"windSpeed":5.556,"visibility":6.21,"altim":29.970472,"qualityControlFlag":"TRUE","skyCondition1a":"FEW","skyCondition1b":5000,"skyCondition2a":"BKN","skyCondition2b":8000,"flightCategory":"VFR","metarType":"METAR","geometry_esri":{"x":47.78,"y":13.02,"z":427}}}