{"type":"Feature","geometry":{"type":"Point","coordinates":[47.78,13.02,430]},"properties":{"stationId":"LOWS","rawText":"LOWS 021450Z 34006KT 310V040 9999 FEW070 SCT080 24/11 Q1015 NOSIG","observationTime":"2018-07-02T14:50:00Z","temp":24,"dewpoint":11,"windDirection":340,"windSpeed":11.112,"visibility":6.21,"altim":29.970472,"qualityControlFlag":"TRUE","skyCondition1a":"FEW","skyCondition1b":7000,"skyCondition2a":"SCT","skyCondition2b":8000,"flightCategory":"VFR","metarType":"METAR","geometry_esri":{"x":47.78,"y":13.02,"z":430}}}