{"type":"Feature","geometry":{"type":"Point","coordinates":[47.78,13.02,430]},"properties":{"stationId":"LOWS","rawText":"LOWS 011450Z VRB02KT 9999 FEW030 BKN044 05/04 Q1018 NOSIG","observationTime":"2018-12-01T14:50:00Z","temp":5,"dewpoint":4,"windDirection":0,"windSpeed":3.704,"visibility":6.21,"altim":30.059055,"qualityControlFlag":"TRUE","skyCondition1a":"FEW","skyCondition1b":3000,"skyCondition2a":"BKN","skyCondition2b":4400,"flightCategory":"VFR","metarType":"METAR","geometry_esri":{"x":47.78,"y":13.02,"z":430}}}