{"type":"Feature","geometry":{"type":"Point","coordinates":[47.78,13.02,430]},"properties":{"stationId":"LOWS","rawText":"LOWS 051350Z 26010KT 220V290 9999 FEW050 SCT065 BKN140 11/M02 Q1011 NOSIG","observationTime":"2019-03-05T13:50:00Z","temp":11,"dewpoint":-2,"windDirection":260,"windSpeed":18.52,"visibility":6.21,"altim":29.852362,"qualityControlFlag":"TRUE","skyCondition1a":"FEW","skyCondition1b":5000,"skyCondition2a":"SCT","skyCondition2b":6500,"flightCategory":"VFR","metarType":"METAR","geometry_esri":{"x":47.78,"y":13.02,"z":430}}}