{"type":"Feature","geometry":{"type":"Point","coordinates":[47.78,13.02,430]},"properties":{"stationId":"LOWS","rawText":"LOWS 160650Z 15006KT 9999 -RA FEW006 SCT032 BKN045 06/05 Q1002 NOSIG","observationTime":"2018-03-16T06:50:00Z","temp":6,"dewpoint":5,"windDirection":150,"windSpeed":11.112,"visibility":6.21,"altim":29.586615,"qualityControlFlag":"TRUE","skyCondition1a":"FEW","skyCondition1b":600,"skyCondition2a":"SCT","skyCondition2b":3200,"flightCategory":"VFR","metarType":"METAR","geometry_esri":{"x":47.78,"y":13.02,"z":430}}}