{"type":"Feature","geometry":{"type":"Point","coordinates":[47.78,13.02,427]},"properties":{"stationId":"LOWS","rawText":"LOWS 070550Z 16004KT 130V190 9999 FEW004 BKN080 13/12 Q1021 NOSIG","observationTime":"2020-09-07T05:50:00Z","temp":13,"dewpoint":12,"windDirection":160,"windSpeed":7.408,"visibility":6.21,"altim":30.147638,"qualityControlFlag":"TRUE","skyCondition1a":"FEW","skyCondition1b":400,"skyCondition2a":"BKN","skyCondition2b":8000,"flightCategory":"VFR","metarType":"METAR","geometry_esri":{"x":47.78,"y":13.02,"z":427}}}