{"type":"Feature","geometry":{"type":"Point","coordinates":[47.78,13.02,430]},"properties":{"stationId":"LOWS","rawText":"LOWS 060750Z 16004KT 120V180 8000 RA FEW004 SCT030 BKN040 16/15 Q1017 NOSIG","observationTime":"2018-07-06T07:50:00Z","temp":16,"dewpoint":15,"windDirection":160,"windSpeed":7.408,"visibility":4.97,"altim":30.029528,"qualityControlFlag":"TRUE","skyCondition1a":"FEW","skyCondition1b":400,"skyCondition2a":"SCT","skyCondition2b":3000,"flightCategory":"MVFR","metarType":"METAR","geometry_esri":{"x":47.78,"y":13.02,"z":430}}}