{"type":"Feature","geometry":{"type":"Point","coordinates":[47.78,13.02,430]},"properties":{"stationId":"LOWS","rawText":"LOWS 061250Z 33009KT 300V010 9999 FEW044 BKN050 22/12 Q1005 NOSIG","observationTime":"2020-06-06T12:50:00Z","temp":22,"dewpoint":12,"windDirection":330,"windSpeed":16.668,"visibility":6.21,"altim":29.675198,"qualityControlFlag":"TRUE","skyCondition1a":"FEW","skyCondition1b":4400,"skyCondition2a":"BKN","skyCondition2b":5000,"flightCategory":"VFR","metarType":"METAR","geometry_esri":{"x":47.78,"y":13.02,"z":430}}}