{"type":"Feature","geometry":{"type":"Point","coordinates":[47.78,13.02,427]},"properties":{"stationId":"LOWS","rawText":"LOWS 110950Z 32004KT 270V050 9999 FEW017 BKN068 20/16 Q1018 NOSIG","observationTime":"2020-09-11T09:50:00Z","temp":20,"dewpoint":16,"windDirection":320,"windSpeed":7.408,"visibility":6.21,"altim":30.059055,"qualityControlFlag":"TRUE","skyCondition1a":"FEW","skyCondition1b":1700,"skyCondition2a":"BKN","skyCondition2b":6800,"flightCategory":"VFR","metarType":"METAR","geometry_esri":{"x":47.78,"y":13.02,"z":427}}}