{"type":"Feature","geometry":{"type":"Point","coordinates":[47.78,13.02,430]},"properties":{"stationId":"LOWS","rawText":"LOWS 131350Z 26004KT 230V320 9999 -SHRA FEW040 BKN065 12/01 Q1006 NOSIG","observationTime":"2018-03-13T13:50:00Z","temp":12,"dewpoint":1,"windDirection":260,"windSpeed":7.408,"visibility":6.21,"altim":29.704725,"qualityControlFlag":"TRUE","skyCondition1a":"FEW","skyCondition1b":4000,"skyCondition2a":"BKN","skyCondition2b":6500,"flightCategory":"VFR","metarType":"METAR","geometry_esri":{"x":47.78,"y":13.02,"z":430}}}