{"type":"Feature","geometry":{"type":"Point","coordinates":[47.78,13.02,427]},"properties":{"stationId":"LOWS","rawText":"LOWS 080850Z 16005KT 100V180 9999 FEW050 BKN075 M01/M04 Q1015 NOSIG","observationTime":"2021-01-08T08:50:00Z","temp":-1,"dewpoint":-4,"windDirection":160,"windSpeed":9.26,"visibility":6.21,"altim":29.970472,"qualityControlFlag":"TRUE","skyCondition1a":"FEW","skyCondition1b":5000,"skyCondition2a":"BKN","skyCondition2b":7500,"flightCategory":"VFR","metarType":"METAR","geometry_esri":{"x":47.78,"y":13.02,"z":427}}}