{"type":"Feature","geometry":{"type":"Point","coordinates":[47.78,13.02,430]},"properties":{"stationId":"LOWS","rawText":"LOWS 291250Z 12003KT 090V150 9999 -SHRA FEW004 SCT024 BKN033 16/15 Q1016 NOSIG","observationTime":"2018-06-29T12:50:00Z","temp":16,"dewpoint":15,"windDirection":120,"windSpeed":5.556,"visibility":6.21,"altim":30,"qualityControlFlag":"TRUE","skyCondition1a":"FEW","skyCondition1b":400,"skyCondition2a":"SCT","skyCondition2b":2400,"flightCategory":"VFR","metarType":"METAR","geometry_esri":{"x":47.78,"y":13.02,"z":430}}}