{"type":"Feature","geometry":{"type":"Point","coordinates":[47.78,13.02,430]},"properties":{"stationId":"LOWS","rawText":"LOWS 150850Z VRB02KT 9999 FEW022 SCT090 19/14 Q1024 NOSIG","observationTime":"2018-09-15T08:50:00Z","temp":19,"dewpoint":14,"windDirection":0,"windSpeed":3.704,"visibility":6.21,"altim":30.236221,"qualityControlFlag":"TRUE","skyCondition1a":"FEW","skyCondition1b":2200,"skyCondition2a":"SCT","skyCondition2b":9000,"flightCategory":"VFR","metarType":"METAR","geometry_esri":{"x":47.78,"y":13.02,"z":430}}}