{"type":"Feature","geometry":{"type":"Point","coordinates":[47.78,13.02,430]},"properties":{"stationId":"LOWS","rawText":"LOWS 232250Z VRB02KT 9000 FEW004 BKN006 M05/M05 Q1026 NOSIG","observationTime":"2020-01-23T22:50:00Z","temp":-5,"dewpoint":-5,"windDirection":0,"windSpeed":3.704,"visibility":5.59,"altim":30.295275,"qualityControlFlag":"TRUE","skyCondition1a":"FEW","skyCondition1b":400,"skyCondition2a":"BKN","skyCondition2b":600,"flightCategory":"IFR","metarType":"METAR","geometry_esri":{"x":47.78,"y":13.02,"z":430}}}