{"type":"Feature","geometry":{"type":"Point","coordinates":[47.78,13.02,430]},"properties":{"stationId":"LOWS","rawText":"LOWS 151050Z 30009KT 280V340 9999 FEW016 SCT028 BKN070 19/15 Q1024 NOSIG","observationTime":"2018-09-15T10:50:00Z","temp":19,"dewpoint":15,"windDirection":300,"windSpeed":16.668,"visibility":6.21,"altim":30.236221,"qualityControlFlag":"TRUE","skyCondition1a":"FEW","skyCondition1b":1600,"skyCondition2a":"SCT","skyCondition2b":2800,"flightCategory":"VFR","metarType":"METAR","geometry_esri":{"x":47.78,"y":13.02,"z":430}}}