{"type":"Feature","geometry":{"type":"Point","coordinates":[47.78,13.02,430]},"properties":{"stationId":"LOWS","rawText":"LOWS 291250Z 22008KT 190V260 9999 -RA FEW010 SCT035 BKN045 10/08 Q1011 NOSIG","observationTime":"2020-04-29T12:50:00Z","temp":10,"dewpoint":8,"windDirection":220,"windSpeed":14.816,"visibility":6.21,"altim":29.852362,"qualityControlFlag":"TRUE","skyCondition1a":"FEW","skyCondition1b":1000,"skyCondition2a":"SCT","skyCondition2b":3500,"flightCategory":"VFR","metarType":"METAR","geometry_esri":{"x":47.78,"y":13.02,"z":430}}}