{"type":"Feature","geometry":{"type":"Point","coordinates":[47.78,13.02,430]},"properties":{"stationId":"LOWS","rawText":"LOWS 310650Z 14003KT 9999 -RA FEW009 SCT023 BKN030 05/04 Q0999 RERA NOSIG","observationTime":"2018-03-31T06:50:00Z","temp":5,"dewpoint":4,"windDirection":140,"windSpeed":5.556,"visibility":6.21,"altim":29.498032,"qualityControlFlag":"TRUE","skyCondition1a":"FEW","skyCondition1b":900,"skyCondition2a":"SCT","skyCondition2b":2300,"flightCategory":"MVFR","metarType":"METAR","geometry_esri":{"x":47.78,"y":13.02,"z":430}}}