{"type":"Feature","geometry":{"type":"Point","coordinates":[47.78,13.02,427]},"properties":{"stationId":"LOWS","rawText":"LOWS 160950Z 23007KT 9999 FEW010 SCT022 BKN060 M03/M05 Q1025 R15/450195 NOSIG","observationTime":"2021-01-16T09:50:00Z","temp":-3,"dewpoint":-5,"windDirection":230,"windSpeed":12.964,"visibility":6.21,"altim":30.265747,"qualityControlFlag":"TRUE","skyCondition1a":"FEW","skyCondition1b":1000,"skyCondition2a":"SCT","skyCondition2b":2200,"flightCategory":"VFR","metarType":"METAR","geometry_esri":{"x":47.78,"y":13.02,"z":427}}}