{"type":"Feature","geometry":{"type":"Point","coordinates":[47.78,13.02,430]},"properties":{"stationId":"LOWS","rawText":"LOWS 030850Z 27006KT 220V310 7000 -RA FEW006 SCT012 BKN017 01/00 Q1006 R15/29//95 NOSIG","observationTime":"2019-02-03T08:50:00Z","temp":1,"dewpoint":0,"windDirection":270,"windSpeed":11.112,"visibility":4.35,"altim":29.704725,"qualityControlFlag":"TRUE","skyCondition1a":"FEW","skyCondition1b":600,"skyCondition2a":"SCT","skyCondition2b":1200,"flightCategory":"MVFR","metarType":"METAR","geometry_esri":{"x":47.78,"y":13.02,"z":430}}}