{"type":"Feature","geometry":{"type":"Point","coordinates":[47.78,13.02,430]},"properties":{"stationId":"LOWS","rawText":"LOWS 211250Z 14011KT 9999 -RA FEW055 BKN070 06/M02 Q1014 NOSIG","observationTime":"2018-12-21T12:50:00Z","temp":6,"dewpoint":-2,"windDirection":140,"windSpeed":20.372,"visibility":6.21,"altim":29.940945,"qualityControlFlag":"TRUE","skyCondition1a":"FEW","skyCondition1b":5500,"skyCondition2a":"BKN","skyCondition2b":7000,"flightCategory":"VFR","metarType":"METAR","geometry_esri":{"x":47.78,"y":13.02,"z":430}}}