{"type":"Feature","geometry":{"type":"Point","coordinates":[47.78,13.02,430]},"properties":{"stationId":"LOWS","rawText":"LOWS 081250Z 35009KT 320V020 9999 FEW011 BKN012 06/04 Q1001 NOSIG","observationTime":"2019-11-08T12:50:00Z","temp":6,"dewpoint":4,"windDirection":350,"windSpeed":16.668,"visibility":6.21,"altim":29.557087,"qualityControlFlag":"TRUE","skyCondition1a":"FEW","skyCondition1b":1100,"skyCondition2a":"BKN","skyCondition2b":1200,"flightCategory":"MVFR","metarType":"METAR","geometry_esri":{"x":47.78,"y":13.02,"z":430}}}