{"type":"Feature","geometry":{"type":"Point","coordinates":[47.78,13.02,430]},"properties":{"stationId":"LOWS","rawText":"LOWS 011550Z 28004KT 9999 SCT060 BKN140 01/M01 Q1015 NOSIG","observationTime":"2019-12-01T15:50:00Z","temp":1,"dewpoint":-1,"windDirection":280,"windSpeed":7.408,"visibility":6.21,"altim":29.970472,"qualityControlFlag":"TRUE","skyCondition1a":"SCT","skyCondition1b":6000,"skyCondition2a":"BKN","skyCondition2b":14000,"flightCategory":"VFR","metarType":"METAR","geometry_esri":{"x":47.78,"y":13.02,"z":430}}}