{"type":"Feature","geometry":{"type":"Point","coordinates":[47.78,13.02,430]},"properties":{"stationId":"LOWS","rawText":"LOWS 081350Z 26008KT 230V290 9999 FEW060 SCT070 BKN130 10/M03 Q1012 NOSIG","observationTime":"2018-12-08T13:50:00Z","temp":10,"dewpoint":-3,"windDirection":260,"windSpeed":14.816,"visibility":6.21,"altim":29.88189,"qualityControlFlag":"TRUE","skyCondition1a":"FEW","skyCondition1b":6000,"skyCondition2a":"SCT","skyCondition2b":7000,"flightCategory":"VFR","metarType":"METAR","geometry_esri":{"x":47.78,"y":13.02,"z":430}}}