{"type":"Feature","geometry":{"type":"Point","coordinates":[47.78,13.02,430]},"properties":{"stationId":"LOWS","rawText":"LOWS 301350Z 01007KT 330V040 9999 FEW060 BKN250 14/06 Q1001 NOSIG","observationTime":"2018-03-30T13:50:00Z","temp":14,"dewpoint":6,"windDirection":10,"windSpeed":12.964,"visibility":6.21,"altim":29.557087,"qualityControlFlag":"TRUE","skyCondition1a":"FEW","skyCondition1b":6000,"skyCondition2a":"BKN","skyCondition2b":25000,"flightCategory":"VFR","metarType":"METAR","geometry_esri":{"x":47.78,"y":13.02,"z":430}}}