{"type":"Feature","geometry":{"type":"Point","coordinates":[47.78,13.02,430]},"properties":{"stationId":"LOWS","rawText":"LOWS 120850Z VRB04KT 9999 FEW027 BKN050 06/M00 Q1018 NOSIG","observationTime":"2019-04-12T08:50:00Z","temp":6,"dewpoint":0,"windDirection":0,"windSpeed":7.408,"visibility":6.21,"altim":30.059055,"qualityControlFlag":"TRUE","skyCondition1a":"FEW","skyCondition1b":2700,"skyCondition2a":"BKN","skyCondition2b":5000,"flightCategory":"VFR","metarType":"METAR","geometry_esri":{"x":47.78,"y":13.02,"z":430}}}