{"type":"Feature","geometry":{"type":"Point","coordinates":[47.78,13.02,430]},"properties":{"stationId":"LOWS","rawText":"LOWS 141550Z 23004KT 9999 FEW029 SCT040 BKN055 06/03 Q1024 NOSIG","observationTime":"2020-02-14T15:50:00Z","temp":6,"dewpoint":3,"windDirection":230,"windSpeed":7.408,"visibility":6.21,"altim":30.236221,"qualityControlFlag":"TRUE","skyCondition1a":"FEW","skyCondition1b":2900,"skyCondition2a":"SCT","skyCondition2b":4000,"flightCategory":"VFR","metarType":"METAR","geometry_esri":{"x":47.78,"y":13.02,"z":430}}}