{"type":"Feature","geometry":{"type":"Point","coordinates":[47.78,13.02,427]},"properties":{"stationId":"LOWS","rawText":"LOWS 070950Z 28008KT 240V320 9999 -SHRA FEW032 SCT042 BKN050 12/08 Q1015 NOSIG","observationTime":"2020-10-07T09:50:00Z","temp":12,"dewpoint":8,"windDirection":280,"windSpeed":14.816,"visibility":6.21,"altim":29.970472,"qualityControlFlag":"TRUE","skyCondition1a":"FEW","skyCondition1b":3200,"skyCondition2a":"SCT","skyCondition2b":4200,"flightCategory":"VFR","metarType":"METAR","geometry_esri":{"x":47.78,"y":13.02,"z":427}}}