{"type":"Feature","geometry":{"type":"Point","coordinates":[47.78,13.02,430]},"properties":{"stationId":"LOWS","rawText":"LOWS 150750Z 24003KT 8000 RA FEW005 SCT024 BKN036 14/13 Q1016 NOSIG","observationTime":"2020-06-15T07:50:00Z","temp":14,"dewpoint":13,"windDirection":240,"windSpeed":5.556,"visibility":4.97,"altim":30,"qualityControlFlag":"TRUE","skyCondition1a":"FEW","skyCondition1b":500,"skyCondition2a":"SCT","skyCondition2b":2400,"flightCategory":"MVFR","metarType":"METAR","geometry_esri":{"x":47.78,"y":13.02,"z":430}}}