{"type":"Feature","geometry":{"type":"Point","coordinates":[47.78,13.02,430]},"properties":{"stationId":"LOWS","rawText":"LOWS 281250Z 36004KT 330V030 9999 VCSH FEW022 SCT040 BKN090 22/16 Q1001 NOSIG","observationTime":"2019-07-28T12:50:00Z","temp":22,"dewpoint":16,"windDirection":360,"windSpeed":7.408,"visibility":6.21,"altim":29.557087,"qualityControlFlag":"TRUE","skyCondition1a":"FEW","skyCondition1b":2200,"skyCondition2a":"SCT","skyCondition2b":4000,"flightCategory":"VFR","metarType":"METAR","geometry_esri":{"x":47.78,"y":13.02,"z":430}}}