{"type":"Feature","geometry":{"type":"Point","coordinates":[47.78,13.02,430]},"properties":{"stationId":"LOWS","rawText":"LOWS 081150Z 05006KT 9999 FEW090 BKN120 19/02 Q1006 NOSIG","observationTime":"2019-05-08T11:50:00Z","temp":19,"dewpoint":2,"windDirection":50,"windSpeed":11.112,"visibility":6.21,"altim":29.704725,"qualityControlFlag":"TRUE","skyCondition1a":"FEW","skyCondition1b":9000,"skyCondition2a":"BKN","skyCondition2b":12000,"flightCategory":"VFR","metarType":"METAR","geometry_esri":{"x":47.78,"y":13.02,"z":430}}}