{"type":"Feature","geometry":{"type":"Point","coordinates":[47.78,13.02,427]},"properties":{"stationId":"LOWS","rawText":"LOWS 121250Z 21006KT 180V240 9999 FEW026 SCT042 BKN060 08/03 Q1019 NOSIG","observationTime":"2020-10-12T12:50:00Z","temp":8,"dewpoint":3,"windDirection":210,"windSpeed":11.112,"visibility":6.21,"altim":30.088583,"qualityControlFlag":"TRUE","skyCondition1a":"FEW","skyCondition1b":2600,"skyCondition2a":"SCT","skyCondition2b":4200,"flightCategory":"VFR","metarType":"METAR","geometry_esri":{"x":47.78,"y":13.02,"z":427}}}