{"type":"Feature","geometry":{"type":"Point","coordinates":[47.78,13.02,430]},"properties":{"stationId":"LOWS","rawText":"LOWS 251250Z 30003KT 1600 BR SCT002 BKN003 05/04 Q1009 NOSIG","observationTime":"2019-11-25T12:50:00Z","temp":5,"dewpoint":4,"windDirection":300,"windSpeed":5.556,"visibility":0.99,"altim":29.793306,"qualityControlFlag":"TRUE","skyCondition1a":"SCT","skyCondition1b":200,"skyCondition2a":"BKN","skyCondition2b":300,"flightCategory":"LIFR","metarType":"METAR","geometry_esri":{"x":47.78,"y":13.02,"z":430}}}