{"type":"Feature","geometry":{"type":"Point","coordinates":[47.78,13.02,427]},"properties":{"stationId":"LOWS","rawText":"LOWS 260750Z 27007KT 240V330 9999 -RA FEW010 SCT020 BKN026 06/05 Q1000 NOSIG","observationTime":"2020-09-26T07:50:00Z","temp":6,"dewpoint":5,"windDirection":270,"windSpeed":12.964,"visibility":6.21,"altim":29.52756,"qualityControlFlag":"TRUE","skyCondition1a":"FEW","skyCondition1b":1000,"skyCondition2a":"SCT","skyCondition2b":2000,"flightCategory":"MVFR","metarType":"METAR","geometry_esri":{"x":47.78,"y":13.02,"z":427}}}