{"type":"Feature","geometry":{"type":"Point","coordinates":[47.78,13.02,430]},"properties":{"stationId":"LOWS","rawText":"LOWS 292050Z 27009KT 250V310 9999 FEW010 SCT028 BKN042 02/M00 Q1016 NOSIG","observationTime":"2020-01-29T20:50:00Z","temp":2,"dewpoint":0,"windDirection":270,"windSpeed":16.668,"visibility":6.21,"altim":30,"qualityControlFlag":"TRUE","skyCondition1a":"FEW","skyCondition1b":1000,"skyCondition2a":"SCT","skyCondition2b":2800,"flightCategory":"VFR","metarType":"METAR","geometry_esri":{"x":47.78,"y":13.02,"z":430}}}