{"type":"Feature","geometry":{"type":"Point","coordinates":[47.78,13.02,430]},"properties":{"stationId":"LOWS","rawText":"LOWS 031150Z 29011KT 9999 VCSH FEW026 SCT034 BKN044 14/08 Q1025 NOSIG","observationTime":"2018-10-03T11:50:00Z","temp":14,"dewpoint":8,"windDirection":290,"windSpeed":20.372,"visibility":6.21,"altim":30.265747,"qualityControlFlag":"TRUE","skyCondition1a":"FEW","skyCondition1b":2600,"skyCondition2a":"SCT","skyCondition2b":3400,"flightCategory":"VFR","metarType":"METAR","geometry_esri":{"x":47.78,"y":13.02,"z":430}}}