{"type":"Feature","geometry":{"type":"Point","coordinates":[47.78,13.02,430]},"properties":{"stationId":"LOWS","rawText":"LOWS 051550Z 03006KT 010V070 9999 -SHRA FEW022 BKN100 18/13 Q1020 NOSIG","observationTime":"2018-05-05T15:50:00Z","temp":18,"dewpoint":13,"windDirection":30,"windSpeed":11.112,"visibility":6.21,"altim":30.11811,"qualityControlFlag":"TRUE","skyCondition1a":"FEW","skyCondition1b":2200,"skyCondition2a":"BKN","skyCondition2b":10000,"flightCategory":"VFR","metarType":"METAR","geometry_esri":{"x":47.78,"y":13.02,"z":430}}}