{"type":"Feature","geometry":{"type":"Point","coordinates":[47.78,13.02,430]},"properties":{"stationId":"LOWS","rawText":"LOWS 191450Z 17003KT 130V230 9999 FEW002 SCT028 BKN042 00/M00 Q1035 R15/290195 NOSIG","observationTime":"2020-01-19T14:50:00Z","temp":0,"dewpoint":0,"windDirection":170,"windSpeed":5.556,"visibility":6.21,"altim":30.561024,"qualityControlFlag":"TRUE","skyCondition1a":"FEW","skyCondition1b":200,"skyCondition2a":"SCT","skyCondition2b":2800,"flightCategory":"VFR","metarType":"METAR","geometry_esri":{"x":47.78,"y":13.02,"z":430}}}