{"type":"Feature","geometry":{"type":"Point","coordinates":[47.78,13.02,430]},"properties":{"stationId":"LOWS","rawText":"LOWS 251350Z 31004KT 260V010 9999 FEW025 SCT032 BKN065 16/10 Q1023 NOSIG","observationTime":"2018-06-25T13:50:00Z","temp":16,"dewpoint":10,"windDirection":310,"windSpeed":7.408,"visibility":6.21,"altim":30.206694,"qualityControlFlag":"TRUE","skyCondition1a":"FEW","skyCondition1b":2500,"skyCondition2a":"SCT","skyCondition2b":3200,"flightCategory":"VFR","metarType":"METAR","geometry_esri":{"x":47.78,"y":13.02,"z":430}}}