{"type":"Feature","geometry":{"type":"Point","coordinates":[47.78,13.02,430]},"properties":{"stationId":"LOWS","rawText":"LOWS 192050Z VRB02KT 9999 FEW022 BKN028 04/02 Q1017 NOSIG","observationTime":"2019-11-19T20:50:00Z","temp":4,"dewpoint":2,"windDirection":0,"windSpeed":3.704,"visibility":6.21,"altim":30.029528,"qualityControlFlag":"TRUE","skyCondition1a":"FEW","skyCondition1b":2200,"skyCondition2a":"BKN","skyCondition2b":2800,"flightCategory":"MVFR","metarType":"METAR","geometry_esri":{"x":47.78,"y":13.02,"z":430}}}