{"type":"Feature","geometry":{"type":"Point","coordinates":[47.78,13.02,427]},"properties":{"stationId":"LOWS","rawText":"LOWS 051750Z 19006KT 130V220 9999 FEW090 BKN120 10/08 Q1011 NOSIG","observationTime":"2020-10-05T17:50:00Z","temp":10,"dewpoint":8,"windDirection":190,"windSpeed":11.112,"visibility":6.21,"altim":29.852362,"qualityControlFlag":"TRUE","skyCondition1a":"FEW","skyCondition1b":9000,"skyCondition2a":"BKN","skyCondition2b":12000,"flightCategory":"VFR","metarType":"METAR","geometry_esri":{"x":47.78,"y":13.02,"z":427}}}