{"type":"Feature","geometry":{"type":"Point","coordinates":[47.78,13.02,430]},"properties":{"stationId":"LOWS","rawText":"LOWS 061150Z VRB01KT 3200 -RA BR FEW005 SCT008 BKN017 02/01 Q0990 NOSIG","observationTime":"2018-03-06T11:50:00Z","temp":2,"dewpoint":1,"windDirection":0,"windSpeed":1.852,"visibility":1.99,"altim":29.232283,"qualityControlFlag":"TRUE","skyCondition1a":"FEW","skyCondition1b":500,"skyCondition2a":"SCT","skyCondition2b":800,"flightCategory":"IFR","metarType":"METAR","geometry_esri":{"x":47.78,"y":13.02,"z":430}}}