{"type":"Feature","geometry":{"type":"Point","coordinates":[47.78,13.02,430]},"properties":{"stationId":"LOWS","rawText":"LOWS 111450Z 15008KT 9999 FEW030 FEW030CB SCT045 BKN100 18/13 Q1015 NOSIG","observationTime":"2018-07-11T14:50:00Z","temp":18,"dewpoint":13,"windDirection":150,"windSpeed":14.816,"visibility":6.21,"altim":29.970472,"qualityControlFlag":"TRUE","skyCondition1a":"FEW","skyCondition1b":3000,"skyCondition2a":"FEW","skyCondition2b":3000,"flightCategory":"VFR","metarType":"METAR","geometry_esri":{"x":47.78,"y":13.02,"z":430}}}