{"type":"Feature","geometry":{"type":"Point","coordinates":[47.78,13.02,430]},"properties":{"stationId":"LOWS","rawText":"LOWS 061620Z 32008KT 9999 FEW035 SCT050 BKN065 08/M00 Q1001 NOSIG","observationTime":"2020-03-06T16:20:00Z","temp":8,"dewpoint":0,"windDirection":320,"windSpeed":14.816,"visibility":6.21,"altim":29.557087,"qualityControlFlag":"TRUE","skyCondition1a":"FEW","skyCondition1b":3500,"skyCondition2a":"SCT","skyCondition2b":5000,"flightCategory":"VFR","metarType":"METAR","geometry_esri":{"x":47.78,"y":13.02,"z":430}}}