{"type":"Feature","geometry":{"type":"Point","coordinates":[47.78,13.02,430]},"properties":{"stationId":"LOWS","rawText":"LOWS 192050Z VRB01KT 9999 FEW012 SCT022 BKN045 M00/M00 Q1039 R15/290195 NOSIG","observationTime":"2020-01-19T20:50:00Z","temp":0,"dewpoint":0,"windDirection":0,"windSpeed":1.852,"visibility":6.21,"altim":30.679134,"qualityControlFlag":"TRUE","skyCondition1a":"FEW","skyCondition1b":1200,"skyCondition2a":"SCT","skyCondition2b":2200,"flightCategory":"VFR","metarType":"SPECI","geometry_esri":{"x":47.78,"y":13.02,"z":430}}}