{"type":"Feature","geometry":{"type":"Point","coordinates":[47.78,13.02,430]},"properties":{"stationId":"LOWS","rawText":"LOWS 280950Z 30005KT 260V330 9000 -DZ FEW004 SCT007 BKN010 06/05 Q1004 NOSIG","observationTime":"2018-10-28T09:50:00Z","temp":6,"dewpoint":5,"windDirection":300,"windSpeed":9.26,"visibility":5.59,"altim":29.64567,"qualityControlFlag":"TRUE","skyCondition1a":"FEW","skyCondition1b":400,"skyCondition2a":"SCT","skyCondition2b":700,"flightCategory":"MVFR","metarType":"METAR","geometry_esri":{"x":47.78,"y":13.02,"z":430}}}