{"type":"Feature","geometry":{"type":"Point","coordinates":[47.78,13.02,430]},"properties":{"stationId":"LOWS","rawText":"LOWS 201050Z VRB02KT 7000 FEW025 BKN050 14/10 Q1028 NOSIG","observationTime":"2018-10-20T10:50:00Z","temp":14,"dewpoint":10,"windDirection":0,"windSpeed":3.704,"visibility":4.35,"altim":30.35433,"qualityControlFlag":"TRUE","skyCondition1a":"FEW","skyCondition1b":2500,"skyCondition2a":"BKN","skyCondition2b":5000,"flightCategory":"MVFR","metarType":"METAR","geometry_esri":{"x":47.78,"y":13.02,"z":430}}}