{"type":"Feature","geometry":{"type":"Point","coordinates":[47.78,13.02,430]},"properties":{"stationId":"LOWS","rawText":"LOWS 211050Z 03007KT 360V080 9999 FEW060 SCT070 23/09 Q1014 NOSIG","observationTime":"2018-05-21T10:50:00Z","temp":23,"dewpoint":9,"windDirection":30,"windSpeed":12.964,"visibility":6.21,"altim":29.940945,"qualityControlFlag":"TRUE","skyCondition1a":"FEW","skyCondition1b":6000,"skyCondition2a":"SCT","skyCondition2b":7000,"flightCategory":"VFR","metarType":"METAR","geometry_esri":{"x":47.78,"y":13.02,"z":430}}}