{"type":"Feature","geometry":{"type":"Point","coordinates":[47.78,13.02,430]},"properties":{"stationId":"LOWS","rawText":"LOWS 031450Z 16005KT 130V190 9999 FEW130 BKN180 BKN300 21/05 Q1006 NOSIG","observationTime":"2018-04-03T14:50:00Z","temp":21,"dewpoint":5,"windDirection":160,"windSpeed":9.26,"visibility":6.21,"altim":29.704725,"qualityControlFlag":"TRUE","skyCondition1a":"FEW","skyCondition1b":13000,"skyCondition2a":"BKN","skyCondition2b":18000,"flightCategory":"VFR","metarType":"METAR","geometry_esri":{"x":47.78,"y":13.02,"z":430}}}