{"type":"Feature","geometry":{"type":"Point","coordinates":[47.78,13.02,430]},"properties":{"stationId":"LOWS","rawText":"LOWS 161250Z 16007KT 9999 -SHSN FEW012 SCT030 BKN040 M01/M04 Q1013 R15/490195 NOSIG","observationTime":"2018-12-16T12:50:00Z","temp":-1,"dewpoint":-4,"windDirection":160,"windSpeed":12.964,"visibility":6.21,"altim":29.911417,"qualityControlFlag":"TRUE","skyCondition1a":"FEW","skyCondition1b":1200,"skyCondition2a":"SCT","skyCondition2b":3000,"flightCategory":"VFR","metarType":"METAR","geometry_esri":{"x":47.78,"y":13.02,"z":430}}}