{"type":"Feature","geometry":{"type":"Point","coordinates":[47.78,13.02,427]},"properties":{"stationId":"LOWS","rawText":"LOWS 110450Z VRB01KT 8000 MIFG FEW004 SCT070 13/13 Q1018 NOSIG","observationTime":"2020-09-11T04:50:00Z","temp":13,"dewpoint":13,"windDirection":0,"windSpeed":1.852,"visibility":4.97,"altim":30.059055,"qualityControlFlag":"TRUE","skyCondition1a":"FEW","skyCondition1b":400,"skyCondition2a":"SCT","skyCondition2b":7000,"flightCategory":"MVFR","metarType":"METAR","geometry_esri":{"x":47.78,"y":13.02,"z":427}}}