{"type":"Feature","geometry":{"type":"Point","coordinates":[47.78,13.02,430]},"properties":{"stationId":"LOWS","rawText":"LOWS 022050Z 16003KT 6000 FEW010 BKN034 08/07 Q1025 NOSIG","observationTime":"2018-11-02T20:50:00Z","temp":8,"dewpoint":7,"windDirection":160,"windSpeed":5.556,"visibility":3.73,"altim":30.265747,"qualityControlFlag":"TRUE","skyCondition1a":"FEW","skyCondition1b":1000,"skyCondition2a":"BKN","skyCondition2b":3400,"flightCategory":"MVFR","metarType":"METAR","geometry_esri":{"x":47.78,"y":13.02,"z":430}}}