{"type":"Feature","geometry":{"type":"Point","coordinates":[47.78,13.02,430]},"properties":{"stationId":"LOWS","rawText":"LOWS 301150Z 02006KT 9999 FEW010 SCT018 BKN025 01/M03 Q1023 NOSIG","observationTime":"2020-03-30T11:50:00Z","temp":1,"dewpoint":-3,"windDirection":20,"windSpeed":11.112,"visibility":6.21,"altim":30.206694,"qualityControlFlag":"TRUE","skyCondition1a":"FEW","skyCondition1b":1000,"skyCondition2a":"SCT","skyCondition2b":1800,"flightCategory":"MVFR","metarType":"METAR","geometry_esri":{"x":47.78,"y":13.02,"z":430}}}