{"type":"Feature","geometry":{"type":"Point","coordinates":[47.78,13.02,430]},"properties":{"stationId":"LOWS","rawText":"LOWS 281650Z 24006KT 200V340 9999 -RA FEW036 SCT044 BKN060 09/02 Q1018 NOSIG","observationTime":"2019-04-28T16:50:00Z","temp":9,"dewpoint":2,"windDirection":240,"windSpeed":11.112,"visibility":6.21,"altim":30.059055,"qualityControlFlag":"TRUE","skyCondition1a":"FEW","skyCondition1b":3600,"skyCondition2a":"SCT","skyCondition2b":4400,"flightCategory":"VFR","metarType":"METAR","geometry_esri":{"x":47.78,"y":13.02,"z":430}}}