{"type":"Feature","geometry":{"type":"Point","coordinates":[47.78,13.02,430]},"properties":{"stationId":"LOWS","rawText":"LOWS 090550Z 33003KT 270V050 9999 SCT008 BKN022 14/12 Q1014 NOSIG","observationTime":"2019-10-09T05:50:00Z","temp":14,"dewpoint":12,"windDirection":330,"windSpeed":5.556,"visibility":6.21,"altim":29.940945,"qualityControlFlag":"TRUE","skyCondition1a":"SCT","skyCondition1b":800,"skyCondition2a":"BKN","skyCondition2b":2200,"flightCategory":"MVFR","metarType":"METAR","geometry_esri":{"x":47.78,"y":13.02,"z":430}}}