{"type":"Feature","geometry":{"type":"Point","coordinates":[47.78,13.02,430]},"properties":{"stationId":"LOWS","rawText":"LOWS 190350Z 14004KT 110V180 9999 FEW045 SCT067 15/12 Q1024 NOSIG","observationTime":"2018-06-19T03:50:00Z","temp":15,"dewpoint":12,"windDirection":140,"windSpeed":7.408,"visibility":6.21,"altim":30.236221,"qualityControlFlag":"TRUE","skyCondition1a":"FEW","skyCondition1b":4500,"skyCondition2a":"SCT","skyCondition2b":6700,"flightCategory":"VFR","metarType":"METAR","geometry_esri":{"x":47.78,"y":13.02,"z":430}}}