{"type":"Feature","geometry":{"type":"Point","coordinates":[47.78,13.02,430]},"properties":{"stationId":"LOWS","rawText":"LOWS 120650Z VRB01KT 2500 SN FEW004 SCT008 BKN014 00/M01 Q1021 NOSIG","observationTime":"2018-12-12T06:50:00Z","temp":0,"dewpoint":-1,"windDirection":0,"windSpeed":1.852,"visibility":1.55,"altim":30.147638,"qualityControlFlag":"TRUE","skyCondition1a":"FEW","skyCondition1b":400,"skyCondition2a":"SCT","skyCondition2b":800,"flightCategory":"IFR","metarType":"METAR","geometry_esri":{"x":47.78,"y":13.02,"z":430}}}