{"type":"Feature","geometry":{"type":"Point","coordinates":[47.78,13.02,427]},"properties":{"stationId":"LOWS","rawText":"LOWS 070950Z 14003KT 9999 FEW018 SCT028 BKN043 00/M02 Q1014 R15/19//95 NOSIG","observationTime":"2021-01-07T09:50:00Z","temp":0,"dewpoint":-2,"windDirection":140,"windSpeed":5.556,"visibility":6.21,"altim":29.940945,"qualityControlFlag":"TRUE","skyCondition1a":"FEW","skyCondition1b":1800,"skyCondition2a":"SCT","skyCondition2b":2800,"flightCategory":"VFR","metarType":"METAR","geometry_esri":{"x":47.78,"y":13.02,"z":427}}}