{"type":"Feature","geometry":{"type":"Point","coordinates":[47.78,13.02,430]},"properties":{"stationId":"LOWS","rawText":"LOWS 021550Z 33007KT 8000 FEW032 BKN100 M03/M08 Q0997 NOSIG","observationTime":"2018-03-02T15:50:00Z","temp":-3,"dewpoint":-8,"windDirection":330,"windSpeed":12.964,"visibility":4.97,"altim":29.438976,"qualityControlFlag":"TRUE","skyCondition1a":"FEW","skyCondition1b":3200,"skyCondition2a":"BKN","skyCondition2b":10000,"flightCategory":"MVFR","metarType":"METAR","geometry_esri":{"x":47.78,"y":13.02,"z":430}}}