{"type":"Feature","geometry":{"type":"Point","coordinates":[47.78,13.02,430]},"properties":{"stationId":"LOWS","rawText":"LOWS 101250Z 15009KT 110V170 9999 FEW030 SCT055 BKN070 08/06 Q1008 NOSIG","observationTime":"2019-03-10T12:50:00Z","temp":8,"dewpoint":6,"windDirection":150,"windSpeed":16.668,"visibility":6.21,"altim":29.763779,"qualityControlFlag":"TRUE","skyCondition1a":"FEW","skyCondition1b":3000,"skyCondition2a":"SCT","skyCondition2b":5500,"flightCategory":"VFR","metarType":"METAR","geometry_esri":{"x":47.78,"y":13.02,"z":430}}}