{"type":"Feature","geometry":{"type":"Point","coordinates":[47.78,13.02,430]},"properties":{"stationId":"LOWS","rawText":"LOWS 100950Z VRB02KT 9999 FEW030 SCT090 24/17 Q1013 NOSIG","observationTime":"2018-06-10T09:50:00Z","temp":24,"dewpoint":17,"windDirection":0,"windSpeed":3.704,"visibility":6.21,"altim":29.911417,"qualityControlFlag":"TRUE","skyCondition1a":"FEW","skyCondition1b":3000,"skyCondition2a":"SCT","skyCondition2b":9000,"flightCategory":"VFR","metarType":"METAR","geometry_esri":{"x":47.78,"y":13.02,"z":430}}}