{"type":"Feature","geometry":{"type":"Point","coordinates":[47.78,13.02,430]},"properties":{"stationId":"LOWS","rawText":"LOWS 130450Z 29017G29KT 9999 -RA FEW040 BKN050 08/02 Q1011 NOSIG","observationTime":"2019-03-13T04:50:00Z","temp":8,"dewpoint":2,"windDirection":290,"windSpeed":31.484,"visibility":6.21,"altim":29.852362,"qualityControlFlag":"TRUE","skyCondition1a":"FEW","skyCondition1b":4000,"skyCondition2a":"BKN","skyCondition2b":5000,"flightCategory":"VFR","metarType":"METAR","geometry_esri":{"x":47.78,"y":13.02,"z":430}}}