{"type":"Feature","geometry":{"type":"Point","coordinates":[47.78,13.02,430]},"properties":{"stationId":"LOWS","rawText":"LOWS 190850Z 14004KT 100V180 9999 FEW070 SCT140 20/15 Q1023 NOSIG","observationTime":"2018-09-19T08:50:00Z","temp":20,"dewpoint":15,"windDirection":140,"windSpeed":7.408,"visibility":6.21,"altim":30.206694,"qualityControlFlag":"TRUE","skyCondition1a":"FEW","skyCondition1b":7000,"skyCondition2a":"SCT","skyCondition2b":14000,"flightCategory":"VFR","metarType":"METAR","geometry_esri":{"x":47.78,"y":13.02,"z":430}}}