{"type":"Feature","geometry":{"type":"Point","coordinates":[47.78,13.02,430]},"properties":{"stationId":"LOWS","rawText":"LOWS 031250Z 02008KT 9000 FEW028 BKN300 03/M02 Q0994 NOSIG","observationTime":"2018-03-03T12:50:00Z","temp":3,"dewpoint":-2,"windDirection":20,"windSpeed":14.816,"visibility":5.59,"altim":29.350393,"qualityControlFlag":"TRUE","skyCondition1a":"FEW","skyCondition1b":2800,"skyCondition2a":"BKN","skyCondition2b":30000,"flightCategory":"VFR","metarType":"METAR","geometry_esri":{"x":47.78,"y":13.02,"z":430}}}