{"type":"Feature","geometry":{"type":"Point","coordinates":[47.78,13.02,430]},"properties":{"stationId":"LOWS","rawText":"LOWS 152050Z 31005KT 290V360 9999 FEW050 BKN090 07/04 Q0997 NOSIG","observationTime":"2018-03-15T20:50:00Z","temp":7,"dewpoint":4,"windDirection":310,"windSpeed":9.26,"visibility":6.21,"altim":29.438976,"qualityControlFlag":"TRUE","skyCondition1a":"FEW","skyCondition1b":5000,"skyCondition2a":"BKN","skyCondition2b":9000,"flightCategory":"VFR","metarType":"METAR","geometry_esri":{"x":47.78,"y":13.02,"z":430}}}