{"type":"Feature","geometry":{"type":"Point","coordinates":[47.78,13.02,430]},"properties":{"stationId":"LOWS","rawText":"LOWS 192020Z 24003KT 9999 FEW038 SCT046 BKN070 02/M01 Q1025 NOSIG","observationTime":"2020-02-19T20:20:00Z","temp":2,"dewpoint":-1,"windDirection":240,"windSpeed":5.556,"visibility":6.21,"altim":30.265747,"qualityControlFlag":"TRUE","skyCondition1a":"FEW","skyCondition1b":3800,"skyCondition2a":"SCT","skyCondition2b":4600,"flightCategory":"VFR","metarType":"METAR","geometry_esri":{"x":47.78,"y":13.02,"z":430}}}