{"type":"Feature","geometry":{"type":"Point","coordinates":[47.78,13.02,430]},"properties":{"stationId":"LOWS","rawText":"LOWS 110650Z VRB01KT 9999 FEW022 SCT035 11/07 Q1008 NOSIG","observationTime":"2018-04-11T06:50:00Z","temp":11,"dewpoint":7,"windDirection":0,"windSpeed":1.852,"visibility":6.21,"altim":29.763779,"qualityControlFlag":"TRUE","skyCondition1a":"FEW","skyCondition1b":2200,"skyCondition2a":"SCT","skyCondition2b":3500,"flightCategory":"VFR","metarType":"METAR","geometry_esri":{"x":47.78,"y":13.02,"z":430}}}