{"type":"Feature","geometry":{"type":"Point","coordinates":[47.78,13.02,430]},"properties":{"stationId":"LOWS","rawText":"LOWS 210450Z 13002KT 0350 R15/0550N R33/0400N FZFG FEW001 BKN002 M02/M02 Q1012 NOSIG","observationTime":"2018-11-21T04:50:00Z","temp":-2,"dewpoint":-2,"windDirection":130,"windSpeed":3.704,"visibility":0.22,"altim":29.88189,"qualityControlFlag":"TRUE","skyCondition1a":"FEW","skyCondition1b":100,"skyCondition2a":"BKN","skyCondition2b":200,"flightCategory":"LIFR","metarType":"METAR","geometry_esri":{"x":47.78,"y":13.02,"z":430}}}