{"type":"Feature","geometry":{"type":"Point","coordinates":[47.78,13.02,430]},"properties":{"stationId":"LOWS","rawText":"LOWS 291450Z 13003KT 070V180 9999 FEW015 SCT027 BKN070 07/03 Q1007 NOSIG","observationTime":"2018-03-29T14:50:00Z","temp":7,"dewpoint":3,"windDirection":130,"windSpeed":5.556,"visibility":6.21,"altim":29.734253,"qualityControlFlag":"TRUE","skyCondition1a":"FEW","skyCondition1b":1500,"skyCondition2a":"SCT","skyCondition2b":2700,"flightCategory":"VFR","metarType":"METAR","geometry_esri":{"x":47.78,"y":13.02,"z":430}}}