{"type":"Feature","geometry":{"type":"Point","coordinates":[47.78,13.02,430]},"properties":{"stationId":"LOWS","rawText":"LOWS 031850Z 30006KT 7000 FEW100 BKN120 M00/M03 Q0999 NOSIG","observationTime":"2018-03-03T18:50:00Z","temp":0,"dewpoint":-3,"windDirection":300,"windSpeed":11.112,"visibility":4.35,"altim":29.498032,"qualityControlFlag":"TRUE","skyCondition1a":"FEW","skyCondition1b":10000,"skyCondition2a":"BKN","skyCondition2b":12000,"flightCategory":"MVFR","metarType":"METAR","geometry_esri":{"x":47.78,"y":13.02,"z":430}}}