{"type":"Feature","geometry":{"type":"Point","coordinates":[47.78,13.02,430]},"properties":{"stationId":"LOWS","rawText":"LOWS 010750Z VRB02KT 9999 FEW080 BKN100 M10/M14 Q1007 NOSIG","observationTime":"2018-03-01T07:50:00Z","temp":-10,"dewpoint":-14,"windDirection":0,"windSpeed":3.704,"visibility":6.21,"altim":29.734253,"qualityControlFlag":"TRUE","skyCondition1a":"FEW","skyCondition1b":8000,"skyCondition2a":"BKN","skyCondition2b":10000,"flightCategory":"VFR","metarType":"METAR","geometry_esri":{"x":47.78,"y":13.02,"z":430}}}