{"type":"Feature","geometry":{"type":"Point","coordinates":[47.78,13.02,430]},"properties":{"stationId":"LOWS","rawText":"LOWS 312150Z 14010KT 9999 FEW120 BKN170 00/M08 Q0996 NOSIG","observationTime":"2019-01-31T21:50:00Z","temp":0,"dewpoint":-8,"windDirection":140,"windSpeed":18.52,"visibility":6.21,"altim":29.409449,"qualityControlFlag":"TRUE","skyCondition1a":"FEW","skyCondition1b":12000,"skyCondition2a":"BKN","skyCondition2b":17000,"flightCategory":"VFR","metarType":"METAR","geometry_esri":{"x":47.78,"y":13.02,"z":430}}}