{"type":"Feature","geometry":{"type":"Point","coordinates":[47.78,13.02,427]},"properties":{"stationId":"LOWS","rawText":"LOWS 130950Z 30010KT 9999 VCSH FEW022 SCT050 00/M04 Q1018 R15/590593 NOSIG","observationTime":"2021-01-13T09:50:00Z","temp":0,"dewpoint":-4,"windDirection":300,"windSpeed":18.52,"visibility":6.21,"altim":30.059055,"qualityControlFlag":"TRUE","skyCondition1a":"FEW","skyCondition1b":2200,"skyCondition2a":"SCT","skyCondition2b":5000,"flightCategory":"VFR","metarType":"METAR","geometry_esri":{"x":47.78,"y":13.02,"z":427}}}