{"type":"Feature","geometry":{"type":"Point","coordinates":[47.78,13.02,430]},"properties":{"stationId":"LOWS","rawText":"LOWS 120950Z 22003KT 200V260 5000 4000E -SN BR FEW005 SCT010 BKN020 M00/M01 Q1021 RESN NOSIG","observationTime":"2018-12-12T09:50:00Z","temp":0,"dewpoint":-1,"windDirection":220,"windSpeed":5.556,"visibility":3.11,"altim":30.147638,"qualityControlFlag":"TRUE","skyCondition1a":"FEW","skyCondition1b":500,"skyCondition2a":"SCT","skyCondition2b":1000,"flightCategory":"MVFR","metarType":"METAR","geometry_esri":{"x":47.78,"y":13.02,"z":430}}}