{"type":"Feature","geometry":{"type":"Point","coordinates":[47.78,13.02,430]},"properties":{"stationId":"LOWS","rawText":"LOWS 251050Z 28007KT 230V320 9999 -SHRA FEW020 SCT030 BKN050 06/02 Q1018 NOSIG","observationTime":"2019-03-25T10:50:00Z","temp":6,"dewpoint":2,"windDirection":280,"windSpeed":12.964,"visibility":6.21,"altim":30.059055,"qualityControlFlag":"TRUE","skyCondition1a":"FEW","skyCondition1b":2000,"skyCondition2a":"SCT","skyCondition2b":3000,"flightCategory":"VFR","metarType":"METAR","geometry_esri":{"x":47.78,"y":13.02,"z":430}}}