{"type":"Feature","geometry":{"type":"Point","coordinates":[47.78,13.02,430]},"properties":{"stationId":"LOWS","rawText":"LOWS 291050Z 25010KT 220V290 9999 -SHRASN FEW009 SCT032 BKN042 02/M01 Q1012 NOSIG","observationTime":"2020-01-29T10:50:00Z","temp":2,"dewpoint":-1,"windDirection":250,"windSpeed":18.52,"visibility":6.21,"altim":29.88189,"qualityControlFlag":"TRUE","skyCondition1a":"FEW","skyCondition1b":900,"skyCondition2a":"SCT","skyCondition2b":3200,"flightCategory":"VFR","metarType":"METAR","geometry_esri":{"x":47.78,"y":13.02,"z":430}}}