{"type":"Feature","geometry":{"type":"Point","coordinates":[47.78,13.02,427]},"properties":{"stationId":"LOWS","rawText":"LOWS 011050Z VRB01KT 6000 FEW002 BKN085 02/01 Q0996 NOSIG","observationTime":"2021-02-01T10:50:00Z","temp":2,"dewpoint":1,"windDirection":0,"windSpeed":1.852,"visibility":3.73,"altim":29.409449,"qualityControlFlag":"TRUE","skyCondition1a":"FEW","skyCondition1b":200,"skyCondition2a":"BKN","skyCondition2b":8500,"flightCategory":"MVFR","metarType":"METAR","geometry_esri":{"x":47.78,"y":13.02,"z":427}}}