{"type":"Feature","geometry":{"type":"Point","coordinates":[47.78,13.02,430]},"properties":{"stationId":"LOWS","rawText":"LOWS 260650Z 17003KT 9999 FEW004 SCT023 BKN038 02/02 Q1025 NOSIG","observationTime":"2019-12-26T06:50:00Z","temp":2,"dewpoint":2,"windDirection":170,"windSpeed":5.556,"visibility":6.21,"altim":30.265747,"qualityControlFlag":"TRUE","skyCondition1a":"FEW","skyCondition1b":400,"skyCondition2a":"SCT","skyCondition2b":2300,"flightCategory":"VFR","metarType":"METAR","geometry_esri":{"x":47.78,"y":13.02,"z":430}}}