{"type":"Feature","geometry":{"type":"Point","coordinates":[47.78,13.02,427]},"properties":{"stationId":"LOWS","rawText":"LOWS 160750Z 33003KT 4000 BR FEW002 BKN003 00/00 Q1019 NOSIG","observationTime":"2020-12-16T07:50:00Z","temp":0,"dewpoint":0,"windDirection":330,"windSpeed":5.556,"visibility":2.49,"altim":30.088583,"qualityControlFlag":"TRUE","skyCondition1a":"FEW","skyCondition1b":200,"skyCondition2a":"BKN","skyCondition2b":300,"flightCategory":"LIFR","metarType":"METAR","geometry_esri":{"x":47.78,"y":13.02,"z":427}}}