{"type":"Feature","geometry":{"type":"Point","coordinates":[47.78,13.02,430]},"properties":{"stationId":"LOWS","rawText":"LOWS 052120Z 19007KT 110V240 9999 -SHRA FEW045 BKN050 08/02 Q0995 NOSIG","observationTime":"2020-03-05T21:20:00Z","temp":8,"dewpoint":2,"windDirection":190,"windSpeed":12.964,"visibility":6.21,"altim":29.379921,"qualityControlFlag":"TRUE","skyCondition1a":"FEW","skyCondition1b":4500,"skyCondition2a":"BKN","skyCondition2b":5000,"flightCategory":"VFR","metarType":"METAR","geometry_esri":{"x":47.78,"y":13.02,"z":430}}}