{"type":"Feature","geometry":{"type":"Point","coordinates":[47.78,13.02,427]},"properties":{"stationId":"LOWS","rawText":"LOWS 080750Z 16007KT 9999 FEW040 BKN044 10/08 Q1025 NOSIG","observationTime":"2020-10-08T07:50:00Z","temp":10,"dewpoint":8,"windDirection":160,"windSpeed":12.964,"visibility":6.21,"altim":30.265747,"qualityControlFlag":"TRUE","skyCondition1a":"FEW","skyCondition1b":4000,"skyCondition2a":"BKN","skyCondition2b":4400,"flightCategory":"VFR","metarType":"METAR","geometry_esri":{"x":47.78,"y":13.02,"z":427}}}