{"type":"Feature","geometry":{"type":"Point","coordinates":[47.78,13.02,430]},"properties":{"stationId":"LOWS","rawText":"LOWS 211050Z 30004KT 240V350 9999 FEW007 BKN010 01/M00 Q1013 NOSIG","observationTime":"2018-11-21T10:50:00Z","temp":1,"dewpoint":0,"windDirection":300,"windSpeed":7.408,"visibility":6.21,"altim":29.911417,"qualityControlFlag":"TRUE","skyCondition1a":"FEW","skyCondition1b":700,"skyCondition2a":"BKN","skyCondition2b":1000,"flightCategory":"MVFR","metarType":"METAR","geometry_esri":{"x":47.78,"y":13.02,"z":430}}}