{"type":"Feature","geometry":{"type":"Point","coordinates":[47.78,13.02,427]},"properties":{"stationId":"LOWS","rawText":"LOWS 080550Z 25004KT 190V300 9999 FEW110 BKN130 M04/M05 Q1002 NOSIG","observationTime":"2020-12-08T05:50:00Z","temp":-4,"dewpoint":-5,"windDirection":250,"windSpeed":7.408,"visibility":6.21,"altim":29.586615,"qualityControlFlag":"TRUE","skyCondition1a":"FEW","skyCondition1b":11000,"skyCondition2a":"BKN","skyCondition2b":13000,"flightCategory":"VFR","metarType":"METAR","geometry_esri":{"x":47.78,"y":13.02,"z":427}}}