{"type":"Feature","geometry":{"type":"Point","coordinates":[47.78,13.02,430]},"properties":{"stationId":"LOWS","rawText":"LOWS 050650Z 21007KT 9999 RA FEW012 SCT024 BKN032 07/06 Q1001 NOSIG","observationTime":"2019-11-05T06:50:00Z","temp":7,"dewpoint":6,"windDirection":210,"windSpeed":12.964,"visibility":6.21,"altim":29.557087,"qualityControlFlag":"TRUE","skyCondition1a":"FEW","skyCondition1b":1200,"skyCondition2a":"SCT","skyCondition2b":2400,"flightCategory":"VFR","metarType":"METAR","geometry_esri":{"x":47.78,"y":13.02,"z":430}}}