{"type":"Feature","geometry":{"type":"Point","coordinates":[47.78,13.02,430]},"properties":{"stationId":"LOWS","rawText":"LOWS 152150Z 33005KT 300V360 9999 FEW028 BKN080 07/04 Q0997 NOSIG","observationTime":"2018-03-15T21:50:00Z","temp":7,"dewpoint":4,"windDirection":330,"windSpeed":9.26,"visibility":6.21,"altim":29.438976,"qualityControlFlag":"TRUE","skyCondition1a":"FEW","skyCondition1b":2800,"skyCondition2a":"BKN","skyCondition2b":8000,"flightCategory":"VFR","metarType":"METAR","geometry_esri":{"x":47.78,"y":13.02,"z":430}}}