{"type":"Feature","geometry":{"type":"Point","coordinates":[47.78,13.02,430]},"properties":{"stationId":"LOWS","rawText":"LOWS 222050Z 28007KT 230V310 9999 FEW032 SCT040 BKN070 07/03 Q0996 NOSIG","observationTime":"2019-12-22T20:50:00Z","temp":7,"dewpoint":3,"windDirection":280,"windSpeed":12.964,"visibility":6.21,"altim":29.409449,"qualityControlFlag":"TRUE","skyCondition1a":"FEW","skyCondition1b":3200,"skyCondition2a":"SCT","skyCondition2b":4000,"flightCategory":"VFR","metarType":"METAR","geometry_esri":{"x":47.78,"y":13.02,"z":430}}}