{"type":"Feature","geometry":{"type":"Point","coordinates":[47.78,13.02,430]},"properties":{"stationId":"LOWS","rawText":"LOWS 260950Z 25005KT 200V290 9999 -SHRA FEW012 SCT035 BKN055 10/05 Q1020 NOSIG","observationTime":"2018-04-26T09:50:00Z","temp":10,"dewpoint":5,"windDirection":250,"windSpeed":9.26,"visibility":6.21,"altim":30.11811,"qualityControlFlag":"TRUE","skyCondition1a":"FEW","skyCondition1b":1200,"skyCondition2a":"SCT","skyCondition2b":3500,"flightCategory":"VFR","metarType":"METAR","geometry_esri":{"x":47.78,"y":13.02,"z":430}}}