{"type":"Feature","geometry":{"type":"Point","coordinates":[47.78,13.02,430]},"properties":{"stationId":"LOWS","rawText":"LOWS 211250Z 10004KT 030V180 9999 FEW013 BKN040 18/13 Q1028 NOSIG","observationTime":"2019-08-21T12:50:00Z","temp":18,"dewpoint":13,"windDirection":100,"windSpeed":7.408,"visibility":6.21,"altim":30.35433,"qualityControlFlag":"TRUE","skyCondition1a":"FEW","skyCondition1b":1300,"skyCondition2a":"BKN","skyCondition2b":4000,"flightCategory":"VFR","metarType":"METAR","geometry_esri":{"x":47.78,"y":13.02,"z":430}}}