{"type":"Feature","geometry":{"type":"Point","coordinates":[47.78,13.02,430]},"properties":{"stationId":"LOWS","rawText":"LOWS 011050Z 33008KT 300V010 9999 FEW045 SCT055 BKN250 16/05 Q1012 NOSIG","observationTime":"2018-05-01T10:50:00Z","temp":16,"dewpoint":5,"windDirection":330,"windSpeed":14.816,"visibility":6.21,"altim":29.88189,"qualityControlFlag":"TRUE","skyCondition1a":"FEW","skyCondition1b":4500,"skyCondition2a":"SCT","skyCondition2b":5500,"flightCategory":"VFR","metarType":"METAR","geometry_esri":{"x":47.78,"y":13.02,"z":430}}}