{"type":"Feature","geometry":{"type":"Point","coordinates":[47.78,13.02,430]},"properties":{"stationId":"LOWS","rawText":"LOWS 120650Z 15009KT 9999 FEW100 BKN120 16/08 Q1024 NOSIG","observationTime":"2018-10-12T06:50:00Z","temp":16,"dewpoint":8,"windDirection":150,"windSpeed":16.668,"visibility":6.21,"altim":30.236221,"qualityControlFlag":"TRUE","skyCondition1a":"FEW","skyCondition1b":10000,"skyCondition2a":"BKN","skyCondition2b":12000,"flightCategory":"VFR","metarType":"METAR","geometry_esri":{"x":47.78,"y":13.02,"z":430}}}