{"type":"Feature","geometry":{"type":"Point","coordinates":[47.78,13.02,427]},"properties":{"stationId":"LOWS","rawText":"LOWS 030750Z VRB02KT 5000 BR FEW007 BKN042 M03/M03 Q1010 R15/590195 NOSIG","observationTime":"2020-12-03T07:50:00Z","temp":-3,"dewpoint":-3,"windDirection":0,"windSpeed":3.704,"visibility":3.11,"altim":29.822834,"qualityControlFlag":"TRUE","skyCondition1a":"FEW","skyCondition1b":700,"skyCondition2a":"BKN","skyCondition2b":4200,"flightCategory":"MVFR","metarType":"METAR","geometry_esri":{"x":47.78,"y":13.02,"z":427}}}