{"type":"Feature","geometry":{"type":"Point","coordinates":[47.78,13.02,430]},"properties":{"stationId":"LOWS","rawText":"LOWS 051950Z 16003KT 9999 FEW038 BKN042 01/00 Q1035 NOSIG","observationTime":"2020-01-05T19:50:00Z","temp":1,"dewpoint":0,"windDirection":160,"windSpeed":5.556,"visibility":6.21,"altim":30.561024,"qualityControlFlag":"TRUE","skyCondition1a":"FEW","skyCondition1b":3800,"skyCondition2a":"BKN","skyCondition2b":4200,"flightCategory":"VFR","metarType":"METAR","geometry_esri":{"x":47.78,"y":13.02,"z":430}}}