{"type":"Feature","geometry":{"type":"Point","coordinates":[47.78,13.02,430]},"properties":{"stationId":"LOWS","rawText":"LOWS 310550Z 29003KT 5000 BR FEW004 SCT008 BKN010 03/03 Q1022 NOSIG","observationTime":"2019-10-31T05:50:00Z","temp":3,"dewpoint":3,"windDirection":290,"windSpeed":5.556,"visibility":3.11,"altim":30.177166,"qualityControlFlag":"TRUE","skyCondition1a":"FEW","skyCondition1b":400,"skyCondition2a":"SCT","skyCondition2b":800,"flightCategory":"MVFR","metarType":"METAR","geometry_esri":{"x":47.78,"y":13.02,"z":430}}}