{"type":"Feature","geometry":{"type":"Point","coordinates":[47.78,13.02,430]},"properties":{"stationId":"LOWS","rawText":"LOWS 141150Z 27021KT 240V310 9999 FEW040 SCT050 09/01 Q0999 R15/29//95 NOSIG","observationTime":"2019-12-14T11:50:00Z","temp":9,"dewpoint":1,"windDirection":270,"windSpeed":38.892,"visibility":6.21,"altim":29.498032,"qualityControlFlag":"TRUE","skyCondition1a":"FEW","skyCondition1b":4000,"skyCondition2a":"SCT","skyCondition2b":5000,"flightCategory":"VFR","metarType":"METAR","geometry_esri":{"x":47.78,"y":13.02,"z":430}}}