{"type":"Feature","geometry":{"type":"Point","coordinates":[47.78,13.02,427]},"properties":{"stationId":"LOWS","rawText":"LOWS 110850Z 34002KT 7000 FEW000 SCT015 M07/M08 Q1023 NOSIG","observationTime":"2021-01-11T08:50:00Z","temp":-7,"dewpoint":-8,"windDirection":340,"windSpeed":3.704,"visibility":4.35,"altim":30.206694,"qualityControlFlag":"TRUE","skyCondition1a":"FEW","skyCondition1b":0,"skyCondition2a":"SCT","skyCondition2b":1500,"flightCategory":"MVFR","metarType":"METAR","geometry_esri":{"x":47.78,"y":13.02,"z":427}}}