{"type":"Feature","geometry":{"type":"Point","coordinates":[47.78,13.02,427]},"properties":{"stationId":"LOWS","rawText":"LOWS 101150Z 33004KT 300V360 9000 FEW026 BKN042 M04/M05 Q1021 NOSIG","observationTime":"2021-01-10T11:50:00Z","temp":-4,"dewpoint":-5,"windDirection":330,"windSpeed":7.408,"visibility":5.59,"altim":30.147638,"qualityControlFlag":"TRUE","skyCondition1a":"FEW","skyCondition1b":2600,"skyCondition2a":"BKN","skyCondition2b":4200,"flightCategory":"VFR","metarType":"METAR","geometry_esri":{"x":47.78,"y":13.02,"z":427}}}