{"type":"Feature","geometry":{"type":"Point","coordinates":[47.78,13.02,430]},"properties":{"stationId":"LOWS","rawText":"LOWS 051250Z 03008KT 9999 FEW120 BKN300 10/03 Q0995 NOSIG","observationTime":"2018-03-05T12:50:00Z","temp":10,"dewpoint":3,"windDirection":30,"windSpeed":14.816,"visibility":6.21,"altim":29.379921,"qualityControlFlag":"TRUE","skyCondition1a":"FEW","skyCondition1b":12000,"skyCondition2a":"BKN","skyCondition2b":30000,"flightCategory":"VFR","metarType":"METAR","geometry_esri":{"x":47.78,"y":13.02,"z":430}}}