{"type":"Feature","geometry":{"type":"Point","coordinates":[47.78,13.02,430]},"properties":{"stationId":"LOWS","rawText":"LOWS 271650Z 12003KT 090V160 9999 FEW050 SCT090 BKN110 07/05 Q1001 NOSIG","observationTime":"2019-11-27T16:50:00Z","temp":7,"dewpoint":5,"windDirection":120,"windSpeed":5.556,"visibility":6.21,"altim":29.557087,"qualityControlFlag":"TRUE","skyCondition1a":"FEW","skyCondition1b":5000,"skyCondition2a":"SCT","skyCondition2b":9000,"flightCategory":"VFR","metarType":"METAR","geometry_esri":{"x":47.78,"y":13.02,"z":430}}}