{"type":"Feature","geometry":{"type":"Point","coordinates":[47.78,13.02,427]},"properties":{"stationId":"LOWS","rawText":"LOWS 142050Z 34005KT 300V020 9999 FEW026 SCT032 BKN050 07/04 Q1013 NOSIG","observationTime":"2020-10-14T20:50:00Z","temp":7,"dewpoint":4,"windDirection":340,"windSpeed":9.26,"visibility":6.21,"altim":29.911417,"qualityControlFlag":"TRUE","skyCondition1a":"FEW","skyCondition1b":2600,"skyCondition2a":"SCT","skyCondition2b":3200,"flightCategory":"VFR","metarType":"METAR","geometry_esri":{"x":47.78,"y":13.02,"z":427}}}