{"type":"Feature","geometry":{"type":"Point","coordinates":[47.78,13.02,427]},"properties":{"stationId":"LOWS","rawText":"LOWS 261250Z 32011KT 9999 SCT012 BKN017 10/08 Q1006 NOSIG","observationTime":"2020-10-26T12:50:00Z","temp":10,"dewpoint":8,"windDirection":320,"windSpeed":20.372,"visibility":6.21,"altim":29.704725,"qualityControlFlag":"TRUE","skyCondition1a":"SCT","skyCondition1b":1200,"skyCondition2a":"BKN","skyCondition2b":1700,"flightCategory":"MVFR","metarType":"METAR","geometry_esri":{"x":47.78,"y":13.02,"z":427}}}