{"type":"Feature","geometry":{"type":"Point","coordinates":[47.78,13.02,430]},"properties":{"stationId":"LOWS","rawText":"LOWS 130450Z 00000KT 3300 -SN SCT004 BKN009 00/00 Q1003 NOSIG","observationTime":"2019-11-13T04:50:00Z","temp":0,"dewpoint":0,"windDirection":0,"windSpeed":0,"visibility":2.05,"altim":29.616142,"qualityControlFlag":"TRUE","skyCondition1a":"SCT","skyCondition1b":400,"skyCondition2a":"BKN","skyCondition2b":900,"flightCategory":"IFR","metarType":"METAR","geometry_esri":{"x":47.78,"y":13.02,"z":430}}}