{"type":"Feature","geometry":{"type":"Point","coordinates":[47.78,13.02,430]},"properties":{"stationId":"LOWS","rawText":"LOWS 250650Z 30007KT 7000 -RA FEW004 SCT010 BKN020 11/11 Q1021 RERA NOSIG","observationTime":"2018-06-25T06:50:00Z","temp":11,"dewpoint":11,"windDirection":300,"windSpeed":12.964,"visibility":4.35,"altim":30.147638,"qualityControlFlag":"TRUE","skyCondition1a":"FEW","skyCondition1b":400,"skyCondition2a":"SCT","skyCondition2b":1000,"flightCategory":"MVFR","metarType":"METAR","geometry_esri":{"x":47.78,"y":13.02,"z":430}}}