{"type":"Feature","geometry":{"type":"Point","coordinates":[47.78,13.02,427]},"properties":{"stationId":"LOWS","rawText":"LOWS 281750Z 17007KT 130V190 9999 FEW038 BKN050 09/05 Q1018 NOSIG","observationTime":"2020-10-28T17:50:00Z","temp":9,"dewpoint":5,"windDirection":170,"windSpeed":12.964,"visibility":6.21,"altim":30.059055,"qualityControlFlag":"TRUE","skyCondition1a":"FEW","skyCondition1b":3800,"skyCondition2a":"BKN","skyCondition2b":5000,"flightCategory":"VFR","metarType":"METAR","geometry_esri":{"x":47.78,"y":13.02,"z":427}}}