{"type":"Feature","geometry":{"type":"Point","coordinates":[47.78,13.02,430]},"properties":{"stationId":"LOWS","rawText":"LOWS 031450Z 20005KT 140V280 9999 FEW040 SCT055 BKN080 21/12 Q1019 NOSIG","observationTime":"2020-07-03T14:50:00Z","temp":21,"dewpoint":12,"windDirection":200,"windSpeed":9.26,"visibility":6.21,"altim":30.088583,"qualityControlFlag":"TRUE","skyCondition1a":"FEW","skyCondition1b":4000,"skyCondition2a":"SCT","skyCondition2b":5500,"flightCategory":"VFR","metarType":"METAR","geometry_esri":{"x":47.78,"y":13.02,"z":430}}}