{"type":"Feature","geometry":{"type":"Point","coordinates":[47.78,13.02,430]},"properties":{"stationId":"LOWS","rawText":"LOWS 180950Z VRB05KT 9999 VCSH FEW022 SCT034 BKN048 05/M01 Q1018 NOSIG","observationTime":"2019-03-18T09:50:00Z","temp":5,"dewpoint":-1,"windDirection":0,"windSpeed":9.26,"visibility":6.21,"altim":30.059055,"qualityControlFlag":"TRUE","skyCondition1a":"FEW","skyCondition1b":2200,"skyCondition2a":"SCT","skyCondition2b":3400,"flightCategory":"VFR","metarType":"METAR","geometry_esri":{"x":47.78,"y":13.02,"z":430}}}