{"type":"Feature","geometry":{"type":"Point","coordinates":[47.78,13.02,430]},"properties":{"stationId":"LOWS","rawText":"LOWS 041450Z 06010KT 030V100 9999 FEW020 BKN028 18/12 Q1016 NOSIG","observationTime":"2018-05-04T14:50:00Z","temp":18,"dewpoint":12,"windDirection":60,"windSpeed":18.52,"visibility":6.21,"altim":30,"qualityControlFlag":"TRUE","skyCondition1a":"FEW","skyCondition1b":2000,"skyCondition2a":"BKN","skyCondition2b":2800,"flightCategory":"MVFR","metarType":"METAR","geometry_esri":{"x":47.78,"y":13.02,"z":430}}}