{"type":"Feature","geometry":{"type":"Point","coordinates":[47.78,13.02,430]},"properties":{"stationId":"LOWS","rawText":"LOWS 091150Z 32007KT 290V010 9999 FEW050 SCT110 BKN300 24/11 Q1019 NOSIG","observationTime":"2018-07-09T11:50:00Z","temp":24,"dewpoint":11,"windDirection":320,"windSpeed":12.964,"visibility":6.21,"altim":30.088583,"qualityControlFlag":"TRUE","skyCondition1a":"FEW","skyCondition1b":5000,"skyCondition2a":"SCT","skyCondition2b":11000,"flightCategory":"VFR","metarType":"METAR","geometry_esri":{"x":47.78,"y":13.02,"z":430}}}