{"type":"Feature","geometry":{"type":"Point","coordinates":[47.78,13.02,430]},"properties":{"stationId":"LOWS","rawText":"LOWS 280650Z 14011KT 9999 -RA FEW006 SCT025 BKN032 03/01 Q1009 RERA NOSIG","observationTime":"2018-03-28T06:50:00Z","temp":3,"dewpoint":1,"windDirection":140,"windSpeed":20.372,"visibility":6.21,"altim":29.793306,"qualityControlFlag":"TRUE","skyCondition1a":"FEW","skyCondition1b":600,"skyCondition2a":"SCT","skyCondition2b":2500,"flightCategory":"VFR","metarType":"METAR","geometry_esri":{"x":47.78,"y":13.02,"z":430}}}