{"type":"Feature","geometry":{"type":"Point","coordinates":[47.78,13.02,430]},"properties":{"stationId":"LOWS","rawText":"LOWS 041750Z 30007KT 260V330 9999 FEW020 SCT042 BKN050 03/M01 Q1015 NOSIG","observationTime":"2020-02-04T17:50:00Z","temp":3,"dewpoint":-1,"windDirection":300,"windSpeed":12.964,"visibility":6.21,"altim":29.970472,"qualityControlFlag":"TRUE","skyCondition1a":"FEW","skyCondition1b":2000,"skyCondition2a":"SCT","skyCondition2b":4200,"flightCategory":"VFR","metarType":"METAR","geometry_esri":{"x":47.78,"y":13.02,"z":430}}}