{"type":"Feature","geometry":{"type":"Point","coordinates":[47.78,13.02,430]},"properties":{"stationId":"LOWS","rawText":"LOWS 040950Z 15007KT 110V180 9999 VCSH FEW020 SCT050 BKN070 11/06 Q1005 NOSIG","observationTime":"2019-05-04T09:50:00Z","temp":11,"dewpoint":6,"windDirection":150,"windSpeed":12.964,"visibility":6.21,"altim":29.675198,"qualityControlFlag":"TRUE","skyCondition1a":"FEW","skyCondition1b":2000,"skyCondition2a":"SCT","skyCondition2b":5000,"flightCategory":"VFR","metarType":"METAR","geometry_esri":{"x":47.78,"y":13.02,"z":430}}}