{"type":"Feature","geometry":{"type":"Point","coordinates":[47.78,13.02,430]},"properties":{"stationId":"LOWS","rawText":"LOWS 271420Z 02007KT 330V050 9999 FEW017 BKN032 M09/M15 Q1013 NOSIG","observationTime":"2018-02-27T14:20:00Z","temp":-9,"dewpoint":-15,"windDirection":20,"windSpeed":12.964,"visibility":6.21,"altim":29.911417,"qualityControlFlag":"TRUE","skyCondition1a":"FEW","skyCondition1b":1700,"skyCondition2a":"BKN","skyCondition2b":3200,"flightCategory":"VFR","metarType":"METAR","geometry_esri":{"x":47.78,"y":13.02,"z":430}}}