{"type":"Feature","geometry":{"type":"Point","coordinates":[47.78,13.02,427]},"properties":{"stationId":"LOWS","rawText":"LOWS 281850Z 15003KT 120V190 9999 -RA FEW008 BKN035 08/08 Q1015 NOSIG","observationTime":"2020-09-28T18:50:00Z","temp":8,"dewpoint":8,"windDirection":150,"windSpeed":5.556,"visibility":6.21,"altim":29.970472,"qualityControlFlag":"TRUE","skyCondition1a":"FEW","skyCondition1b":800,"skyCondition2a":"BKN","skyCondition2b":3500,"flightCategory":"VFR","metarType":"METAR","geometry_esri":{"x":47.78,"y":13.02,"z":427}}}