{"type":"Feature","geometry":{"type":"Point","coordinates":[47.78,13.02,430]},"properties":{"stationId":"LOWS","rawText":"LOWS 031050Z 27012KT 220V300 9999 FEW015 SCT032 BKN050 04/M01 Q1004 NOSIG","observationTime":"2020-03-03T10:50:00Z","temp":4,"dewpoint":-1,"windDirection":270,"windSpeed":22.224,"visibility":6.21,"altim":29.64567,"qualityControlFlag":"TRUE","skyCondition1a":"FEW","skyCondition1b":1500,"skyCondition2a":"SCT","skyCondition2b":3200,"flightCategory":"VFR","metarType":"METAR","geometry_esri":{"x":47.78,"y":13.02,"z":430}}}