{"type":"Feature","geometry":{"type":"Point","coordinates":[47.78,13.02,430]},"properties":{"stationId":"LOWS","rawText":"LOWS 280550Z 18003KT 110V230 9999 FEW040 BKN050 03/00 Q1005 NOSIG","observationTime":"2020-01-28T05:50:00Z","temp":3,"dewpoint":0,"windDirection":180,"windSpeed":5.556,"visibility":6.21,"altim":29.675198,"qualityControlFlag":"TRUE","skyCondition1a":"FEW","skyCondition1b":4000,"skyCondition2a":"BKN","skyCondition2b":5000,"flightCategory":"VFR","metarType":"METAR","geometry_esri":{"x":47.78,"y":13.02,"z":430}}}