{"type":"Feature","geometry":{"type":"Point","coordinates":[47.78,13.02,430]},"properties":{"stationId":"LOWS","rawText":"LOWS 061450Z 18003KT 3000 -DZ BR FEW005 SCT012 BKN030 04/02 Q0990 NOSIG","observationTime":"2018-03-06T14:50:00Z","temp":4,"dewpoint":2,"windDirection":180,"windSpeed":5.556,"visibility":1.86,"altim":29.232283,"qualityControlFlag":"TRUE","skyCondition1a":"FEW","skyCondition1b":500,"skyCondition2a":"SCT","skyCondition2b":1200,"flightCategory":"IFR","metarType":"METAR","geometry_esri":{"x":47.78,"y":13.02,"z":430}}}