{"type":"Feature","geometry":{"type":"Point","coordinates":[47.78,13.02,430]},"properties":{"stationId":"LOWS","rawText":"LOWS 041550Z 02010KT 9999 FEW060 SCT150 32/14 Q1017 NOSIG","observationTime":"2018-08-04T15:50:00Z","temp":32,"dewpoint":14,"windDirection":20,"windSpeed":18.52,"visibility":6.21,"altim":30.029528,"qualityControlFlag":"TRUE","skyCondition1a":"FEW","skyCondition1b":6000,"skyCondition2a":"SCT","skyCondition2b":15000,"flightCategory":"VFR","metarType":"METAR","geometry_esri":{"x":47.78,"y":13.02,"z":430}}}