{"type":"Feature","geometry":{"type":"Point","coordinates":[47.78,13.02,430]},"properties":{"stationId":"LOWS","rawText":"LOWS 130750Z 21008KT 9999 FEW032 SCT045 BKN055 07/01 Q1020 NOSIG","observationTime":"2020-03-13T07:50:00Z","temp":7,"dewpoint":1,"windDirection":210,"windSpeed":14.816,"visibility":6.21,"altim":30.11811,"qualityControlFlag":"TRUE","skyCondition1a":"FEW","skyCondition1b":3200,"skyCondition2a":"SCT","skyCondition2b":4500,"flightCategory":"VFR","metarType":"METAR","geometry_esri":{"x":47.78,"y":13.02,"z":430}}}