{"type":"Feature","geometry":{"type":"Point","coordinates":[47.78,13.02,430]},"properties":{"stationId":"LOWS","rawText":"LOWS 162050Z VRB02KT 9999 -SHRA FEW038 SCT042 BKN044 10/10 Q1015 NOSIG","observationTime":"2018-05-16T20:50:00Z","temp":10,"dewpoint":10,"windDirection":0,"windSpeed":3.704,"visibility":6.21,"altim":29.970472,"qualityControlFlag":"TRUE","skyCondition1a":"FEW","skyCondition1b":3800,"skyCondition2a":"SCT","skyCondition2b":4200,"flightCategory":"VFR","metarType":"METAR","geometry_esri":{"x":47.78,"y":13.02,"z":430}}}