{"type":"Feature","geometry":{"type":"Point","coordinates":[47.78,13.02,427]},"properties":{"stationId":"LOWS","rawText":"LOWS 180450Z 34005KT 9999 FEW016 BKN022 14/12 Q1023 NOSIG","observationTime":"2020-09-18T04:50:00Z","temp":14,"dewpoint":12,"windDirection":340,"windSpeed":9.26,"visibility":6.21,"altim":30.206694,"qualityControlFlag":"TRUE","skyCondition1a":"FEW","skyCondition1b":1600,"skyCondition2a":"BKN","skyCondition2b":2200,"flightCategory":"MVFR","metarType":"METAR","geometry_esri":{"x":47.78,"y":13.02,"z":427}}}