{"type":"Feature","geometry":{"type":"Point","coordinates":[47.78,13.02,430]},"properties":{"stationId":"LOWS","rawText":"LOWS 020450Z VRB02KT 9999 FEW120 BKN240 04/04 Q1020 NOSIG","observationTime":"2018-11-02T04:50:00Z","temp":4,"dewpoint":4,"windDirection":0,"windSpeed":3.704,"visibility":6.21,"altim":30.11811,"qualityControlFlag":"TRUE","skyCondition1a":"FEW","skyCondition1b":12000,"skyCondition2a":"BKN","skyCondition2b":24000,"flightCategory":"VFR","metarType":"METAR","geometry_esri":{"x":47.78,"y":13.02,"z":430}}}