{"type":"Feature","geometry":{"type":"Point","coordinates":[47.78,13.02,430]},"properties":{"stationId":"LOWS","rawText":"LOWS 150550Z 15004KT 100V170 9999 FEW005 SCT100 15/13 Q1022 NOSIG","observationTime":"2018-09-15T05:50:00Z","temp":15,"dewpoint":13,"windDirection":150,"windSpeed":7.408,"visibility":6.21,"altim":30.177166,"qualityControlFlag":"TRUE","skyCondition1a":"FEW","skyCondition1b":500,"skyCondition2a":"SCT","skyCondition2b":10000,"flightCategory":"VFR","metarType":"METAR","geometry_esri":{"x":47.78,"y":13.02,"z":430}}}