{"type":"Feature","geometry":{"type":"Point","coordinates":[47.78,13.02,430]},"properties":{"stationId":"LOWS","rawText":"LOWS 291250Z VRB02KT 9999 -RA FEW009 FEW060TCU SCT080 BKN300 10/08 Q0997 NOSIG","observationTime":"2018-10-29T12:50:00Z","temp":10,"dewpoint":8,"windDirection":0,"windSpeed":3.704,"visibility":6.21,"altim":29.438976,"qualityControlFlag":"TRUE","skyCondition1a":"FEW","skyCondition1b":900,"skyCondition2a":"FEW","skyCondition2b":6000,"flightCategory":"VFR","metarType":"METAR","geometry_esri":{"x":47.78,"y":13.02,"z":430}}}