{"type":"Feature","geometry":{"type":"Point","coordinates":[47.78,13.02,430]},"properties":{"stationId":"LOWS","rawText":"LOWS 291950Z 31009KT 270V340 9999 FEW015 BKN024 04/M00 Q1015 NOSIG","observationTime":"2020-01-29T19:50:00Z","temp":4,"dewpoint":0,"windDirection":310,"windSpeed":16.668,"visibility":6.21,"altim":29.970472,"qualityControlFlag":"TRUE","skyCondition1a":"FEW","skyCondition1b":1500,"skyCondition2a":"BKN","skyCondition2b":2400,"flightCategory":"MVFR","metarType":"METAR","geometry_esri":{"x":47.78,"y":13.02,"z":430}}}