{"type":"Feature","geometry":{"type":"Point","coordinates":[47.78,13.02,430]},"properties":{"stationId":"LOWS","rawText":"LOWS 200350Z 33005KT 3400 BR FEW020 BKN025 10/09 Q1025 NOSIG","observationTime":"2018-10-20T03:50:00Z","temp":10,"dewpoint":9,"windDirection":330,"windSpeed":9.26,"visibility":2.11,"altim":30.265747,"qualityControlFlag":"TRUE","skyCondition1a":"FEW","skyCondition1b":2000,"skyCondition2a":"BKN","skyCondition2b":2500,"flightCategory":"IFR","metarType":"METAR","geometry_esri":{"x":47.78,"y":13.02,"z":430}}}