{"type":"Feature","geometry":{"type":"Point","coordinates":[47.78,13.02,430]},"properties":{"stationId":"LOWS","rawText":"LOWS 081550Z 28003KT 240V320 9999 FEW009 SCT014 BKN025 12/10 Q1015 NOSIG","observationTime":"2019-09-08T15:50:00Z","temp":12,"dewpoint":10,"windDirection":280,"windSpeed":5.556,"visibility":6.21,"altim":29.970472,"qualityControlFlag":"TRUE","skyCondition1a":"FEW","skyCondition1b":900,"skyCondition2a":"SCT","skyCondition2b":1400,"flightCategory":"MVFR","metarType":"METAR","geometry_esri":{"x":47.78,"y":13.02,"z":430}}}