{"type":"Feature","geometry":{"type":"Point","coordinates":[47.78,13.02,430]},"properties":{"stationId":"LOWS","rawText":"LOWS 131650Z 29012KT 250V320 9999 FEW060 BKN070 11/00 Q1007 NOSIG","observationTime":"2018-03-13T16:50:00Z","temp":11,"dewpoint":0,"windDirection":290,"windSpeed":22.224,"visibility":6.21,"altim":29.734253,"qualityControlFlag":"TRUE","skyCondition1a":"FEW","skyCondition1b":6000,"skyCondition2a":"BKN","skyCondition2b":7000,"flightCategory":"VFR","metarType":"METAR","geometry_esri":{"x":47.78,"y":13.02,"z":430}}}