{"type":"Feature","geometry":{"type":"Point","coordinates":[47.78,13.02,430]},"properties":{"stationId":"LOWS","rawText":"LOWS 201250Z 02003KT 280V050 9999 FEW010 SCT013 BKN040 02/M01 Q1044 R15/29//95 NOSIG","observationTime":"2020-01-20T12:50:00Z","temp":2,"dewpoint":-1,"windDirection":20,"windSpeed":5.556,"visibility":6.21,"altim":30.82677,"qualityControlFlag":"TRUE","skyCondition1a":"FEW","skyCondition1b":1000,"skyCondition2a":"SCT","skyCondition2b":1300,"flightCategory":"VFR","metarType":"METAR","geometry_esri":{"x":47.78,"y":13.02,"z":430}}}