{"type":"Feature","geometry":{"type":"Point","coordinates":[47.78,13.02,430]},"properties":{"stationId":"LOWS","rawText":"LOWS 080950Z 14003KT 030V190 9999 FEW005 SCT016 BKN055 15/12 Q1018 NOSIG","observationTime":"2019-07-08T09:50:00Z","temp":15,"dewpoint":12,"windDirection":140,"windSpeed":5.556,"visibility":6.21,"altim":30.059055,"qualityControlFlag":"TRUE","skyCondition1a":"FEW","skyCondition1b":500,"skyCondition2a":"SCT","skyCondition2b":1600,"flightCategory":"VFR","metarType":"METAR","geometry_esri":{"x":47.78,"y":13.02,"z":430}}}