{"type":"Feature","geometry":{"type":"Point","coordinates":[47.78,13.02,430]},"properties":{"stationId":"LOWS","rawText":"LOWS 291450Z 14009KT 110V180 9999 FEW060 BKN140 29/12 Q1012 NOSIG","observationTime":"2018-05-29T14:50:00Z","temp":29,"dewpoint":12,"windDirection":140,"windSpeed":16.668,"visibility":6.21,"altim":29.88189,"qualityControlFlag":"TRUE","skyCondition1a":"FEW","skyCondition1b":6000,"skyCondition2a":"BKN","skyCondition2b":14000,"flightCategory":"VFR","metarType":"METAR","geometry_esri":{"x":47.78,"y":13.02,"z":430}}}