{"type":"Feature","geometry":{"type":"Point","coordinates":[47.78,13.02,427]},"properties":{"stationId":"LOWS","rawText":"LOWS 251950Z 15008KT 9999 RA FEW007 SCT017 BKN033 04/03 Q1002 NOSIG","observationTime":"2020-09-25T19:50:00Z","temp":4,"dewpoint":3,"windDirection":150,"windSpeed":14.816,"visibility":6.21,"altim":29.586615,"qualityControlFlag":"TRUE","skyCondition1a":"FEW","skyCondition1b":700,"skyCondition2a":"SCT","skyCondition2b":1700,"flightCategory":"VFR","metarType":"METAR","geometry_esri":{"x":47.78,"y":13.02,"z":427}}}