{"type":"Feature","geometry":{"type":"Point","coordinates":[47.78,13.02,430]},"properties":{"stationId":"LOWS","rawText":"LOWS 171550Z 02005KT 320V060 9999 -SHRA SCT045 FEW050TCU BKN090 16/12 Q1019 RERA NOSIG","observationTime":"2020-07-17T15:50:00Z","temp":16,"dewpoint":12,"windDirection":20,"windSpeed":9.26,"visibility":6.21,"altim":30.088583,"qualityControlFlag":"TRUE","skyCondition1a":"SCT","skyCondition1b":4500,"skyCondition2a":"FEW","skyCondition2b":5000,"flightCategory":"VFR","metarType":"METAR","geometry_esri":{"x":47.78,"y":13.02,"z":430}}}