{"type":"Feature","geometry":{"type":"Point","coordinates":[47.78,13.02,430]},"properties":{"stationId":"LOWS","rawText":"LOWS 111950Z 02003KT 340V050 9999 FEW006 OVC007 02/01 Q1008 NOSIG","observationTime":"2019-11-11T19:50:00Z","temp":2,"dewpoint":1,"windDirection":20,"windSpeed":5.556,"visibility":6.21,"altim":29.763779,"qualityControlFlag":"TRUE","skyCondition1a":"FEW","skyCondition1b":600,"skyCondition2a":"OVC","skyCondition2b":700,"flightCategory":"IFR","metarType":"METAR","geometry_esri":{"x":47.78,"y":13.02,"z":430}}}