{"type":"Feature","geometry":{"type":"Point","coordinates":[47.78,13.02,430]},"properties":{"stationId":"LOWS","rawText":"LOWS 181450Z 01010KT 9999 SCT022 BKN028 M02/M07 Q1002 NOSIG","observationTime":"2018-03-18T14:50:00Z","temp":-2,"dewpoint":-7,"windDirection":10,"windSpeed":18.52,"visibility":6.21,"altim":29.586615,"qualityControlFlag":"TRUE","skyCondition1a":"SCT","skyCondition1b":2200,"skyCondition2a":"BKN","skyCondition2b":2800,"flightCategory":"MVFR","metarType":"METAR","geometry_esri":{"x":47.78,"y":13.02,"z":430}}}