{"type":"Feature","geometry":{"type":"Point","coordinates":[47.78,13.02,430]},"properties":{"stationId":"LOWS","rawText":"LOWS 261850Z 05003KT 010V100 9999 FEW025 BKN045 BKN120 M10/M16 Q1017 NOSIG","observationTime":"2018-02-26T18:50:00Z","temp":-10,"dewpoint":-16,"windDirection":50,"windSpeed":5.556,"visibility":6.21,"altim":30.029528,"qualityControlFlag":"TRUE","skyCondition1a":"FEW","skyCondition1b":2500,"skyCondition2a":"BKN","skyCondition2b":4500,"flightCategory":"VFR","metarType":"METAR","geometry_esri":{"x":47.78,"y":13.02,"z":430}}}