{"type":"Feature","geometry":{"type":"Point","coordinates":[47.78,13.02,430]},"properties":{"stationId":"LOWS","rawText":"LOWS 240550Z 16008KT 130V190 9999 FEW100 SCT250 14/01 Q1011 NOSIG","observationTime":"2019-10-24T05:50:00Z","temp":14,"dewpoint":1,"windDirection":160,"windSpeed":14.816,"visibility":6.21,"altim":29.852362,"qualityControlFlag":"TRUE","skyCondition1a":"FEW","skyCondition1b":10000,"skyCondition2a":"SCT","skyCondition2b":25000,"flightCategory":"VFR","metarType":"METAR","geometry_esri":{"x":47.78,"y":13.02,"z":430}}}