{"type":"Feature","geometry":{"type":"Point","coordinates":[47.78,13.02,430]},"properties":{"stationId":"LOWS","rawText":"LOWS 052050Z 15009KT 120V180 9999 -SHRA FEW045 BKN060 07/04 Q0993 NOSIG","observationTime":"2020-03-05T20:50:00Z","temp":7,"dewpoint":4,"windDirection":150,"windSpeed":16.668,"visibility":6.21,"altim":29.320866,"qualityControlFlag":"TRUE","skyCondition1a":"FEW","skyCondition1b":4500,"skyCondition2a":"BKN","skyCondition2b":6000,"flightCategory":"VFR","metarType":"METAR","geometry_esri":{"x":47.78,"y":13.02,"z":430}}}