{"type":"Feature","geometry":{"type":"Point","coordinates":[47.78,13.02,427]},"properties":{"stationId":"LOWS","rawText":"LOWS 241450Z 05005KT 010V110 9999 FEW040 SCT120 21/13 Q1008 NOSIG","observationTime":"2020-09-24T14:50:00Z","temp":21,"dewpoint":13,"windDirection":50,"windSpeed":9.26,"visibility":6.21,"altim":29.763779,"qualityControlFlag":"TRUE","skyCondition1a":"FEW","skyCondition1b":4000,"skyCondition2a":"SCT","skyCondition2b":12000,"flightCategory":"VFR","metarType":"METAR","geometry_esri":{"x":47.78,"y":13.02,"z":427}}}