{"type":"Feature","geometry":{"type":"Point","coordinates":[47.78,13.02,430]},"properties":{"stationId":"LOWS","rawText":"LOWS 031750Z 35005KT 7000 RA FEW003 BKN028 16/16 Q1008 NOSIG","observationTime":"2020-08-03T17:50:00Z","temp":16,"dewpoint":16,"windDirection":350,"windSpeed":9.26,"visibility":4.35,"altim":29.763779,"qualityControlFlag":"TRUE","skyCondition1a":"FEW","skyCondition1b":300,"skyCondition2a":"BKN","skyCondition2b":2800,"flightCategory":"MVFR","metarType":"METAR","geometry_esri":{"x":47.78,"y":13.02,"z":430}}}