{"type":"Feature","geometry":{"type":"Point","coordinates":[47.78,13.02,430]},"properties":{"stationId":"LOWS","rawText":"LOWS 271120Z 34005KT 290V030 9999 FEW017 BKN024 M09/M15 Q1013 R15/15//95 NOSIG","observationTime":"2018-02-27T11:20:00Z","temp":-9,"dewpoint":-15,"windDirection":340,"windSpeed":9.26,"visibility":6.21,"altim":29.911417,"qualityControlFlag":"TRUE","skyCondition1a":"FEW","skyCondition1b":1700,"skyCondition2a":"BKN","skyCondition2b":2400,"flightCategory":"MVFR","metarType":"SPECI","geometry_esri":{"x":47.78,"y":13.02,"z":430}}}