{"type":"Feature","geometry":{"type":"Point","coordinates":[47.78,13.02,427]},"properties":{"stationId":"LOWS","rawText":"LOWS 170550Z 21005KT 170V230 9999 FEW009 FEW040CB SCT060 BKN090 15/14 Q1022 NOSIG","observationTime":"2020-09-17T05:50:00Z","temp":15,"dewpoint":14,"windDirection":210,"windSpeed":9.26,"visibility":6.21,"altim":30.177166,"qualityControlFlag":"TRUE","skyCondition1a":"FEW","skyCondition1b":900,"skyCondition2a":"FEW","skyCondition2b":4000,"flightCategory":"VFR","metarType":"METAR","geometry_esri":{"x":47.78,"y":13.02,"z":427}}}