{"type":"Feature","geometry":{"type":"Point","coordinates":[47.78,13.02,430]},"properties":{"stationId":"LOWS","rawText":"LOWS 081750Z 05008KT 350V090 9999 FEW060 SCT150 BKN300 20/07 Q1008 NOSIG","observationTime":"2018-05-08T17:50:00Z","temp":20,"dewpoint":7,"windDirection":50,"windSpeed":14.816,"visibility":6.21,"altim":29.763779,"qualityControlFlag":"TRUE","skyCondition1a":"FEW","skyCondition1b":6000,"skyCondition2a":"SCT","skyCondition2b":15000,"flightCategory":"VFR","metarType":"METAR","geometry_esri":{"x":47.78,"y":13.02,"z":430}}}