{"type":"Feature","geometry":{"type":"Point","coordinates":[47.78,13.02,430]},"properties":{"stationId":"LOWS","rawText":"LOWS 261750Z 02006KT 9999 FEW120 SCT300 25/11 Q1020 NOSIG","observationTime":"2018-05-26T17:50:00Z","temp":25,"dewpoint":11,"windDirection":20,"windSpeed":11.112,"visibility":6.21,"altim":30.11811,"qualityControlFlag":"TRUE","skyCondition1a":"FEW","skyCondition1b":12000,"skyCondition2a":"SCT","skyCondition2b":30000,"flightCategory":"VFR","metarType":"METAR","geometry_esri":{"x":47.78,"y":13.02,"z":430}}}