{"type":"Feature","geometry":{"type":"Point","coordinates":[47.78,13.02,430]},"properties":{"stationId":"LOWS","rawText":"LOWS 030950Z 28010KT 230V310 9999 VCSH FEW026 SCT036 BKN048 M02/M07 Q1034 R15/29//95 NOSIG","observationTime":"2019-01-03T09:50:00Z","temp":-2,"dewpoint":-7,"windDirection":280,"windSpeed":18.52,"visibility":6.21,"altim":30.531496,"qualityControlFlag":"TRUE","skyCondition1a":"FEW","skyCondition1b":2600,"skyCondition2a":"SCT","skyCondition2b":3600,"flightCategory":"VFR","metarType":"METAR","geometry_esri":{"x":47.78,"y":13.02,"z":430}}}