{"type":"Feature","geometry":{"type":"Point","coordinates":[47.78,13.02,430]},"properties":{"stationId":"LOWS","rawText":"LOWS 092150Z 01005KT 330V060 9999 FEW060 BKN120 23/16 Q1020 NOSIG","observationTime":"2018-08-09T21:50:00Z","temp":23,"dewpoint":16,"windDirection":10,"windSpeed":9.26,"visibility":6.21,"altim":30.11811,"qualityControlFlag":"TRUE","skyCondition1a":"FEW","skyCondition1b":6000,"skyCondition2a":"BKN","skyCondition2b":12000,"flightCategory":"VFR","metarType":"METAR","geometry_esri":{"x":47.78,"y":13.02,"z":430}}}