{"type":"Feature","geometry":{"type":"Point","coordinates":[47.78,13.02,430]},"properties":{"stationId":"LOWS","rawText":"LOWS 291250Z 14005KT 110V180 9999 -SHRA FEW003 SCT040 FEW050CB BKN070 19/17 Q1022 RETS NOSIG","observationTime":"2019-08-29T12:50:00Z","temp":19,"dewpoint":17,"windDirection":140,"windSpeed":9.26,"visibility":6.21,"altim":30.177166,"qualityControlFlag":"TRUE","skyCondition1a":"FEW","skyCondition1b":300,"skyCondition2a":"SCT","skyCondition2b":4000,"flightCategory":"VFR","metarType":"METAR","geometry_esri":{"x":47.78,"y":13.02,"z":430}}}