{"type":"Feature","geometry":{"type":"Point","coordinates":[47.78,13.02,430]},"properties":{"stationId":"LOWS","rawText":"LOWS 230950Z 28013KT 240V310 9999 FEW025 SCT040 BKN050 07/02 Q1007 NOSIG","observationTime":"2019-12-23T09:50:00Z","temp":7,"dewpoint":2,"windDirection":280,"windSpeed":24.076,"visibility":6.21,"altim":29.734253,"qualityControlFlag":"TRUE","skyCondition1a":"FEW","skyCondition1b":2500,"skyCondition2a":"SCT","skyCondition2b":4000,"flightCategory":"VFR","metarType":"METAR","geometry_esri":{"x":47.78,"y":13.02,"z":430}}}