{"type":"Feature","geometry":{"type":"Point","coordinates":[47.78,13.02,427]},"properties":{"stationId":"LOWS","rawText":"LOWS 310550Z 16003KT 120V200 9999 FEW045 BKN060 12/10 Q1018 NOSIG","observationTime":"2020-08-31T05:50:00Z","temp":12,"dewpoint":10,"windDirection":160,"windSpeed":5.556,"visibility":6.21,"altim":30.059055,"qualityControlFlag":"TRUE","skyCondition1a":"FEW","skyCondition1b":4500,"skyCondition2a":"BKN","skyCondition2b":6000,"flightCategory":"VFR","metarType":"METAR","geometry_esri":{"x":47.78,"y":13.02,"z":427}}}