{"type":"Feature","geometry":{"type":"Point","coordinates":[47.78,13.02,427]},"properties":{"stationId":"LOWS","rawText":"LOWS 120850Z 16005KT 9999 FEW007 BKN020 BKN034 05/04 Q1020 NOSIG","observationTime":"2020-10-12T08:50:00Z","temp":5,"dewpoint":4,"windDirection":160,"windSpeed":9.26,"visibility":6.21,"altim":30.11811,"qualityControlFlag":"TRUE","skyCondition1a":"FEW","skyCondition1b":700,"skyCondition2a":"BKN","skyCondition2b":2000,"flightCategory":"MVFR","metarType":"METAR","geometry_esri":{"x":47.78,"y":13.02,"z":427}}}