{"type":"Feature","geometry":{"type":"Point","coordinates":[47.78,13.02,430]},"properties":{"stationId":"LOWS","rawText":"LOWS 310950Z 06003KT 010V120 9999 FEW045 BKN050 14/07 Q1014 NOSIG","observationTime":"2020-01-31T09:50:00Z","temp":14,"dewpoint":7,"windDirection":60,"windSpeed":5.556,"visibility":6.21,"altim":29.940945,"qualityControlFlag":"TRUE","skyCondition1a":"FEW","skyCondition1b":4500,"skyCondition2a":"BKN","skyCondition2b":5000,"flightCategory":"VFR","metarType":"METAR","geometry_esri":{"x":47.78,"y":13.02,"z":430}}}