{"type":"Feature","geometry":{"type":"Point","coordinates":[47.78,13.02,430]},"properties":{"stationId":"LOWS","rawText":"LOWS 160750Z 21003KT 180V250 9999 -RA FEW004 SCT032 BKN050 12/10 Q1014 NOSIG","observationTime":"2018-04-16T07:50:00Z","temp":12,"dewpoint":10,"windDirection":210,"windSpeed":5.556,"visibility":6.21,"altim":29.940945,"qualityControlFlag":"TRUE","skyCondition1a":"FEW","skyCondition1b":400,"skyCondition2a":"SCT","skyCondition2b":3200,"flightCategory":"VFR","metarType":"METAR","geometry_esri":{"x":47.78,"y":13.02,"z":430}}}