{"type":"Feature","geometry":{"type":"Point","coordinates":[47.78,13.02,430]},"properties":{"stationId":"LOWS","rawText":"LOWS 210520Z 35006KT 6000 FEW015 SCT028 BKN048 09/07 Q1027 NOSIG","observationTime":"2018-10-21T05:20:00Z","temp":9,"dewpoint":7,"windDirection":350,"windSpeed":11.112,"visibility":3.73,"altim":30.324802,"qualityControlFlag":"TRUE","skyCondition1a":"FEW","skyCondition1b":1500,"skyCondition2a":"SCT","skyCondition2b":2800,"flightCategory":"MVFR","metarType":"METAR","geometry_esri":{"x":47.78,"y":13.02,"z":430}}}