{"type":"Feature","geometry":{"type":"Point","coordinates":[47.78,13.02,430]},"properties":{"stationId":"LOWS","rawText":"LOWS 241350Z 29019G29KT 9999 -RA FEW010 SCT022 BKN035 13/09 Q1019 NOSIG","observationTime":"2018-10-24T13:50:00Z","temp":13,"dewpoint":9,"windDirection":290,"windSpeed":35.188,"visibility":6.21,"altim":30.088583,"qualityControlFlag":"TRUE","skyCondition1a":"FEW","skyCondition1b":1000,"skyCondition2a":"SCT","skyCondition2b":2200,"flightCategory":"VFR","metarType":"METAR","geometry_esri":{"x":47.78,"y":13.02,"z":430}}}