{"type":"Feature","geometry":{"type":"Point","coordinates":[47.78,13.02,430]},"properties":{"stationId":"LOWS","rawText":"LOWS 031450Z 26004KT 210V310 9999 FEW040 SCT050 BKN060 05/M01 Q1005 NOSIG","observationTime":"2020-03-03T14:50:00Z","temp":5,"dewpoint":-1,"windDirection":260,"windSpeed":7.408,"visibility":6.21,"altim":29.675198,"qualityControlFlag":"TRUE","skyCondition1a":"FEW","skyCondition1b":4000,"skyCondition2a":"SCT","skyCondition2b":5000,"flightCategory":"VFR","metarType":"METAR","geometry_esri":{"x":47.78,"y":13.02,"z":430}}}