{"type":"Feature","geometry":{"type":"Point","coordinates":[47.78,13.02,430]},"properties":{"stationId":"LOWS","rawText":"LOWS 260550Z 15003KT 9999 FEW005 SCT028 BKN036 02/02 Q1025 NOSIG","observationTime":"2019-12-26T05:50:00Z","temp":2,"dewpoint":2,"windDirection":150,"windSpeed":5.556,"visibility":6.21,"altim":30.265747,"qualityControlFlag":"TRUE","skyCondition1a":"FEW","skyCondition1b":500,"skyCondition2a":"SCT","skyCondition2b":2800,"flightCategory":"VFR","metarType":"METAR","geometry_esri":{"x":47.78,"y":13.02,"z":430}}}