{"type":"Feature","geometry":{"type":"Point","coordinates":[47.78,13.02,430]},"properties":{"stationId":"LOWS","rawText":"LOWS 071750Z 17006KT 9999 SCT120 SCT160 23/17 Q1015 NOSIG","observationTime":"2018-08-07T17:50:00Z","temp":23,"dewpoint":17,"windDirection":170,"windSpeed":11.112,"visibility":6.21,"altim":29.970472,"qualityControlFlag":"TRUE","skyCondition1a":"SCT","skyCondition1b":12000,"skyCondition2a":"SCT","skyCondition2b":16000,"flightCategory":"VFR","metarType":"METAR","geometry_esri":{"x":47.78,"y":13.02,"z":430}}}