{"type":"Feature","geometry":{"type":"Point","coordinates":[47.78,13.02,430]},"properties":{"stationId":"LOWS","rawText":"LOWS 121250Z 05003KT 310V090 9999 FEW045 SCT070 22/12 Q1032 NOSIG","observationTime":"2019-09-12T12:50:00Z","temp":22,"dewpoint":12,"windDirection":50,"windSpeed":5.556,"visibility":6.21,"altim":30.47244,"qualityControlFlag":"TRUE","skyCondition1a":"FEW","skyCondition1b":4500,"skyCondition2a":"SCT","skyCondition2b":7000,"flightCategory":"VFR","metarType":"METAR","geometry_esri":{"x":47.78,"y":13.02,"z":430}}}