{"type":"Feature","geometry":{"type":"Point","coordinates":[47.78,13.02,430]},"properties":{"stationId":"LOWS","rawText":"LOWS 200820Z VRB02KT 3000 BR FEW002 BKN026 10/09 Q1028 NOSIG","observationTime":"2018-10-20T08:20:00Z","temp":10,"dewpoint":9,"windDirection":0,"windSpeed":3.704,"visibility":1.86,"altim":30.35433,"qualityControlFlag":"TRUE","skyCondition1a":"FEW","skyCondition1b":200,"skyCondition2a":"BKN","skyCondition2b":2600,"flightCategory":"IFR","metarType":"METAR","geometry_esri":{"x":47.78,"y":13.02,"z":430}}}