{"type":"Feature","geometry":{"type":"Point","coordinates":[47.78,13.02,430]},"properties":{"stationId":"LOWS","rawText":"LOWS 022050Z 15007KT 100V190 9999 FEW050 BKN090 18/14 Q1019 NOSIG","observationTime":"2018-06-02T20:50:00Z","temp":18,"dewpoint":14,"windDirection":150,"windSpeed":12.964,"visibility":6.21,"altim":30.088583,"qualityControlFlag":"TRUE","skyCondition1a":"FEW","skyCondition1b":5000,"skyCondition2a":"BKN","skyCondition2b":9000,"flightCategory":"VFR","metarType":"METAR","geometry_esri":{"x":47.78,"y":13.02,"z":430}}}