{"type":"Feature","geometry":{"type":"Point","coordinates":[47.78,13.02,430]},"properties":{"stationId":"LOWS","rawText":"LOWS 231050Z 15006KT 130V190 9999 -RA FEW028 SCT034 BKN048 06/05 Q1024 NOSIG","observationTime":"2018-12-23T10:50:00Z","temp":6,"dewpoint":5,"windDirection":150,"windSpeed":11.112,"visibility":6.21,"altim":30.236221,"qualityControlFlag":"TRUE","skyCondition1a":"FEW","skyCondition1b":2800,"skyCondition2a":"SCT","skyCondition2b":3400,"flightCategory":"VFR","metarType":"METAR","geometry_esri":{"x":47.78,"y":13.02,"z":430}}}