{"type":"Feature","geometry":{"type":"Point","coordinates":[47.78,13.02,430]},"properties":{"stationId":"LOWS","rawText":"LOWS 161150Z 04008KT 350V100 9999 FEW050 BKN085 23/10 Q1016 NOSIG","observationTime":"2018-06-16T11:50:00Z","temp":23,"dewpoint":10,"windDirection":40,"windSpeed":14.816,"visibility":6.21,"altim":30,"qualityControlFlag":"TRUE","skyCondition1a":"FEW","skyCondition1b":5000,"skyCondition2a":"BKN","skyCondition2b":8500,"flightCategory":"VFR","metarType":"METAR","geometry_esri":{"x":47.78,"y":13.02,"z":430}}}