{"type":"Feature","geometry":{"type":"Point","coordinates":[47.78,13.02,430]},"properties":{"stationId":"LOWS","rawText":"LOWS 011450Z 25003KT 9999 FEW070 BKN300 M06/M12 Q1004 NOSIG","observationTime":"2018-03-01T14:50:00Z","temp":-6,"dewpoint":-12,"windDirection":250,"windSpeed":5.556,"visibility":6.21,"altim":29.64567,"qualityControlFlag":"TRUE","skyCondition1a":"FEW","skyCondition1b":7000,"skyCondition2a":"BKN","skyCondition2b":30000,"flightCategory":"VFR","metarType":"METAR","geometry_esri":{"x":47.78,"y":13.02,"z":430}}}