{"type":"Feature","geometry":{"type":"Point","coordinates":[47.78,13.02,430]},"properties":{"stationId":"LOWS","rawText":"LOWS 301750Z 35005KT 320V030 9999 FEW050 SCT110 18/07 Q1006 NOSIG","observationTime":"2018-04-30T17:50:00Z","temp":18,"dewpoint":7,"windDirection":350,"windSpeed":9.26,"visibility":6.21,"altim":29.704725,"qualityControlFlag":"TRUE","skyCondition1a":"FEW","skyCondition1b":5000,"skyCondition2a":"SCT","skyCondition2b":11000,"flightCategory":"VFR","metarType":"METAR","geometry_esri":{"x":47.78,"y":13.02,"z":430}}}