{"type":"Feature","geometry":{"type":"Point","coordinates":[47.78,13.02,430]},"properties":{"stationId":"LOWS","rawText":"LOWS 100550Z 33002KT 6000 -RA FEW010 SCT014 BKN050 09/08 Q1008 NOSIG","observationTime":"2019-04-10T05:50:00Z","temp":9,"dewpoint":8,"windDirection":330,"windSpeed":3.704,"visibility":3.73,"altim":29.763779,"qualityControlFlag":"TRUE","skyCondition1a":"FEW","skyCondition1b":1000,"skyCondition2a":"SCT","skyCondition2b":1400,"flightCategory":"MVFR","metarType":"METAR","geometry_esri":{"x":47.78,"y":13.02,"z":430}}}