{"type":"Feature","geometry":{"type":"Point","coordinates":[47.78,13.02,430]},"properties":{"stationId":"LOWS","rawText":"LOWS 041050Z 03012KT 9999 FEW014 BKN023 17/12 Q1016 NOSIG","observationTime":"2018-05-04T10:50:00Z","temp":17,"dewpoint":12,"windDirection":30,"windSpeed":22.224,"visibility":6.21,"altim":30,"qualityControlFlag":"TRUE","skyCondition1a":"FEW","skyCondition1b":1400,"skyCondition2a":"BKN","skyCondition2b":2300,"flightCategory":"MVFR","metarType":"METAR","geometry_esri":{"x":47.78,"y":13.02,"z":430}}}