{"type":"Feature","geometry":{"type":"Point","coordinates":[47.78,13.02,430]},"properties":{"stationId":"LOWS","rawText":"LOWS 051950Z VRB05KT 9999 -RA FEW011 SCT018 BKN024 02/00 Q1024 R15/29//95 NOSIG","observationTime":"2019-01-05T19:50:00Z","temp":2,"dewpoint":0,"windDirection":0,"windSpeed":9.26,"visibility":6.21,"altim":30.236221,"qualityControlFlag":"TRUE","skyCondition1a":"FEW","skyCondition1b":1100,"skyCondition2a":"SCT","skyCondition2b":1800,"flightCategory":"MVFR","metarType":"METAR","geometry_esri":{"x":47.78,"y":13.02,"z":430}}}