{"type":"Feature","geometry":{"type":"Point","coordinates":[47.78,13.02,430]},"properties":{"stationId":"LOWS","rawText":"LOWS 021850Z 16005KT 9999 FEW050 BKN060 09/06 Q1022 NOSIG","observationTime":"2018-10-02T18:50:00Z","temp":9,"dewpoint":6,"windDirection":160,"windSpeed":9.26,"visibility":6.21,"altim":30.177166,"qualityControlFlag":"TRUE","skyCondition1a":"FEW","skyCondition1b":5000,"skyCondition2a":"BKN","skyCondition2b":6000,"flightCategory":"VFR","metarType":"METAR","geometry_esri":{"x":47.78,"y":13.02,"z":430}}}