{"type":"Feature","geometry":{"type":"Point","coordinates":[47.78,13.02,430]},"properties":{"stationId":"LOWS","rawText":"LOWS 231450Z 29010KT 250V320 9999 FEW015 SCT028 BKN060 07/02 Q1010 NOSIG","observationTime":"2019-12-23T14:50:00Z","temp":7,"dewpoint":2,"windDirection":290,"windSpeed":18.52,"visibility":6.21,"altim":29.822834,"qualityControlFlag":"TRUE","skyCondition1a":"FEW","skyCondition1b":1500,"skyCondition2a":"SCT","skyCondition2b":2800,"flightCategory":"VFR","metarType":"METAR","geometry_esri":{"x":47.78,"y":13.02,"z":430}}}