{"type":"Feature","geometry":{"type":"Point","coordinates":[47.78,13.02,427]},"properties":{"stationId":"LOWS","rawText":"LOWS 291150Z 28007KT 210V340 9999 SCT050 BKN060 11/03 Q1000 R15/29//95 NOSIG","observationTime":"2021-01-29T11:50:00Z","temp":11,"dewpoint":3,"windDirection":280,"windSpeed":12.964,"visibility":6.21,"altim":29.52756,"qualityControlFlag":"TRUE","skyCondition1a":"SCT","skyCondition1b":5000,"skyCondition2a":"BKN","skyCondition2b":6000,"flightCategory":"VFR","metarType":"METAR","geometry_esri":{"x":47.78,"y":13.02,"z":427}}}