{"type":"Feature","geometry":{"type":"Point","coordinates":[47.78,13.02,430]},"properties":{"stationId":"LOWS","rawText":"LOWS 301750Z 15006KT 120V180 9999 FEW050 BKN070 16/14 Q1021 NOSIG","observationTime":"2018-08-30T17:50:00Z","temp":16,"dewpoint":14,"windDirection":150,"windSpeed":11.112,"visibility":6.21,"altim":30.147638,"qualityControlFlag":"TRUE","skyCondition1a":"FEW","skyCondition1b":5000,"skyCondition2a":"BKN","skyCondition2b":7000,"flightCategory":"VFR","metarType":"METAR","geometry_esri":{"x":47.78,"y":13.02,"z":430}}}