{"type":"Feature","geometry":{"type":"Point","coordinates":[47.78,13.02,430]},"properties":{"stationId":"LOWS","rawText":"LOWS 211350Z 32007KT 290V350 9999 FEW060 BKN100 12/03 Q1028 NOSIG","observationTime":"2019-02-21T13:50:00Z","temp":12,"dewpoint":3,"windDirection":320,"windSpeed":12.964,"visibility":6.21,"altim":30.35433,"qualityControlFlag":"TRUE","skyCondition1a":"FEW","skyCondition1b":6000,"skyCondition2a":"BKN","skyCondition2b":10000,"flightCategory":"VFR","metarType":"METAR","geometry_esri":{"x":47.78,"y":13.02,"z":430}}}