{"type":"Feature","geometry":{"type":"Point","coordinates":[47.78,13.02,430]},"properties":{"stationId":"LOWS","rawText":"LOWS 141350Z 01005KT 270V060 9999 FEW060 FEW060CB SCT120 27/12 Q1017 NOSIG","observationTime":"2018-07-14T13:50:00Z","temp":27,"dewpoint":12,"windDirection":10,"windSpeed":9.26,"visibility":6.21,"altim":30.029528,"qualityControlFlag":"TRUE","skyCondition1a":"FEW","skyCondition1b":6000,"skyCondition2a":"FEW","skyCondition2b":6000,"flightCategory":"VFR","metarType":"METAR","geometry_esri":{"x":47.78,"y":13.02,"z":430}}}