{"type":"Feature","geometry":{"type":"Point","coordinates":[47.78,13.02,427]},"properties":{"stationId":"LOWS","rawText":"LOWS 280950Z 30004KT 9999 -RA FEW006 BKN028 08/07 Q1011 NOSIG","observationTime":"2020-09-28T09:50:00Z","temp":8,"dewpoint":7,"windDirection":300,"windSpeed":7.408,"visibility":6.21,"altim":29.852362,"qualityControlFlag":"TRUE","skyCondition1a":"FEW","skyCondition1b":600,"skyCondition2a":"BKN","skyCondition2b":2800,"flightCategory":"MVFR","metarType":"METAR","geometry_esri":{"x":47.78,"y":13.02,"z":427}}}