{"type":"Feature","geometry":{"type":"Point","coordinates":[47.78,13.02,430]},"properties":{"stationId":"LOWS","rawText":"LOWS 062150Z 14006KT 9999 FEW006 SCT045 BKN055 07/06 Q1022 NOSIG","observationTime":"2018-12-06T21:50:00Z","temp":7,"dewpoint":6,"windDirection":140,"windSpeed":11.112,"visibility":6.21,"altim":30.177166,"qualityControlFlag":"TRUE","skyCondition1a":"FEW","skyCondition1b":600,"skyCondition2a":"SCT","skyCondition2b":4500,"flightCategory":"VFR","metarType":"METAR","geometry_esri":{"x":47.78,"y":13.02,"z":430}}}