{"type":"Feature","geometry":{"type":"Point","coordinates":[47.78,13.02,430]},"properties":{"stationId":"LOWS","rawText":"LOWS 230450Z 33002KT 9999 FEW006 SCT023 BKN030 15/14 Q1026 NOSIG","observationTime":"2019-08-23T04:50:00Z","temp":15,"dewpoint":14,"windDirection":330,"windSpeed":3.704,"visibility":6.21,"altim":30.295275,"qualityControlFlag":"TRUE","skyCondition1a":"FEW","skyCondition1b":600,"skyCondition2a":"SCT","skyCondition2b":2300,"flightCategory":"MVFR","metarType":"METAR","geometry_esri":{"x":47.78,"y":13.02,"z":430}}}