{"type":"Feature","geometry":{"type":"Point","coordinates":[47.78,13.02,430]},"properties":{"stationId":"LOWS","rawText":"LOWS 161650Z 12004KT 080V150 9999 -SN FEW020 SCT024 BKN050 M00/M04 Q1015 R15/2///95 NOSIG","observationTime":"2018-12-16T16:50:00Z","temp":0,"dewpoint":-4,"windDirection":120,"windSpeed":7.408,"visibility":6.21,"altim":29.970472,"qualityControlFlag":"TRUE","skyCondition1a":"FEW","skyCondition1b":2000,"skyCondition2a":"SCT","skyCondition2b":2400,"flightCategory":"VFR","metarType":"METAR","geometry_esri":{"x":47.78,"y":13.02,"z":430}}}