{"type":"Feature","geometry":{"type":"Point","coordinates":[47.78,13.02,427]},"properties":{"stationId":"LOWS","rawText":"LOWS 091250Z VRB03KT 7000 FEW004 BKN008 BKN030 02/01 Q1007 NOSIG","observationTime":"2020-12-09T12:50:00Z","temp":2,"dewpoint":1,"windDirection":0,"windSpeed":5.556,"visibility":4.35,"altim":29.734253,"qualityControlFlag":"TRUE","skyCondition1a":"FEW","skyCondition1b":400,"skyCondition2a":"BKN","skyCondition2b":800,"flightCategory":"IFR","metarType":"METAR","geometry_esri":{"x":47.78,"y":13.02,"z":427}}}