{"type":"Feature","geometry":{"type":"Point","coordinates":[47.78,13.02,430]},"properties":{"stationId":"LOWS","rawText":"LOWS 291450Z 14013KT 9999 FEW040 BKN300 26/07 Q1004 NOSIG","observationTime":"2018-04-29T14:50:00Z","temp":26,"dewpoint":7,"windDirection":140,"windSpeed":24.076,"visibility":6.21,"altim":29.64567,"qualityControlFlag":"TRUE","skyCondition1a":"FEW","skyCondition1b":4000,"skyCondition2a":"BKN","skyCondition2b":30000,"flightCategory":"VFR","metarType":"METAR","geometry_esri":{"x":47.78,"y":13.02,"z":430}}}