{"type":"Feature","geometry":{"type":"Point","coordinates":[47.78,13.02,427]},"properties":{"stationId":"LOWS","rawText":"LOWS 101950Z 31004KT 8000 FEW015 BKN042 M04/M05 Q1021 NOSIG","observationTime":"2021-01-10T19:50:00Z","temp":-4,"dewpoint":-5,"windDirection":310,"windSpeed":7.408,"visibility":4.97,"altim":30.147638,"qualityControlFlag":"TRUE","skyCondition1a":"FEW","skyCondition1b":1500,"skyCondition2a":"BKN","skyCondition2b":4200,"flightCategory":"MVFR","metarType":"METAR","geometry_esri":{"x":47.78,"y":13.02,"z":427}}}