{"type":"Feature","geometry":{"type":"Point","coordinates":[47.78,13.02,430]},"properties":{"stationId":"LOWS","rawText":"LOWS 051150Z 36005KT 9999 FEW120 BKN300 09/02 Q0996 NOSIG","observationTime":"2018-03-05T11:50:00Z","temp":9,"dewpoint":2,"windDirection":360,"windSpeed":9.26,"visibility":6.21,"altim":29.409449,"qualityControlFlag":"TRUE","skyCondition1a":"FEW","skyCondition1b":12000,"skyCondition2a":"BKN","skyCondition2b":30000,"flightCategory":"VFR","metarType":"METAR","geometry_esri":{"x":47.78,"y":13.02,"z":430}}}