{"type":"Feature","geometry":{"type":"Point","coordinates":[47.78,13.02,427]},"properties":{"stationId":"LOWS","rawText":"LOWS 070950Z VRB01KT 9999 -RA FEW007 SCT030 BKN055 15/12 Q1023 NOSIG","observationTime":"2020-09-07T09:50:00Z","temp":15,"dewpoint":12,"windDirection":0,"windSpeed":1.852,"visibility":6.21,"altim":30.206694,"qualityControlFlag":"TRUE","skyCondition1a":"FEW","skyCondition1b":700,"skyCondition2a":"SCT","skyCondition2b":3000,"flightCategory":"VFR","metarType":"METAR","geometry_esri":{"x":47.78,"y":13.02,"z":427}}}