{"type":"Feature","geometry":{"type":"Point","coordinates":[47.78,13.02,430]},"properties":{"stationId":"LOWS","rawText":"LOWS 061050Z VRB04KT 9999 FEW050 BKN300 12/02 Q1021 NOSIG","observationTime":"2018-04-06T10:50:00Z","temp":12,"dewpoint":2,"windDirection":0,"windSpeed":7.408,"visibility":6.21,"altim":30.147638,"qualityControlFlag":"TRUE","skyCondition1a":"FEW","skyCondition1b":5000,"skyCondition2a":"BKN","skyCondition2b":30000,"flightCategory":"VFR","metarType":"METAR","geometry_esri":{"x":47.78,"y":13.02,"z":430}}}