{"type":"Feature","geometry":{"type":"Point","coordinates":[47.78,13.02,427]},"properties":{"stationId":"LOWS","rawText":"LOWS 010850Z 19004KT 160V220 8000 -SHRA FEW004 SCT014 BKN035 13/11 Q1016 RERA NOSIG","observationTime":"2020-09-01T08:50:00Z","temp":13,"dewpoint":11,"windDirection":190,"windSpeed":7.408,"visibility":4.97,"altim":30,"qualityControlFlag":"TRUE","skyCondition1a":"FEW","skyCondition1b":400,"skyCondition2a":"SCT","skyCondition2b":1400,"flightCategory":"MVFR","metarType":"METAR","geometry_esri":{"x":47.78,"y":13.02,"z":427}}}