{"type":"Feature","geometry":{"type":"Point","coordinates":[47.78,13.02,427]},"properties":{"stationId":"LOWS","rawText":"LOWS 131250Z 19006KT 160V220 9999 FEW010 SCT034 BKN060 09/05 Q1011 NOSIG","observationTime":"2020-10-13T12:50:00Z","temp":9,"dewpoint":5,"windDirection":190,"windSpeed":11.112,"visibility":6.21,"altim":29.852362,"qualityControlFlag":"TRUE","skyCondition1a":"FEW","skyCondition1b":1000,"skyCondition2a":"SCT","skyCondition2b":3400,"flightCategory":"VFR","metarType":"METAR","geometry_esri":{"x":47.78,"y":13.02,"z":427}}}