{"type":"Feature","geometry":{"type":"Point","coordinates":[47.78,13.02,427]},"properties":{"stationId":"LOWS","rawText":"LOWS 201850Z 29003KT 260V320 9999 FEW026 SCT038 BKN070 02/01 Q1035 NOSIG","observationTime":"2020-11-20T18:50:00Z","temp":2,"dewpoint":1,"windDirection":290,"windSpeed":5.556,"visibility":6.21,"altim":30.561024,"qualityControlFlag":"TRUE","skyCondition1a":"FEW","skyCondition1b":2600,"skyCondition2a":"SCT","skyCondition2b":3800,"flightCategory":"VFR","metarType":"METAR","geometry_esri":{"x":47.78,"y":13.02,"z":427}}}