{"type":"Feature","geometry":{"type":"Point","coordinates":[47.78,13.02,430]},"properties":{"stationId":"LOWS","rawText":"LOWS 151850Z 19002KT 9999 FEW045 BKN075 17/14 Q1025 NOSIG","observationTime":"2018-09-15T18:50:00Z","temp":17,"dewpoint":14,"windDirection":190,"windSpeed":3.704,"visibility":6.21,"altim":30.265747,"qualityControlFlag":"TRUE","skyCondition1a":"FEW","skyCondition1b":4500,"skyCondition2a":"BKN","skyCondition2b":7500,"flightCategory":"VFR","metarType":"METAR","geometry_esri":{"x":47.78,"y":13.02,"z":430}}}