{"type":"Feature","geometry":{"type":"Point","coordinates":[47.78,13.02,427]},"properties":{"stationId":"LOWS","rawText":"LOWS 151550Z 28004KT 9999 FEW035 BKN060 M02/M06 Q1021 R15/810195 NOSIG","observationTime":"2021-01-15T15:50:00Z","temp":-2,"dewpoint":-6,"windDirection":280,"windSpeed":7.408,"visibility":6.21,"altim":30.147638,"qualityControlFlag":"TRUE","skyCondition1a":"FEW","skyCondition1b":3500,"skyCondition2a":"BKN","skyCondition2b":6000,"flightCategory":"VFR","metarType":"METAR","geometry_esri":{"x":47.78,"y":13.02,"z":427}}}