{"type":"Feature","geometry":{"type":"Point","coordinates":[47.78,13.02,430]},"properties":{"stationId":"LOWS","rawText":"LOWS 220750Z 31003KT 250V340 9999 FEW011 BKN021 16/13 Q1025 NOSIG","observationTime":"2019-08-22T07:50:00Z","temp":16,"dewpoint":13,"windDirection":310,"windSpeed":5.556,"visibility":6.21,"altim":30.265747,"qualityControlFlag":"TRUE","skyCondition1a":"FEW","skyCondition1b":1100,"skyCondition2a":"BKN","skyCondition2b":2100,"flightCategory":"MVFR","metarType":"METAR","geometry_esri":{"x":47.78,"y":13.02,"z":430}}}