{"type":"Feature","geometry":{"type":"Point","coordinates":[47.78,13.02,430]},"properties":{"stationId":"LOWS","rawText":"LOWS 031150Z 36007KT 9999 SCT130 BKN300 05/M01 Q0994 NOSIG","observationTime":"2018-03-03T11:50:00Z","temp":5,"dewpoint":-1,"windDirection":360,"windSpeed":12.964,"visibility":6.21,"altim":29.350393,"qualityControlFlag":"TRUE","skyCondition1a":"SCT","skyCondition1b":13000,"skyCondition2a":"BKN","skyCondition2b":30000,"flightCategory":"VFR","metarType":"METAR","geometry_esri":{"x":47.78,"y":13.02,"z":430}}}