{"type":"Feature","geometry":{"type":"Point","coordinates":[47.78,13.02,430]},"properties":{"stationId":"LOWS","rawText":"LOWS 241250Z 15010KT 9999 SCT080 BKN160 08/00 Q1012 NOSIG","observationTime":"2019-12-24T12:50:00Z","temp":8,"dewpoint":0,"windDirection":150,"windSpeed":18.52,"visibility":6.21,"altim":29.88189,"qualityControlFlag":"TRUE","skyCondition1a":"SCT","skyCondition1b":8000,"skyCondition2a":"BKN","skyCondition2b":16000,"flightCategory":"VFR","metarType":"METAR","geometry_esri":{"x":47.78,"y":13.02,"z":430}}}