{"type":"Feature","geometry":{"type":"Point","coordinates":[47.78,13.02,430]},"properties":{"stationId":"LOWS","rawText":"LOWS 180850Z 36004KT 300V060 9999 FEW024 BKN100 18/12 Q1014 NOSIG","observationTime":"2020-06-18T08:50:00Z","temp":18,"dewpoint":12,"windDirection":360,"windSpeed":7.408,"visibility":6.21,"altim":29.940945,"qualityControlFlag":"TRUE","skyCondition1a":"FEW","skyCondition1b":2400,"skyCondition2a":"BKN","skyCondition2b":10000,"flightCategory":"VFR","metarType":"METAR","geometry_esri":{"x":47.78,"y":13.02,"z":430}}}