{"type":"Feature","geometry":{"type":"Point","coordinates":[47.78,13.02,430]},"properties":{"stationId":"LOWS","rawText":"LOWS 181550Z 35005KT 280V030 9999 FEW050 SCT075 25/14 Q1016 NOSIG","observationTime":"2018-07-18T15:50:00Z","temp":25,"dewpoint":14,"windDirection":350,"windSpeed":9.26,"visibility":6.21,"altim":30,"qualityControlFlag":"TRUE","skyCondition1a":"FEW","skyCondition1b":5000,"skyCondition2a":"SCT","skyCondition2b":7500,"flightCategory":"VFR","metarType":"METAR","geometry_esri":{"x":47.78,"y":13.02,"z":430}}}