{"type":"Feature","geometry":{"type":"Point","coordinates":[47.78,13.02,430]},"properties":{"stationId":"LOWS","rawText":"LOWS 160950Z VRB02KT 9999 FEW014 SCT036 BKN050 14/11 Q1014 NOSIG","observationTime":"2018-04-16T09:50:00Z","temp":14,"dewpoint":11,"windDirection":0,"windSpeed":3.704,"visibility":6.21,"altim":29.940945,"qualityControlFlag":"TRUE","skyCondition1a":"FEW","skyCondition1b":1400,"skyCondition2a":"SCT","skyCondition2b":3600,"flightCategory":"VFR","metarType":"METAR","geometry_esri":{"x":47.78,"y":13.02,"z":430}}}