{"type":"Feature","geometry":{"type":"Point","coordinates":[47.78,13.02,427]},"properties":{"stationId":"LOWS","rawText":"LOWS 290850Z VRB01KT 9999 FEW012 SCT014 BKN018 01/M00 Q1022 NOSIG","observationTime":"2020-11-29T08:50:00Z","temp":1,"dewpoint":0,"windDirection":0,"windSpeed":1.852,"visibility":6.21,"altim":30.177166,"qualityControlFlag":"TRUE","skyCondition1a":"FEW","skyCondition1b":1200,"skyCondition2a":"SCT","skyCondition2b":1400,"flightCategory":"MVFR","metarType":"METAR","geometry_esri":{"x":47.78,"y":13.02,"z":427}}}