{"type":"Feature","geometry":{"type":"Point","coordinates":[47.78,13.02,430]},"properties":{"stationId":"LOWS","rawText":"LOWS 161550Z 01006KT 9999 FEW030 SCT036 BKN070 20/13 Q1014 NOSIG","observationTime":"2020-06-16T15:50:00Z","temp":20,"dewpoint":13,"windDirection":10,"windSpeed":11.112,"visibility":6.21,"altim":29.940945,"qualityControlFlag":"TRUE","skyCondition1a":"FEW","skyCondition1b":3000,"skyCondition2a":"SCT","skyCondition2b":3600,"flightCategory":"VFR","metarType":"METAR","geometry_esri":{"x":47.78,"y":13.02,"z":430}}}