{"type":"Feature","geometry":{"type":"Point","coordinates":[47.78,13.02,430]},"properties":{"stationId":"LOWS","rawText":"LOWS 172050Z 14007KT 100V160 9000 -SHRA FEW016 BKN050 09/08 Q1031 NOSIG","observationTime":"2020-03-17T20:50:00Z","temp":9,"dewpoint":8,"windDirection":140,"windSpeed":12.964,"visibility":5.59,"altim":30.442913,"qualityControlFlag":"TRUE","skyCondition1a":"FEW","skyCondition1b":1600,"skyCondition2a":"BKN","skyCondition2b":5000,"flightCategory":"VFR","metarType":"METAR","geometry_esri":{"x":47.78,"y":13.02,"z":430}}}