{"type":"Feature","geometry":{"type":"Point","coordinates":[47.78,13.02,430]},"properties":{"stationId":"LOWS","rawText":"LOWS 121650Z 14003KT 8000 -SN FEW007 SCT020 BKN030 01/M00 Q1003 R15/2///95 NOSIG","observationTime":"2019-12-12T16:50:00Z","temp":1,"dewpoint":0,"windDirection":140,"windSpeed":5.556,"visibility":4.97,"altim":29.616142,"qualityControlFlag":"TRUE","skyCondition1a":"FEW","skyCondition1b":700,"skyCondition2a":"SCT","skyCondition2b":2000,"flightCategory":"MVFR","metarType":"SPECI","geometry_esri":{"x":47.78,"y":13.02,"z":430}}}