{"type":"Feature","geometry":{"type":"Point","coordinates":[47.78,13.02,430]},"properties":{"stationId":"LOWS","rawText":"LOWS 030550Z 26004KT 9999 FEW003 SCT045 BKN050 16/15 Q1018 NOSIG","observationTime":"2020-07-03T05:50:00Z","temp":16,"dewpoint":15,"windDirection":260,"windSpeed":7.408,"visibility":6.21,"altim":30.059055,"qualityControlFlag":"TRUE","skyCondition1a":"FEW","skyCondition1b":300,"skyCondition2a":"SCT","skyCondition2b":4500,"flightCategory":"VFR","metarType":"METAR","geometry_esri":{"x":47.78,"y":13.02,"z":430}}}