{"type":"Feature","geometry":{"type":"Point","coordinates":[47.78,13.02,430]},"properties":{"stationId":"LOWS","rawText":"LOWS 191350Z 27005KT 210V330 9999 FEW018 SCT025 BKN045 16/11 Q1018 NOSIG","observationTime":"2020-06-19T13:50:00Z","temp":16,"dewpoint":11,"windDirection":270,"windSpeed":9.26,"visibility":6.21,"altim":30.059055,"qualityControlFlag":"TRUE","skyCondition1a":"FEW","skyCondition1b":1800,"skyCondition2a":"SCT","skyCondition2b":2500,"flightCategory":"VFR","metarType":"METAR","geometry_esri":{"x":47.78,"y":13.02,"z":430}}}