{"type":"Feature","geometry":{"type":"Point","coordinates":[47.78,13.02,430]},"properties":{"stationId":"LOWS","rawText":"LOWS 180750Z 21004KT 180V250 9999 -RA FEW012 SCT018 BKN024 04/02 Q1027 RERA NOSIG","observationTime":"2020-01-18T07:50:00Z","temp":4,"dewpoint":2,"windDirection":210,"windSpeed":7.408,"visibility":6.21,"altim":30.324802,"qualityControlFlag":"TRUE","skyCondition1a":"FEW","skyCondition1b":1200,"skyCondition2a":"SCT","skyCondition2b":1800,"flightCategory":"MVFR","metarType":"METAR","geometry_esri":{"x":47.78,"y":13.02,"z":430}}}