{"type":"Feature","geometry":{"type":"Point","coordinates":[47.78,13.02,430]},"properties":{"stationId":"LOWS","rawText":"LOWS 222150Z 03004KT 7000 FEW005 BKN006 M02/M03 Q1035 NOSIG","observationTime":"2020-01-22T21:50:00Z","temp":-2,"dewpoint":-3,"windDirection":30,"windSpeed":7.408,"visibility":4.35,"altim":30.561024,"qualityControlFlag":"TRUE","skyCondition1a":"FEW","skyCondition1b":500,"skyCondition2a":"BKN","skyCondition2b":600,"flightCategory":"IFR","metarType":"METAR","geometry_esri":{"x":47.78,"y":13.02,"z":430}}}