{"type":"Feature","geometry":{"type":"Point","coordinates":[47.78,13.02,430]},"properties":{"stationId":"LOWS","rawText":"LOWS 091350Z 31008KT 280V340 9999 FEW050 BKN110 BKN300 24/11 Q1018 NOSIG","observationTime":"2018-07-09T13:50:00Z","temp":24,"dewpoint":11,"windDirection":310,"windSpeed":14.816,"visibility":6.21,"altim":30.059055,"qualityControlFlag":"TRUE","skyCondition1a":"FEW","skyCondition1b":5000,"skyCondition2a":"BKN","skyCondition2b":11000,"flightCategory":"VFR","metarType":"METAR","geometry_esri":{"x":47.78,"y":13.02,"z":430}}}