{"type":"Feature","geometry":{"type":"Point","coordinates":[47.78,13.02,430]},"properties":{"stationId":"LOWS","rawText":"LOWS 250650Z 15004KT 9999 FEW006 BKN060 14/12 Q1015 NOSIG","observationTime":"2018-08-25T06:50:00Z","temp":14,"dewpoint":12,"windDirection":150,"windSpeed":7.408,"visibility":6.21,"altim":29.970472,"qualityControlFlag":"TRUE","skyCondition1a":"FEW","skyCondition1b":600,"skyCondition2a":"BKN","skyCondition2b":6000,"flightCategory":"VFR","metarType":"METAR","geometry_esri":{"x":47.78,"y":13.02,"z":430}}}