{"type":"Feature","geometry":{"type":"Point","coordinates":[47.78,13.02,430]},"properties":{"stationId":"LOWS","rawText":"LOWS 100950Z 36009KT 320V040 9999 FEW038 SCT180 BKN250 22/13 Q1015 NOSIG","observationTime":"2018-07-10T09:50:00Z","temp":22,"dewpoint":13,"windDirection":360,"windSpeed":16.668,"visibility":6.21,"altim":29.970472,"qualityControlFlag":"TRUE","skyCondition1a":"FEW","skyCondition1b":3800,"skyCondition2a":"SCT","skyCondition2b":18000,"flightCategory":"VFR","metarType":"METAR","geometry_esri":{"x":47.78,"y":13.02,"z":430}}}