{"type":"Feature","geometry":{"type":"Point","coordinates":[47.78,13.02,430]},"properties":{"stationId":"LOWS","rawText":"LOWS 081950Z 03007KT 9999 FEW060 SCT300 18/07 Q1008 NOSIG","observationTime":"2018-05-08T19:50:00Z","temp":18,"dewpoint":7,"windDirection":30,"windSpeed":12.964,"visibility":6.21,"altim":29.763779,"qualityControlFlag":"TRUE","skyCondition1a":"FEW","skyCondition1b":6000,"skyCondition2a":"SCT","skyCondition2b":30000,"flightCategory":"VFR","metarType":"METAR","geometry_esri":{"x":47.78,"y":13.02,"z":430}}}