{"type":"Feature","geometry":{"type":"Point","coordinates":[47.78,13.02,427]},"properties":{"stationId":"LOWS","rawText":"LOWS 100850Z VRB01KT 3500 -RASN BR FEW005 SCT007 BKN010 01/01 Q1006 NOSIG","observationTime":"2020-12-10T08:50:00Z","temp":1,"dewpoint":1,"windDirection":0,"windSpeed":1.852,"visibility":2.17,"altim":29.704725,"qualityControlFlag":"TRUE","skyCondition1a":"FEW","skyCondition1b":500,"skyCondition2a":"SCT","skyCondition2b":700,"flightCategory":"IFR","metarType":"METAR","geometry_esri":{"x":47.78,"y":13.02,"z":427}}}