{"type":"Feature","geometry":{"type":"Point","coordinates":[47.78,13.02,430]},"properties":{"stationId":"LOWS","rawText":"LOWS 071650Z 29010KT 250V320 9999 FEW010 SCT022 BKN060 03/00 Q1030 R15/29//95 NOSIG","observationTime":"2019-01-07T16:50:00Z","temp":3,"dewpoint":0,"windDirection":290,"windSpeed":18.52,"visibility":6.21,"altim":30.413385,"qualityControlFlag":"TRUE","skyCondition1a":"FEW","skyCondition1b":1000,"skyCondition2a":"SCT","skyCondition2b":2200,"flightCategory":"VFR","metarType":"METAR","geometry_esri":{"x":47.78,"y":13.02,"z":430}}}