{"type":"Feature","geometry":{"type":"Point","coordinates":[47.78,13.02,430]},"properties":{"stationId":"LOWS","rawText":"LOWS 110950Z 19003KT 130V250 9999 FEW050 SCT090 22/13 Q1024 NOSIG","observationTime":"2018-08-11T09:50:00Z","temp":22,"dewpoint":13,"windDirection":190,"windSpeed":5.556,"visibility":6.21,"altim":30.236221,"qualityControlFlag":"TRUE","skyCondition1a":"FEW","skyCondition1b":5000,"skyCondition2a":"SCT","skyCondition2b":9000,"flightCategory":"VFR","metarType":"METAR","geometry_esri":{"x":47.78,"y":13.02,"z":430}}}