{"type":"Feature","geometry":{"type":"Point","coordinates":[47.78,13.02,430]},"properties":{"stationId":"LOWS","rawText":"LOWS 121750Z 31007KT 280V360 9999 FEW050 BKN060 16/07 Q1014 NOSIG","observationTime":"2020-03-12T17:50:00Z","temp":16,"dewpoint":7,"windDirection":310,"windSpeed":12.964,"visibility":6.21,"altim":29.940945,"qualityControlFlag":"TRUE","skyCondition1a":"FEW","skyCondition1b":5000,"skyCondition2a":"BKN","skyCondition2b":6000,"flightCategory":"VFR","metarType":"METAR","geometry_esri":{"x":47.78,"y":13.02,"z":430}}}