{"type":"Feature","geometry":{"type":"Point","coordinates":[47.78,13.02,430]},"properties":{"stationId":"LOWS","rawText":"LOWS 060820Z 17008KT 9999 FEW007 SCT060 BKN100 06/04 Q0996 NOSIG","observationTime":"2020-03-06T08:20:00Z","temp":6,"dewpoint":4,"windDirection":170,"windSpeed":14.816,"visibility":6.21,"altim":29.409449,"qualityControlFlag":"TRUE","skyCondition1a":"FEW","skyCondition1b":700,"skyCondition2a":"SCT","skyCondition2b":6000,"flightCategory":"VFR","metarType":"METAR","geometry_esri":{"x":47.78,"y":13.02,"z":430}}}