{"type":"Feature","geometry":{"type":"Point","coordinates":[47.78,13.02,427]},"properties":{"stationId":"LOWS","rawText":"LOWS 161050Z 27007KT 230V290 9999 FEW026 SCT050 BKN070 M02/M07 Q1024 R15/450195 NOSIG","observationTime":"2021-01-16T10:50:00Z","temp":-2,"dewpoint":-7,"windDirection":270,"windSpeed":12.964,"visibility":6.21,"altim":30.236221,"qualityControlFlag":"TRUE","skyCondition1a":"FEW","skyCondition1b":2600,"skyCondition2a":"SCT","skyCondition2b":5000,"flightCategory":"VFR","metarType":"METAR","geometry_esri":{"x":47.78,"y":13.02,"z":427}}}