{"type":"Feature","geometry":{"type":"Point","coordinates":[47.78,13.02,430]},"properties":{"stationId":"LOWS","rawText":"LOWS 041650Z 22009KT 190V250 9999 SCT045 SCT060 BKN090 07/02 Q1004 NOSIG","observationTime":"2019-03-04T16:50:00Z","temp":7,"dewpoint":2,"windDirection":220,"windSpeed":16.668,"visibility":6.21,"altim":29.64567,"qualityControlFlag":"TRUE","skyCondition1a":"SCT","skyCondition1b":4500,"skyCondition2a":"SCT","skyCondition2b":6000,"flightCategory":"VFR","metarType":"METAR","geometry_esri":{"x":47.78,"y":13.02,"z":430}}}