{"type":"Feature","geometry":{"type":"Point","coordinates":[47.78,13.02,430]},"properties":{"stationId":"LOWS","rawText":"LOWS 151850Z 24002KT 9999 FEW050 SCT130 20/17 Q1015 NOSIG","observationTime":"2020-08-15T18:50:00Z","temp":20,"dewpoint":17,"windDirection":240,"windSpeed":3.704,"visibility":6.21,"altim":29.970472,"qualityControlFlag":"TRUE","skyCondition1a":"FEW","skyCondition1b":5000,"skyCondition2a":"SCT","skyCondition2b":13000,"flightCategory":"VFR","metarType":"METAR","geometry_esri":{"x":47.78,"y":13.02,"z":430}}}