{"type":"Feature","geometry":{"type":"Point","coordinates":[47.78,13.02,430]},"properties":{"stationId":"LOWS","rawText":"LOWS 110920Z 14005KT 100V160 9999 FEW130 BKN140 09/05 Q1015 NOSIG","observationTime":"2018-11-11T09:20:00Z","temp":9,"dewpoint":5,"windDirection":140,"windSpeed":9.26,"visibility":6.21,"altim":29.970472,"qualityControlFlag":"TRUE","skyCondition1a":"FEW","skyCondition1b":13000,"skyCondition2a":"BKN","skyCondition2b":14000,"flightCategory":"VFR","metarType":"METAR","geometry_esri":{"x":47.78,"y":13.02,"z":430}}}