{"type":"Feature","geometry":{"type":"Point","coordinates":[47.78,13.02,430]},"properties":{"stationId":"LOWS","rawText":"LOWS 080750Z VRB02KT 8000 -RADZ FEW008 SCT020 BKN030 08/07 Q1010 NOSIG","observationTime":"2019-04-08T07:50:00Z","temp":8,"dewpoint":7,"windDirection":0,"windSpeed":3.704,"visibility":4.97,"altim":29.822834,"qualityControlFlag":"TRUE","skyCondition1a":"FEW","skyCondition1b":800,"skyCondition2a":"SCT","skyCondition2b":2000,"flightCategory":"MVFR","metarType":"METAR","geometry_esri":{"x":47.78,"y":13.02,"z":430}}}