{"type":"Feature","geometry":{"type":"Point","coordinates":[47.78,13.02,430]},"properties":{"stationId":"LOWS","rawText":"LOWS 291750Z 18006KT 140V210 9999 FEW003 SCT011 BKN020 01/00 Q1013 NOSIG","observationTime":"2020-01-29T17:50:00Z","temp":1,"dewpoint":0,"windDirection":180,"windSpeed":11.112,"visibility":6.21,"altim":29.911417,"qualityControlFlag":"TRUE","skyCondition1a":"FEW","skyCondition1b":300,"skyCondition2a":"SCT","skyCondition2b":1100,"flightCategory":"MVFR","metarType":"METAR","geometry_esri":{"x":47.78,"y":13.02,"z":430}}}