{"type":"Feature","geometry":{"type":"Point","coordinates":[47.78,13.02,430]},"properties":{"stationId":"LOWS","rawText":"LOWS 282050Z 32004KT 270V350 9999 FEW004 BKN010 BKN120 06/05 Q1004 NOSIG","observationTime":"2018-10-28T20:50:00Z","temp":6,"dewpoint":5,"windDirection":320,"windSpeed":7.408,"visibility":6.21,"altim":29.64567,"qualityControlFlag":"TRUE","skyCondition1a":"FEW","skyCondition1b":400,"skyCondition2a":"BKN","skyCondition2b":1000,"flightCategory":"MVFR","metarType":"METAR","geometry_esri":{"x":47.78,"y":13.02,"z":430}}}