{"type":"Feature","geometry":{"type":"Point","coordinates":[47.78,13.02,430]},"properties":{"stationId":"LOWS","rawText":"LOWS 291850Z 17005KT 9999 FEW130 SCT300 20/17 Q1014 NOSIG","observationTime":"2018-08-29T18:50:00Z","temp":20,"dewpoint":17,"windDirection":170,"windSpeed":9.26,"visibility":6.21,"altim":29.940945,"qualityControlFlag":"TRUE","skyCondition1a":"FEW","skyCondition1b":13000,"skyCondition2a":"SCT","skyCondition2b":30000,"flightCategory":"VFR","metarType":"METAR","geometry_esri":{"x":47.78,"y":13.02,"z":430}}}