{"type":"Feature","geometry":{"type":"Point","coordinates":[47.78,13.02,430]},"properties":{"stationId":"LOWS","rawText":"LOWS 161550Z 21006KT 9999 FEW035 BKN060 BKN095 10/05 Q1002 NOSIG","observationTime":"2018-03-16T15:50:00Z","temp":10,"dewpoint":5,"windDirection":210,"windSpeed":11.112,"visibility":6.21,"altim":29.586615,"qualityControlFlag":"TRUE","skyCondition1a":"FEW","skyCondition1b":3500,"skyCondition2a":"BKN","skyCondition2b":6000,"flightCategory":"VFR","metarType":"METAR","geometry_esri":{"x":47.78,"y":13.02,"z":430}}}