{"type":"Feature","geometry":{"type":"Point","coordinates":[47.78,13.02,427]},"properties":{"stationId":"LOWS","rawText":"LOWS 131150Z 22006KT 180V240 9999 FEW010 SCT015 BKN040 09/05 Q1012 NOSIG","observationTime":"2020-10-13T11:50:00Z","temp":9,"dewpoint":5,"windDirection":220,"windSpeed":11.112,"visibility":6.21,"altim":29.88189,"qualityControlFlag":"TRUE","skyCondition1a":"FEW","skyCondition1b":1000,"skyCondition2a":"SCT","skyCondition2b":1500,"flightCategory":"VFR","metarType":"METAR","geometry_esri":{"x":47.78,"y":13.02,"z":427}}}