{"type":"Feature","geometry":{"type":"Point","coordinates":[47.78,13.02,430]},"properties":{"stationId":"LOWS","rawText":"LOWS 161050Z 17005KT 110V200 9999 -SN FEW026 SCT040 BKN050 M02/M07 Q1014 NOSIG","observationTime":"2018-12-16T10:50:00Z","temp":-2,"dewpoint":-7,"windDirection":170,"windSpeed":9.26,"visibility":6.21,"altim":29.940945,"qualityControlFlag":"TRUE","skyCondition1a":"FEW","skyCondition1b":2600,"skyCondition2a":"SCT","skyCondition2b":4000,"flightCategory":"VFR","metarType":"METAR","geometry_esri":{"x":47.78,"y":13.02,"z":430}}}