{"type":"Feature","geometry":{"type":"Point","coordinates":[47.78,13.02,430]},"properties":{"stationId":"LOWS","rawText":"LOWS 111750Z 02003KT 350V050 9999 FEW045 FEW050CB SCT120 BKN250 21/12 Q1016 NOSIG","observationTime":"2018-05-11T17:50:00Z","temp":21,"dewpoint":12,"windDirection":20,"windSpeed":5.556,"visibility":6.21,"altim":30,"qualityControlFlag":"TRUE","skyCondition1a":"FEW","skyCondition1b":4500,"skyCondition2a":"FEW","skyCondition2b":5000,"flightCategory":"VFR","metarType":"METAR","geometry_esri":{"x":47.78,"y":13.02,"z":430}}}