{"type":"Feature","geometry":{"type":"Point","coordinates":[47.78,13.02,430]},"properties":{"stationId":"LOWS","rawText":"LOWS 110550Z 17004KT 9999 FEW020 SCT030 BKN045 08/06 Q1008 NOSIG","observationTime":"2018-04-11T05:50:00Z","temp":8,"dewpoint":6,"windDirection":170,"windSpeed":7.408,"visibility":6.21,"altim":29.763779,"qualityControlFlag":"TRUE","skyCondition1a":"FEW","skyCondition1b":2000,"skyCondition2a":"SCT","skyCondition2b":3000,"flightCategory":"VFR","metarType":"METAR","geometry_esri":{"x":47.78,"y":13.02,"z":430}}}