{"type":"Feature","geometry":{"type":"Point","coordinates":[47.78,13.02,430]},"properties":{"stationId":"LOWS","rawText":"LOWS 122050Z 15008KT 9999 FEW060 SCT080 06/04 Q1002 WS ALL RWY NOSIG","observationTime":"2018-03-12T20:50:00Z","temp":6,"dewpoint":4,"windDirection":150,"windSpeed":14.816,"visibility":6.21,"altim":29.586615,"qualityControlFlag":"TRUE","skyCondition1a":"FEW","skyCondition1b":6000,"skyCondition2a":"SCT","skyCondition2b":8000,"flightCategory":"VFR","metarType":"METAR","geometry_esri":{"x":47.78,"y":13.02,"z":430}}}