{"type":"Feature","geometry":{"type":"Point","coordinates":[47.78,13.02,427]},"properties":{"stationId":"LOWS","rawText":"LOWS 230750Z 17003KT 9999 FEW040 BKN048 11/09 Q1017 NOSIG","observationTime":"2020-10-23T07:50:00Z","temp":11,"dewpoint":9,"windDirection":170,"windSpeed":5.556,"visibility":6.21,"altim":30.029528,"qualityControlFlag":"TRUE","skyCondition1a":"FEW","skyCondition1b":4000,"skyCondition2a":"BKN","skyCondition2b":4800,"flightCategory":"VFR","metarType":"METAR","geometry_esri":{"x":47.78,"y":13.02,"z":427}}}