{"type":"Feature","geometry":{"type":"Point","coordinates":[47.78,13.02,430]},"properties":{"stationId":"LOWS","rawText":"LOWS 051050Z 12003KT 080V160 9999 FEW025 BKN042 18/11 Q1021 NOSIG","observationTime":"2020-08-05T10:50:00Z","temp":18,"dewpoint":11,"windDirection":120,"windSpeed":5.556,"visibility":6.21,"altim":30.147638,"qualityControlFlag":"TRUE","skyCondition1a":"FEW","skyCondition1b":2500,"skyCondition2a":"BKN","skyCondition2b":4200,"flightCategory":"VFR","metarType":"METAR","geometry_esri":{"x":47.78,"y":13.02,"z":430}}}