{"type":"Feature","geometry":{"type":"Point","coordinates":[47.78,13.02,430]},"properties":{"stationId":"LOWS","rawText":"LOWS 101350Z 16014G25KT 120V190 9999 FEW100 BKN120 BKN300 11/M01 Q1000 NOSIG","observationTime":"2019-02-10T13:50:00Z","temp":11,"dewpoint":-1,"windDirection":160,"windSpeed":25.928,"visibility":6.21,"altim":29.52756,"qualityControlFlag":"TRUE","skyCondition1a":"FEW","skyCondition1b":10000,"skyCondition2a":"BKN","skyCondition2b":12000,"flightCategory":"VFR","metarType":"METAR","geometry_esri":{"x":47.78,"y":13.02,"z":430}}}