{"type":"Feature","geometry":{"type":"Point","coordinates":[47.78,13.02,430]},"properties":{"stationId":"LOWS","rawText":"LOWS 011950Z 16004KT 9999 FEW060 BKN080 06/03 Q0998 NOSIG","observationTime":"2020-03-01T19:50:00Z","temp":6,"dewpoint":3,"windDirection":160,"windSpeed":7.408,"visibility":6.21,"altim":29.468504,"qualityControlFlag":"TRUE","skyCondition1a":"FEW","skyCondition1b":6000,"skyCondition2a":"BKN","skyCondition2b":8000,"flightCategory":"VFR","metarType":"METAR","geometry_esri":{"x":47.78,"y":13.02,"z":430}}}