{"type":"Feature","geometry":{"type":"Point","coordinates":[47.78,13.02,427]},"properties":{"stationId":"LOWS","rawText":"LOWS 170520Z VRB02KT 2000 BR FEW001 BKN003 01/01 Q1022 NOSIG","observationTime":"2020-12-17T05:20:00Z","temp":1,"dewpoint":1,"windDirection":0,"windSpeed":3.704,"visibility":1.24,"altim":30.177166,"qualityControlFlag":"TRUE","skyCondition1a":"FEW","skyCondition1b":100,"skyCondition2a":"BKN","skyCondition2b":300,"flightCategory":"LIFR","metarType":"METAR","geometry_esri":{"x":47.78,"y":13.02,"z":427}}}