{"type":"Feature","geometry":{"type":"Point","coordinates":[47.78,13.02,430]},"properties":{"stationId":"LOWS","rawText":"LOWS 071150Z 15005KT 9999 FEW007 SCT040 BKN055 16/14 Q1016 NOSIG","observationTime":"2018-10-07T11:50:00Z","temp":16,"dewpoint":14,"windDirection":150,"windSpeed":9.26,"visibility":6.21,"altim":30,"qualityControlFlag":"TRUE","skyCondition1a":"FEW","skyCondition1b":700,"skyCondition2a":"SCT","skyCondition2b":4000,"flightCategory":"VFR","metarType":"METAR","geometry_esri":{"x":47.78,"y":13.02,"z":430}}}