{"type":"Feature","geometry":{"type":"Point","coordinates":[47.78,13.02,430]},"properties":{"stationId":"LOWS","rawText":"LOWS 070920Z 09003KT 7000 -SHRA FEW004 BKN044 15/13 Q1015 NOSIG","observationTime":"2018-10-07T09:20:00Z","temp":15,"dewpoint":13,"windDirection":90,"windSpeed":5.556,"visibility":4.35,"altim":29.970472,"qualityControlFlag":"TRUE","skyCondition1a":"FEW","skyCondition1b":400,"skyCondition2a":"BKN","skyCondition2b":4400,"flightCategory":"MVFR","metarType":"METAR","geometry_esri":{"x":47.78,"y":13.02,"z":430}}}