{"type":"Feature","geometry":{"type":"Point","coordinates":[47.78,13.02,430]},"properties":{"stationId":"LOWS","rawText":"LOWS 210350Z 35003KT 310V010 7000 FEW028 BKN034 09/08 Q1027 NOSIG","observationTime":"2018-10-21T03:50:00Z","temp":9,"dewpoint":8,"windDirection":350,"windSpeed":5.556,"visibility":4.35,"altim":30.324802,"qualityControlFlag":"TRUE","skyCondition1a":"FEW","skyCondition1b":2800,"skyCondition2a":"BKN","skyCondition2b":3400,"flightCategory":"MVFR","metarType":"METAR","geometry_esri":{"x":47.78,"y":13.02,"z":430}}}