{"type":"Feature","geometry":{"type":"Point","coordinates":[47.78,13.02,427]},"properties":{"stationId":"LOWS","rawText":"LOWS 041250Z 02008KT 9999 FEW020 SCT028 BKN060 10/06 Q1028 NOSIG","observationTime":"2020-11-04T12:50:00Z","temp":10,"dewpoint":6,"windDirection":20,"windSpeed":14.816,"visibility":6.21,"altim":30.35433,"qualityControlFlag":"TRUE","skyCondition1a":"FEW","skyCondition1b":2000,"skyCondition2a":"SCT","skyCondition2b":2800,"flightCategory":"VFR","metarType":"METAR","geometry_esri":{"x":47.78,"y":13.02,"z":427}}}