{"type":"Feature","geometry":{"type":"Point","coordinates":[47.78,13.02,430]},"properties":{"stationId":"LOWS","rawText":"LOWS 181250Z 33007KT 260V010 9999 FEW048 BKN060 21/10 Q1013 NOSIG","observationTime":"2020-06-18T12:50:00Z","temp":21,"dewpoint":10,"windDirection":330,"windSpeed":12.964,"visibility":6.21,"altim":29.911417,"qualityControlFlag":"TRUE","skyCondition1a":"FEW","skyCondition1b":4800,"skyCondition2a":"BKN","skyCondition2b":6000,"flightCategory":"VFR","metarType":"METAR","geometry_esri":{"x":47.78,"y":13.02,"z":430}}}