{"type":"Feature","geometry":{"type":"Point","coordinates":[47.78,13.02,430]},"properties":{"stationId":"LOWS","rawText":"LOWS 240520Z 27014G24KT 200V310 9999 FEW025 SCT034 BKN040 11/07 Q1017 NOSIG","observationTime":"2018-10-24T05:20:00Z","temp":11,"dewpoint":7,"windDirection":270,"windSpeed":25.928,"visibility":6.21,"altim":30.029528,"qualityControlFlag":"TRUE","skyCondition1a":"FEW","skyCondition1b":2500,"skyCondition2a":"SCT","skyCondition2b":3400,"flightCategory":"VFR","metarType":"METAR","geometry_esri":{"x":47.78,"y":13.02,"z":430}}}