{"type":"Feature","geometry":{"type":"Point","coordinates":[47.78,13.02,430]},"properties":{"stationId":"LOWS","rawText":"LOWS 031250Z 28007KT 9999 SCT045 BKN080 13/04 Q1020 NOSIG","observationTime":"2020-05-03T12:50:00Z","temp":13,"dewpoint":4,"windDirection":280,"windSpeed":12.964,"visibility":6.21,"altim":30.11811,"qualityControlFlag":"TRUE","skyCondition1a":"SCT","skyCondition1b":4500,"skyCondition2a":"BKN","skyCondition2b":8000,"flightCategory":"VFR","metarType":"METAR","geometry_esri":{"x":47.78,"y":13.02,"z":430}}}