{"type":"Feature","geometry":{"type":"Point","coordinates":[47.78,13.02,430]},"properties":{"stationId":"LOWS","rawText":"LOWS 140750Z 11003KT 9999 -SHRA FEW013 SCT024 BKN032 14/13 Q1017 NOSIG","observationTime":"2019-07-14T07:50:00Z","temp":14,"dewpoint":13,"windDirection":110,"windSpeed":5.556,"visibility":6.21,"altim":30.029528,"qualityControlFlag":"TRUE","skyCondition1a":"FEW","skyCondition1b":1300,"skyCondition2a":"SCT","skyCondition2b":2400,"flightCategory":"VFR","metarType":"METAR","geometry_esri":{"x":47.78,"y":13.02,"z":430}}}