{"type":"Feature","geometry":{"type":"Point","coordinates":[47.78,13.02,427]},"properties":{"stationId":"LOWS","rawText":"LOWS 090550Z 16004KT 9999 FEW022 BKN046 M04/M04 Q1019 NOSIG","observationTime":"2021-01-09T05:50:00Z","temp":-4,"dewpoint":-4,"windDirection":160,"windSpeed":7.408,"visibility":6.21,"altim":30.088583,"qualityControlFlag":"TRUE","skyCondition1a":"FEW","skyCondition1b":2200,"skyCondition2a":"BKN","skyCondition2b":4600,"flightCategory":"VFR","metarType":"METAR","geometry_esri":{"x":47.78,"y":13.02,"z":427}}}