{"type":"Feature","geometry":{"type":"Point","coordinates":[47.78,13.02,430]},"properties":{"stationId":"LOWS","rawText":"LOWS 281650Z 29004KT 6000 -RA FEW004 BKN007 BKN010 08/08 Q1020 NOSIG","observationTime":"2019-10-28T16:50:00Z","temp":8,"dewpoint":8,"windDirection":290,"windSpeed":7.408,"visibility":3.73,"altim":30.11811,"qualityControlFlag":"TRUE","skyCondition1a":"FEW","skyCondition1b":400,"skyCondition2a":"BKN","skyCondition2b":700,"flightCategory":"IFR","metarType":"METAR","geometry_esri":{"x":47.78,"y":13.02,"z":430}}}