{"type":"Feature","geometry":{"type":"Point","coordinates":[47.78,13.02,427]},"properties":{"stationId":"LOWS","rawText":"LOWS 110450Z 16002KT 9999 -RA FEW003 SCT018 BKN028 07/07 Q1020 NOSIG","observationTime":"2020-10-11T04:50:00Z","temp":7,"dewpoint":7,"windDirection":160,"windSpeed":3.704,"visibility":6.21,"altim":30.11811,"qualityControlFlag":"TRUE","skyCondition1a":"FEW","skyCondition1b":300,"skyCondition2a":"SCT","skyCondition2b":1800,"flightCategory":"MVFR","metarType":"METAR","geometry_esri":{"x":47.78,"y":13.02,"z":427}}}