{"type":"Feature","geometry":{"type":"Point","coordinates":[47.78,13.02,430]},"properties":{"stationId":"LOWS","rawText":"LOWS 091050Z 04006KT 360V070 9999 FEW015 SCT020 16/12 Q1023 NOSIG","observationTime":"2018-10-09T10:50:00Z","temp":16,"dewpoint":12,"windDirection":40,"windSpeed":11.112,"visibility":6.21,"altim":30.206694,"qualityControlFlag":"TRUE","skyCondition1a":"FEW","skyCondition1b":1500,"skyCondition2a":"SCT","skyCondition2b":2000,"flightCategory":"VFR","metarType":"METAR","geometry_esri":{"x":47.78,"y":13.02,"z":430}}}