{"type":"Feature","geometry":{"type":"Point","coordinates":[47.78,13.02,430]},"properties":{"stationId":"LOWS","rawText":"LOWS 300550Z 15006KT 9999 FEW060 SCT300 20/14 Q1016 NOSIG","observationTime":"2018-05-30T05:50:00Z","temp":20,"dewpoint":14,"windDirection":150,"windSpeed":11.112,"visibility":6.21,"altim":30,"qualityControlFlag":"TRUE","skyCondition1a":"FEW","skyCondition1b":6000,"skyCondition2a":"SCT","skyCondition2b":30000,"flightCategory":"VFR","metarType":"METAR","geometry_esri":{"x":47.78,"y":13.02,"z":430}}}