{"type":"Feature","geometry":{"type":"Point","coordinates":[47.78,13.02,427]},"properties":{"stationId":"LOWS","rawText":"LOWS 231150Z 32003KT 270V010 9999 -RA FEW012 SCT032 BKN040 17/14 Q1010 RERA NOSIG","observationTime":"2020-09-23T11:50:00Z","temp":17,"dewpoint":14,"windDirection":320,"windSpeed":5.556,"visibility":6.21,"altim":29.822834,"qualityControlFlag":"TRUE","skyCondition1a":"FEW","skyCondition1b":1200,"skyCondition2a":"SCT","skyCondition2b":3200,"flightCategory":"VFR","metarType":"METAR","geometry_esri":{"x":47.78,"y":13.02,"z":427}}}