{"type":"Feature","geometry":{"type":"Point","coordinates":[47.78,13.02,427]},"properties":{"stationId":"LOWS","rawText":"LOWS 140850Z 30011KT 9999 FEW022 SCT029 01/M02 Q1014 R15/650295 NOSIG","observationTime":"2021-01-14T08:50:00Z","temp":1,"dewpoint":-2,"windDirection":300,"windSpeed":20.372,"visibility":6.21,"altim":29.940945,"qualityControlFlag":"TRUE","skyCondition1a":"FEW","skyCondition1b":2200,"skyCondition2a":"SCT","skyCondition2b":2900,"flightCategory":"VFR","metarType":"METAR","geometry_esri":{"x":47.78,"y":13.02,"z":427}}}