{"type":"Feature","geometry":{"type":"Point","coordinates":[47.78,13.02,430]},"properties":{"stationId":"LOWS","rawText":"LOWS 050820Z 14012KT 9999 FEW060 SCT070 BKN100 04/M05 Q1005 NOSIG","observationTime":"2020-03-05T08:20:00Z","temp":4,"dewpoint":-5,"windDirection":140,"windSpeed":22.224,"visibility":6.21,"altim":29.675198,"qualityControlFlag":"TRUE","skyCondition1a":"FEW","skyCondition1b":6000,"skyCondition2a":"SCT","skyCondition2b":7000,"flightCategory":"VFR","metarType":"METAR","geometry_esri":{"x":47.78,"y":13.02,"z":430}}}