{"type":"Feature","geometry":{"type":"Point","coordinates":[47.78,13.02,430]},"properties":{"stationId":"LOWS","rawText":"LOWS 251950Z 15008KT 9999 FEW050 FEW060CB SCT150 19/16 Q1016 NOSIG","observationTime":"2018-07-25T19:50:00Z","temp":19,"dewpoint":16,"windDirection":150,"windSpeed":14.816,"visibility":6.21,"altim":30,"qualityControlFlag":"TRUE","skyCondition1a":"FEW","skyCondition1b":5000,"skyCondition2a":"FEW","skyCondition2b":6000,"flightCategory":"VFR","metarType":"METAR","geometry_esri":{"x":47.78,"y":13.02,"z":430}}}