{"type":"Feature","geometry":{"type":"Point","coordinates":[47.78,13.02,430]},"properties":{"stationId":"LOWS","rawText":"LOWS 221450Z 26005KT 230V300 9999 FEW050 BKN070 15/07 Q1023 NOSIG","observationTime":"2018-06-22T14:50:00Z","temp":15,"dewpoint":7,"windDirection":260,"windSpeed":9.26,"visibility":6.21,"altim":30.206694,"qualityControlFlag":"TRUE","skyCondition1a":"FEW","skyCondition1b":5000,"skyCondition2a":"BKN","skyCondition2b":7000,"flightCategory":"VFR","metarType":"METAR","geometry_esri":{"x":47.78,"y":13.02,"z":430}}}