{"type":"Feature","geometry":{"type":"Point","coordinates":[47.78,13.02,430]},"properties":{"stationId":"LOWS","rawText":"LOWS 311750Z 32007KT 2000 -RA BR FEW003 BKN006 BKN014 14/14 Q1019 NOSIG","observationTime":"2018-08-31T17:50:00Z","temp":14,"dewpoint":14,"windDirection":320,"windSpeed":12.964,"visibility":1.24,"altim":30.088583,"qualityControlFlag":"TRUE","skyCondition1a":"FEW","skyCondition1b":300,"skyCondition2a":"BKN","skyCondition2b":600,"flightCategory":"IFR","metarType":"METAR","geometry_esri":{"x":47.78,"y":13.02,"z":430}}}