{"type":"Feature","geometry":{"type":"Point","coordinates":[47.78,13.02,430]},"properties":{"stationId":"LOWS","rawText":"LOWS 190850Z 35003KT 9999 FEW008 SCT016 BKN020 01/00 Q1031 R15/290195 NOSIG","observationTime":"2020-01-19T08:50:00Z","temp":1,"dewpoint":0,"windDirection":350,"windSpeed":5.556,"visibility":6.21,"altim":30.442913,"qualityControlFlag":"TRUE","skyCondition1a":"FEW","skyCondition1b":800,"skyCondition2a":"SCT","skyCondition2b":1600,"flightCategory":"MVFR","metarType":"METAR","geometry_esri":{"x":47.78,"y":13.02,"z":430}}}