{"type":"Feature","geometry":{"type":"Point","coordinates":[47.78,13.02,427]},"properties":{"stationId":"LOWS","rawText":"LOWS 111550Z 30004KT 9999 FEW006 BKN035 07/06 Q1024 NOSIG","observationTime":"2020-11-11T15:50:00Z","temp":7,"dewpoint":6,"windDirection":300,"windSpeed":7.408,"visibility":6.21,"altim":30.236221,"qualityControlFlag":"TRUE","skyCondition1a":"FEW","skyCondition1b":600,"skyCondition2a":"BKN","skyCondition2b":3500,"flightCategory":"VFR","metarType":"METAR","geometry_esri":{"x":47.78,"y":13.02,"z":427}}}