{"type":"Feature","geometry":{"type":"Point","coordinates":[47.78,13.02,430]},"properties":{"stationId":"LOWS","rawText":"LOWS 281350Z 21004KT 130V270 9999 FEW055 BKN060 12/00 Q1031 NOSIG","observationTime":"2019-03-28T13:50:00Z","temp":12,"dewpoint":0,"windDirection":210,"windSpeed":7.408,"visibility":6.21,"altim":30.442913,"qualityControlFlag":"TRUE","skyCondition1a":"FEW","skyCondition1b":5500,"skyCondition2a":"BKN","skyCondition2b":6000,"flightCategory":"VFR","metarType":"METAR","geometry_esri":{"x":47.78,"y":13.02,"z":430}}}