{"type":"Feature","geometry":{"type":"Point","coordinates":[47.78,13.02,430]},"properties":{"stationId":"LOWS","rawText":"LOWS 011350Z 32007KT 280V350 9999 FEW060 SCT140 26/16 Q1013 NOSIG","observationTime":"2019-09-01T13:50:00Z","temp":26,"dewpoint":16,"windDirection":320,"windSpeed":12.964,"visibility":6.21,"altim":29.911417,"qualityControlFlag":"TRUE","skyCondition1a":"FEW","skyCondition1b":6000,"skyCondition2a":"SCT","skyCondition2b":14000,"flightCategory":"VFR","metarType":"METAR","geometry_esri":{"x":47.78,"y":13.02,"z":430}}}