{"type":"Feature","geometry":{"type":"Point","coordinates":[47.78,13.02,427]},"properties":{"stationId":"LOWS","rawText":"LOWS 260950Z 23008KT 190V260 9999 -RA FEW015 SCT029 BKN040 07/05 Q1001 NOSIG","observationTime":"2020-09-26T09:50:00Z","temp":7,"dewpoint":5,"windDirection":230,"windSpeed":14.816,"visibility":6.21,"altim":29.557087,"qualityControlFlag":"TRUE","skyCondition1a":"FEW","skyCondition1b":1500,"skyCondition2a":"SCT","skyCondition2b":2900,"flightCategory":"VFR","metarType":"METAR","geometry_esri":{"x":47.78,"y":13.02,"z":427}}}