{"type":"Feature","geometry":{"type":"Point","coordinates":[47.78,13.02,430]},"properties":{"stationId":"LOWS","rawText":"LOWS 032050Z 15002KT 8000 SCT015 BKN019 10/09 Q1023 NOSIG","observationTime":"2018-11-03T20:50:00Z","temp":10,"dewpoint":9,"windDirection":150,"windSpeed":3.704,"visibility":4.97,"altim":30.206694,"qualityControlFlag":"TRUE","skyCondition1a":"SCT","skyCondition1b":1500,"skyCondition2a":"BKN","skyCondition2b":1900,"flightCategory":"MVFR","metarType":"METAR","geometry_esri":{"x":47.78,"y":13.02,"z":430}}}