{"type":"Feature","geometry":{"type":"Point","coordinates":[47.78,13.02,430]},"properties":{"stationId":"LOWS","rawText":"LOWS 251250Z 31005KT 260V360 9999 FEW014 SCT025 BKN045 15/10 Q1023 NOSIG","observationTime":"2018-06-25T12:50:00Z","temp":15,"dewpoint":10,"windDirection":310,"windSpeed":9.26,"visibility":6.21,"altim":30.206694,"qualityControlFlag":"TRUE","skyCondition1a":"FEW","skyCondition1b":1400,"skyCondition2a":"SCT","skyCondition2b":2500,"flightCategory":"VFR","metarType":"METAR","geometry_esri":{"x":47.78,"y":13.02,"z":430}}}