{"type":"Feature","geometry":{"type":"Point","coordinates":[47.78,13.02,430]},"properties":{"stationId":"LOWS","rawText":"LOWS 170350Z 10003KT 9999 FEW090 BKN180 02/01 Q0999 NOSIG","observationTime":"2018-03-17T03:50:00Z","temp":2,"dewpoint":1,"windDirection":100,"windSpeed":5.556,"visibility":6.21,"altim":29.498032,"qualityControlFlag":"TRUE","skyCondition1a":"FEW","skyCondition1b":9000,"skyCondition2a":"BKN","skyCondition2b":18000,"flightCategory":"VFR","metarType":"METAR","geometry_esri":{"x":47.78,"y":13.02,"z":430}}}