{"type":"Feature","geometry":{"type":"Point","coordinates":[47.78,13.02,430]},"properties":{"stationId":"LOWS","rawText":"LOWS 271020Z 20005KT 150V240 9999 FEW050 SCT060 05/M05 Q1008 R15/19//95 NOSIG","observationTime":"2020-02-27T10:20:00Z","temp":5,"dewpoint":-5,"windDirection":200,"windSpeed":9.26,"visibility":6.21,"altim":29.763779,"qualityControlFlag":"TRUE","skyCondition1a":"FEW","skyCondition1b":5000,"skyCondition2a":"SCT","skyCondition2b":6000,"flightCategory":"VFR","metarType":"SPECI","geometry_esri":{"x":47.78,"y":13.02,"z":430}}}