{"type":"Feature","geometry":{"type":"Point","coordinates":[47.78,13.02,427]},"properties":{"stationId":"LOWS","rawText":"LOWS 091350Z 05004KT 030V090 8000 FEW007 BKN010 02/01 Q1007 NOSIG","observationTime":"2020-12-09T13:50:00Z","temp":2,"dewpoint":1,"windDirection":50,"windSpeed":7.408,"visibility":4.97,"altim":29.734253,"qualityControlFlag":"TRUE","skyCondition1a":"FEW","skyCondition1b":700,"skyCondition2a":"BKN","skyCondition2b":1000,"flightCategory":"MVFR","metarType":"METAR","geometry_esri":{"x":47.78,"y":13.02,"z":427}}}