{"type":"Feature","geometry":{"type":"Point","coordinates":[47.78,13.02,427]},"properties":{"stationId":"LOWS","rawText":"LOWS 261150Z 24004KT 200V270 9999 FEW018 SCT029 BKN035 08/04 Q1001 NOSIG","observationTime":"2020-09-26T11:50:00Z","temp":8,"dewpoint":4,"windDirection":240,"windSpeed":7.408,"visibility":6.21,"altim":29.557087,"qualityControlFlag":"TRUE","skyCondition1a":"FEW","skyCondition1b":1800,"skyCondition2a":"SCT","skyCondition2b":2900,"flightCategory":"VFR","metarType":"METAR","geometry_esri":{"x":47.78,"y":13.02,"z":427}}}