{"type":"Feature","geometry":{"type":"Point","coordinates":[47.78,13.02,427]},"properties":{"stationId":"LOWS","rawText":"LOWS 120550Z 14003KT 9999 FEW006 BKN020 BKN042 04/04 Q1020 NOSIG","observationTime":"2020-10-12T05:50:00Z","temp":4,"dewpoint":4,"windDirection":140,"windSpeed":5.556,"visibility":6.21,"altim":30.11811,"qualityControlFlag":"TRUE","skyCondition1a":"FEW","skyCondition1b":600,"skyCondition2a":"BKN","skyCondition2b":2000,"flightCategory":"MVFR","metarType":"METAR","geometry_esri":{"x":47.78,"y":13.02,"z":427}}}