{"type":"Feature","geometry":{"type":"Point","coordinates":[47.78,13.02,430]},"properties":{"stationId":"LOWS","rawText":"LOWS 071650Z 14005KT 9999 FEW038 SCT046 BKN090 13/10 Q1019 NOSIG","observationTime":"2019-09-07T16:50:00Z","temp":13,"dewpoint":10,"windDirection":140,"windSpeed":9.26,"visibility":6.21,"altim":30.088583,"qualityControlFlag":"TRUE","skyCondition1a":"FEW","skyCondition1b":3800,"skyCondition2a":"SCT","skyCondition2b":4600,"flightCategory":"VFR","metarType":"METAR","geometry_esri":{"x":47.78,"y":13.02,"z":430}}}