{"type":"Feature","geometry":{"type":"Point","coordinates":[47.78,13.02,430]},"properties":{"stationId":"LOWS","rawText":"LOWS 181050Z 33005KT 260V020 9999 -SHRA FEW012 SCT022 BKN035 04/M01 Q1019 NOSIG","observationTime":"2019-03-18T10:50:00Z","temp":4,"dewpoint":-1,"windDirection":330,"windSpeed":9.26,"visibility":6.21,"altim":30.088583,"qualityControlFlag":"TRUE","skyCondition1a":"FEW","skyCondition1b":1200,"skyCondition2a":"SCT","skyCondition2b":2200,"flightCategory":"VFR","metarType":"METAR","geometry_esri":{"x":47.78,"y":13.02,"z":430}}}