{"type":"Feature","geometry":{"type":"Point","coordinates":[47.78,13.02,430]},"properties":{"stationId":"LOWS","rawText":"LOWS 201250Z 14007KT 110V220 9999 FEW090 SCT120 BKN250 18/02 Q0995 NOSIG","observationTime":"2019-12-20T12:50:00Z","temp":18,"dewpoint":2,"windDirection":140,"windSpeed":12.964,"visibility":6.21,"altim":29.379921,"qualityControlFlag":"TRUE","skyCondition1a":"FEW","skyCondition1b":9000,"skyCondition2a":"SCT","skyCondition2b":12000,"flightCategory":"VFR","metarType":"METAR","geometry_esri":{"x":47.78,"y":13.02,"z":430}}}