{"type":"Feature","geometry":{"type":"Point","coordinates":[47.78,13.02,430]},"properties":{"stationId":"LOWS","rawText":"LOWS 031950Z 17005KT 130V190 9999 FEW070 BKN300 19/13 Q1017 NOSIG","observationTime":"2018-07-03T19:50:00Z","temp":19,"dewpoint":13,"windDirection":170,"windSpeed":9.26,"visibility":6.21,"altim":30.029528,"qualityControlFlag":"TRUE","skyCondition1a":"FEW","skyCondition1b":7000,"skyCondition2a":"BKN","skyCondition2b":30000,"flightCategory":"VFR","metarType":"METAR","geometry_esri":{"x":47.78,"y":13.02,"z":430}}}