{"type":"Feature","geometry":{"type":"Point","coordinates":[47.78,13.02,427]},"properties":{"stationId":"LOWS","rawText":"LOWS 110450Z VRB01KT 7000 FEW006 BKN012 M06/M07 Q1021 NOSIG","observationTime":"2021-01-11T04:50:00Z","temp":-6,"dewpoint":-7,"windDirection":0,"windSpeed":1.852,"visibility":4.35,"altim":30.147638,"qualityControlFlag":"TRUE","skyCondition1a":"FEW","skyCondition1b":600,"skyCondition2a":"BKN","skyCondition2b":1200,"flightCategory":"MVFR","metarType":"METAR","geometry_esri":{"x":47.78,"y":13.02,"z":427}}}