{"type":"Feature","geometry":{"type":"Point","coordinates":[47.78,13.02,430]},"properties":{"stationId":"LOWS","rawText":"LOWS 210420Z 34005KT 7000 -RA FEW014 BKN038 10/07 Q1027 NOSIG","observationTime":"2018-10-21T04:20:00Z","temp":10,"dewpoint":7,"windDirection":340,"windSpeed":9.26,"visibility":4.35,"altim":30.324802,"qualityControlFlag":"TRUE","skyCondition1a":"FEW","skyCondition1b":1400,"skyCondition2a":"BKN","skyCondition2b":3800,"flightCategory":"MVFR","metarType":"METAR","geometry_esri":{"x":47.78,"y":13.02,"z":430}}}