{"type":"Feature","geometry":{"type":"Point","coordinates":[47.78,13.02,430]},"properties":{"stationId":"LOWS","rawText":"LOWS 081850Z VRB02KT 9999 FEW050 SCT120 BKN300 20/17 Q1010 NOSIG","observationTime":"2018-06-08T18:50:00Z","temp":20,"dewpoint":17,"windDirection":0,"windSpeed":3.704,"visibility":6.21,"altim":29.822834,"qualityControlFlag":"TRUE","skyCondition1a":"FEW","skyCondition1b":5000,"skyCondition2a":"SCT","skyCondition2b":12000,"flightCategory":"VFR","metarType":"METAR","geometry_esri":{"x":47.78,"y":13.02,"z":430}}}