{"type":"Feature","geometry":{"type":"Point","coordinates":[47.78,13.02,430]},"properties":{"stationId":"LOWS","rawText":"LOWS 270650Z 11003KT 4800 -RA BR FEW003 SCT014 BKN025 03/02 Q1015 NOSIG","observationTime":"2018-03-27T06:50:00Z","temp":3,"dewpoint":2,"windDirection":110,"windSpeed":5.556,"visibility":2.98,"altim":29.970472,"qualityControlFlag":"TRUE","skyCondition1a":"FEW","skyCondition1b":300,"skyCondition2a":"SCT","skyCondition2b":1400,"flightCategory":"IFR","metarType":"METAR","geometry_esri":{"x":47.78,"y":13.02,"z":430}}}