{"type":"Feature","geometry":{"type":"Point","coordinates":[47.78,13.02,430]},"properties":{"stationId":"LOWS","rawText":"LOWS 011750Z 27007KT 230V290 9999 FEW020 BKN030 07/04 Q1015 NOSIG","observationTime":"2019-03-01T17:50:00Z","temp":7,"dewpoint":4,"windDirection":270,"windSpeed":12.964,"visibility":6.21,"altim":29.970472,"qualityControlFlag":"TRUE","skyCondition1a":"FEW","skyCondition1b":2000,"skyCondition2a":"BKN","skyCondition2b":3000,"flightCategory":"MVFR","metarType":"METAR","geometry_esri":{"x":47.78,"y":13.02,"z":430}}}