{"type":"Feature","geometry":{"type":"Point","coordinates":[47.78,13.02,430]},"properties":{"stationId":"LOWS","rawText":"LOWS 110550Z 27015G31KT 9999 FEW040 BKN090 06/M03 Q1008 NOSIG","observationTime":"2020-02-11T05:50:00Z","temp":6,"dewpoint":-3,"windDirection":270,"windSpeed":27.78,"visibility":6.21,"altim":29.763779,"qualityControlFlag":"TRUE","skyCondition1a":"FEW","skyCondition1b":4000,"skyCondition2a":"BKN","skyCondition2b":9000,"flightCategory":"VFR","metarType":"METAR","geometry_esri":{"x":47.78,"y":13.02,"z":430}}}