{"type":"Feature","geometry":{"type":"Point","coordinates":[47.78,13.02,430]},"properties":{"stationId":"LOWS","rawText":"LOWS 220850Z 29002KT 5000 BR FEW009 BKN011 M03/M05 Q1013 NOSIG","observationTime":"2019-01-22T08:50:00Z","temp":-3,"dewpoint":-5,"windDirection":290,"windSpeed":3.704,"visibility":3.11,"altim":29.911417,"qualityControlFlag":"TRUE","skyCondition1a":"FEW","skyCondition1b":900,"skyCondition2a":"BKN","skyCondition2b":1100,"flightCategory":"MVFR","metarType":"METAR","geometry_esri":{"x":47.78,"y":13.02,"z":430}}}