{"type":"Feature","geometry":{"type":"Point","coordinates":[47.78,13.02,430]},"properties":{"stationId":"LOWS","rawText":"LOWS 141050Z 15007KT 110V170 9999 SCT045 BKN060 06/02 Q1012 WS ALL RWY NOSIG","observationTime":"2019-03-14T10:50:00Z","temp":6,"dewpoint":2,"windDirection":150,"windSpeed":12.964,"visibility":6.21,"altim":29.88189,"qualityControlFlag":"TRUE","skyCondition1a":"SCT","skyCondition1b":4500,"skyCondition2a":"BKN","skyCondition2b":6000,"flightCategory":"VFR","metarType":"METAR","geometry_esri":{"x":47.78,"y":13.02,"z":430}}}