{"type":"Feature","geometry":{"type":"Point","coordinates":[47.78,13.02,427]},"properties":{"stationId":"LOWS","rawText":"LOWS 221350Z 15005KT 100V210 9999 -SHRA FEW060 BKN080 08/05 Q1021 WS ALL RWY NOSIG","observationTime":"2020-12-22T13:50:00Z","temp":8,"dewpoint":5,"windDirection":150,"windSpeed":9.26,"visibility":6.21,"altim":30.147638,"qualityControlFlag":"TRUE","skyCondition1a":"FEW","skyCondition1b":6000,"skyCondition2a":"BKN","skyCondition2b":8000,"flightCategory":"VFR","metarType":"METAR","geometry_esri":{"x":47.78,"y":13.02,"z":427}}}