{"type":"Feature","geometry":{"type":"Point","coordinates":[47.78,13.02,430]},"properties":{"stationId":"LOWS","rawText":"LOWS 041250Z VRB02KT 2800 -SN BR FEW005 SCT010 BKN014 M02/M03 Q1033 R15/29//95 NOSIG","observationTime":"2019-01-04T12:50:00Z","temp":-2,"dewpoint":-3,"windDirection":0,"windSpeed":3.704,"visibility":1.74,"altim":30.501968,"qualityControlFlag":"TRUE","skyCondition1a":"FEW","skyCondition1b":500,"skyCondition2a":"SCT","skyCondition2b":1000,"flightCategory":"IFR","metarType":"METAR","geometry_esri":{"x":47.78,"y":13.02,"z":430}}}