{"type":"Feature","geometry":{"type":"Point","coordinates":[47.78,13.02,430]},"properties":{"stationId":"LOWS","rawText":"LOWS 100750Z 15014KT 9999 FEW070 SCT100 15/05 Q1002 NOSIG","observationTime":"2018-04-10T07:50:00Z","temp":15,"dewpoint":5,"windDirection":150,"windSpeed":25.928,"visibility":6.21,"altim":29.586615,"qualityControlFlag":"TRUE","skyCondition1a":"FEW","skyCondition1b":7000,"skyCondition2a":"SCT","skyCondition2b":10000,"flightCategory":"VFR","metarType":"METAR","geometry_esri":{"x":47.78,"y":13.02,"z":430}}}