{"type":"Feature","geometry":{"type":"Point","coordinates":[47.78,13.02,430]},"properties":{"stationId":"LOWS","rawText":"LOWS 040350Z 32003KT 7000 FEW008 SCT014 BKN020 12/12 Q1015 NOSIG","observationTime":"2018-05-04T03:50:00Z","temp":12,"dewpoint":12,"windDirection":320,"windSpeed":5.556,"visibility":4.35,"altim":29.970472,"qualityControlFlag":"TRUE","skyCondition1a":"FEW","skyCondition1b":800,"skyCondition2a":"SCT","skyCondition2b":1400,"flightCategory":"MVFR","metarType":"METAR","geometry_esri":{"x":47.78,"y":13.02,"z":430}}}