{"type":"Feature","geometry":{"type":"Point","coordinates":[47.78,13.02,427]},"properties":{"stationId":"LOWS","rawText":"LOWS 281350Z 32004KT 9999 FEW008 SCT016 BKN030 10/07 Q1012 NOSIG","observationTime":"2020-09-28T13:50:00Z","temp":10,"dewpoint":7,"windDirection":320,"windSpeed":7.408,"visibility":6.21,"altim":29.88189,"qualityControlFlag":"TRUE","skyCondition1a":"FEW","skyCondition1b":800,"skyCondition2a":"SCT","skyCondition2b":1600,"flightCategory":"MVFR","metarType":"METAR","geometry_esri":{"x":47.78,"y":13.02,"z":427}}}