{"type":"Feature","geometry":{"type":"Point","coordinates":[47.78,13.02,427]},"properties":{"stationId":"LOWS","rawText":"LOWS 040650Z 35004KT 310V030 9999 FEW110 BKN130 M06/M06 Q0994 R88/////// NOSIG","observationTime":"2020-12-04T06:50:00Z","temp":-6,"dewpoint":-6,"windDirection":350,"windSpeed":7.408,"visibility":6.21,"altim":29.350393,"qualityControlFlag":"TRUE","skyCondition1a":"FEW","skyCondition1b":11000,"skyCondition2a":"BKN","skyCondition2b":13000,"flightCategory":"VFR","metarType":"METAR","geometry_esri":{"x":47.78,"y":13.02,"z":427}}}