{"type":"Feature","geometry":{"type":"Point","coordinates":[47.78,13.02,427]},"properties":{"stationId":"LOWS","rawText":"LOWS 051550Z 15005KT 120V180 9999 FEW060 BKN110 12/08 Q1010 NOSIG","observationTime":"2020-10-05T15:50:00Z","temp":12,"dewpoint":8,"windDirection":150,"windSpeed":9.26,"visibility":6.21,"altim":29.822834,"qualityControlFlag":"TRUE","skyCondition1a":"FEW","skyCondition1b":6000,"skyCondition2a":"BKN","skyCondition2b":11000,"flightCategory":"VFR","metarType":"METAR","geometry_esri":{"x":47.78,"y":13.02,"z":427}}}