{"type":"Feature","geometry":{"type":"Point","coordinates":[47.78,13.02,430]},"properties":{"stationId":"LOWS","rawText":"LOWS 141850Z VRB01KT 9999 FEW014 BKN018 M02/M05 Q1021 NOSIG","observationTime":"2018-12-14T18:50:00Z","temp":-2,"dewpoint":-5,"windDirection":0,"windSpeed":1.852,"visibility":6.21,"altim":30.147638,"qualityControlFlag":"TRUE","skyCondition1a":"FEW","skyCondition1b":1400,"skyCondition2a":"BKN","skyCondition2b":1800,"flightCategory":"MVFR","metarType":"METAR","geometry_esri":{"x":47.78,"y":13.02,"z":430}}}