{"type":"Feature","geometry":{"type":"Point","coordinates":[47.78,13.02,430]},"properties":{"stationId":"LOWS","rawText":"LOWS 110550Z 15004KT 120V190 9999 FEW001 SCT120 15/14 Q1024 NOSIG","observationTime":"2018-08-11T05:50:00Z","temp":15,"dewpoint":14,"windDirection":150,"windSpeed":7.408,"visibility":6.21,"altim":30.236221,"qualityControlFlag":"TRUE","skyCondition1a":"FEW","skyCondition1b":100,"skyCondition2a":"SCT","skyCondition2b":12000,"flightCategory":"VFR","metarType":"METAR","geometry_esri":{"x":47.78,"y":13.02,"z":430}}}