{"type":"Feature","geometry":{"type":"Point","coordinates":[47.78,13.02,430]},"properties":{"stationId":"LOWS","rawText":"LOWS 131350Z 19003KT 130V220 4000 -RASN FEW002 SCT007 BKN011 01/00 Q1005 NOSIG","observationTime":"2019-11-13T13:50:00Z","temp":1,"dewpoint":0,"windDirection":190,"windSpeed":5.556,"visibility":2.49,"altim":29.675198,"qualityControlFlag":"TRUE","skyCondition1a":"FEW","skyCondition1b":200,"skyCondition2a":"SCT","skyCondition2b":700,"flightCategory":"IFR","metarType":"METAR","geometry_esri":{"x":47.78,"y":13.02,"z":430}}}