{"type":"Feature","geometry":{"type":"Point","coordinates":[47.78,13.02,430]},"properties":{"stationId":"LOWS","rawText":"LOWS 211150Z 15009KT 9999 FEW070 BKN100 06/M01 Q1015 NOSIG","observationTime":"2018-12-21T11:50:00Z","temp":6,"dewpoint":-1,"windDirection":150,"windSpeed":16.668,"visibility":6.21,"altim":29.970472,"qualityControlFlag":"TRUE","skyCondition1a":"FEW","skyCondition1b":7000,"skyCondition2a":"BKN","skyCondition2b":10000,"flightCategory":"VFR","metarType":"METAR","geometry_esri":{"x":47.78,"y":13.02,"z":430}}}