{"type":"Feature","geometry":{"type":"Point","coordinates":[47.78,13.02,430]},"properties":{"stationId":"LOWS","rawText":"LOWS 101250Z 15010KT 9999 FEW100 BKN140 BKN300 10/M01 Q1002 NOSIG","observationTime":"2019-02-10T12:50:00Z","temp":10,"dewpoint":-1,"windDirection":150,"windSpeed":18.52,"visibility":6.21,"altim":29.586615,"qualityControlFlag":"TRUE","skyCondition1a":"FEW","skyCondition1b":10000,"skyCondition2a":"BKN","skyCondition2b":14000,"flightCategory":"VFR","metarType":"METAR","geometry_esri":{"x":47.78,"y":13.02,"z":430}}}