{"type":"Feature","geometry":{"type":"Point","coordinates":[47.78,13.02,427]},"properties":{"stationId":"LOWS","rawText":"LOWS 161450Z 24003KT 210V280 9999 -RA FEW005 SCT020 BKN028 07/07 Q1015 NOSIG","observationTime":"2020-10-16T14:50:00Z","temp":7,"dewpoint":7,"windDirection":240,"windSpeed":5.556,"visibility":6.21,"altim":29.970472,"qualityControlFlag":"TRUE","skyCondition1a":"FEW","skyCondition1b":500,"skyCondition2a":"SCT","skyCondition2b":2000,"flightCategory":"MVFR","metarType":"METAR","geometry_esri":{"x":47.78,"y":13.02,"z":427}}}