{"type":"Feature","geometry":{"type":"Point","coordinates":[47.78,13.02,430]},"properties":{"stationId":"LOWS","rawText":"LOWS 151250Z 25007KT 220V300 9999 SCT050 BKN065 03/M04 Q1020 R15/15//95 NOSIG","observationTime":"2019-01-15T12:50:00Z","temp":3,"dewpoint":-4,"windDirection":250,"windSpeed":12.964,"visibility":6.21,"altim":30.11811,"qualityControlFlag":"TRUE","skyCondition1a":"SCT","skyCondition1b":5000,"skyCondition2a":"BKN","skyCondition2b":6500,"flightCategory":"VFR","metarType":"METAR","geometry_esri":{"x":47.78,"y":13.02,"z":430}}}