{"type":"Feature","geometry":{"type":"Point","coordinates":[47.78,13.02,430]},"properties":{"stationId":"LOWS","rawText":"LOWS 032050Z 34003KT 260V360 7000 FEW017 BKN090 M01/M04 Q1001 NOSIG","observationTime":"2018-03-03T20:50:00Z","temp":-1,"dewpoint":-4,"windDirection":340,"windSpeed":5.556,"visibility":4.35,"altim":29.557087,"qualityControlFlag":"TRUE","skyCondition1a":"FEW","skyCondition1b":1700,"skyCondition2a":"BKN","skyCondition2b":9000,"flightCategory":"MVFR","metarType":"METAR","geometry_esri":{"x":47.78,"y":13.02,"z":430}}}