{"type":"Feature","geometry":{"type":"Point","coordinates":[47.78,13.02,430]},"properties":{"stationId":"LOWS","rawText":"LOWS 161550Z 32007KT 9999 FEW030 BKN065 15/10 Q1016 NOSIG","observationTime":"2018-04-16T15:50:00Z","temp":15,"dewpoint":10,"windDirection":320,"windSpeed":12.964,"visibility":6.21,"altim":30,"qualityControlFlag":"TRUE","skyCondition1a":"FEW","skyCondition1b":3000,"skyCondition2a":"BKN","skyCondition2b":6500,"flightCategory":"VFR","metarType":"METAR","geometry_esri":{"x":47.78,"y":13.02,"z":430}}}