{"type":"Feature","geometry":{"type":"Point","coordinates":[47.78,13.02,430]},"properties":{"stationId":"LOWS","rawText":"LOWS 260450Z 15007KT 9999 FEW005 SCT040 BKN046 12/11 Q1014 NOSIG","observationTime":"2019-09-26T04:50:00Z","temp":12,"dewpoint":11,"windDirection":150,"windSpeed":12.964,"visibility":6.21,"altim":29.940945,"qualityControlFlag":"TRUE","skyCondition1a":"FEW","skyCondition1b":500,"skyCondition2a":"SCT","skyCondition2b":4000,"flightCategory":"VFR","metarType":"METAR","geometry_esri":{"x":47.78,"y":13.02,"z":430}}}