{"type":"Feature","geometry":{"type":"Point","coordinates":[47.78,13.02,430]},"properties":{"stationId":"LOWS","rawText":"LOWS 051550Z 29003KT 230V330 9999 FEW034 SCT038 BKN050 18/09 Q1001 NOSIG","observationTime":"2020-06-05T15:50:00Z","temp":18,"dewpoint":9,"windDirection":290,"windSpeed":5.556,"visibility":6.21,"altim":29.557087,"qualityControlFlag":"TRUE","skyCondition1a":"FEW","skyCondition1b":3400,"skyCondition2a":"SCT","skyCondition2b":3800,"flightCategory":"VFR","metarType":"METAR","geometry_esri":{"x":47.78,"y":13.02,"z":430}}}