{"type":"Feature","geometry":{"type":"Point","coordinates":[47.78,13.02,430]},"properties":{"stationId":"LOWS","rawText":"LOWS 130750Z 06003KT 020V110 9999 FEW040 SCT130 08/04 Q1007 NOSIG","observationTime":"2018-03-13T07:50:00Z","temp":8,"dewpoint":4,"windDirection":60,"windSpeed":5.556,"visibility":6.21,"altim":29.734253,"qualityControlFlag":"TRUE","skyCondition1a":"FEW","skyCondition1b":4000,"skyCondition2a":"SCT","skyCondition2b":13000,"flightCategory":"VFR","metarType":"METAR","geometry_esri":{"x":47.78,"y":13.02,"z":430}}}