{"type":"Feature","geometry":{"type":"Point","coordinates":[47.78,13.02,427]},"properties":{"stationId":"LOWS","rawText":"LOWS 301250Z 02006KT 350V070 9999 FEW030 SCT050 16/10 Q1015 NOSIG","observationTime":"2020-09-30T12:50:00Z","temp":16,"dewpoint":10,"windDirection":20,"windSpeed":11.112,"visibility":6.21,"altim":29.970472,"qualityControlFlag":"TRUE","skyCondition1a":"FEW","skyCondition1b":3000,"skyCondition2a":"SCT","skyCondition2b":5000,"flightCategory":"VFR","metarType":"METAR","geometry_esri":{"x":47.78,"y":13.02,"z":427}}}