{"type":"Feature","geometry":{"type":"Point","coordinates":[47.78,13.02,430]},"properties":{"stationId":"LOWS","rawText":"LOWS 061750Z 31008KT 9999 SCT042 BKN048 18/12 Q1006 NOSIG","observationTime":"2020-06-06T17:50:00Z","temp":18,"dewpoint":12,"windDirection":310,"windSpeed":14.816,"visibility":6.21,"altim":29.704725,"qualityControlFlag":"TRUE","skyCondition1a":"SCT","skyCondition1b":4200,"skyCondition2a":"BKN","skyCondition2b":4800,"flightCategory":"VFR","metarType":"METAR","geometry_esri":{"x":47.78,"y":13.02,"z":430}}}