{"type":"Feature","geometry":{"type":"Point","coordinates":[47.78,13.02,430]},"properties":{"stationId":"LOWS","rawText":"LOWS 121650Z 12006KT 090V150 9999 FEW012 SCT050 BKN080 20/18 Q1006 NOSIG","observationTime":"2018-06-12T16:50:00Z","temp":20,"dewpoint":18,"windDirection":120,"windSpeed":11.112,"visibility":6.21,"altim":29.704725,"qualityControlFlag":"TRUE","skyCondition1a":"FEW","skyCondition1b":1200,"skyCondition2a":"SCT","skyCondition2b":5000,"flightCategory":"VFR","metarType":"METAR","geometry_esri":{"x":47.78,"y":13.02,"z":430}}}