{"type":"Feature","geometry":{"type":"Point","coordinates":[47.78,13.02,430]},"properties":{"stationId":"LOWS","rawText":"LOWS 230650Z VRB01KT 9999 -RA FEW012 SCT028 BKN040 17/15 Q1018 NOSIG","observationTime":"2018-07-23T06:50:00Z","temp":17,"dewpoint":15,"windDirection":0,"windSpeed":1.852,"visibility":6.21,"altim":30.059055,"qualityControlFlag":"TRUE","skyCondition1a":"FEW","skyCondition1b":1200,"skyCondition2a":"SCT","skyCondition2b":2800,"flightCategory":"VFR","metarType":"METAR","geometry_esri":{"x":47.78,"y":13.02,"z":430}}}