{"type":"Feature","geometry":{"type":"Point","coordinates":[47.78,13.02,430]},"properties":{"stationId":"LOWS","rawText":"LOWS 031120Z 26007G17KT 220V300 9999 FEW015 SCT040 BKN060 04/M02 Q1004 NOSIG","observationTime":"2020-03-03T11:20:00Z","temp":4,"dewpoint":-2,"windDirection":260,"windSpeed":12.964,"visibility":6.21,"altim":29.64567,"qualityControlFlag":"TRUE","skyCondition1a":"FEW","skyCondition1b":1500,"skyCondition2a":"SCT","skyCondition2b":4000,"flightCategory":"VFR","metarType":"METAR","geometry_esri":{"x":47.78,"y":13.02,"z":430}}}