{"type":"Feature","geometry":{"type":"Point","coordinates":[47.78,13.02,430]},"properties":{"stationId":"LOWS","rawText":"LOWS 211650Z 16015KT 9999 -RA FEW030 SCT040 BKN050 05/01 Q1014 NOSIG","observationTime":"2018-12-21T16:50:00Z","temp":5,"dewpoint":1,"windDirection":160,"windSpeed":27.78,"visibility":6.21,"altim":29.940945,"qualityControlFlag":"TRUE","skyCondition1a":"FEW","skyCondition1b":3000,"skyCondition2a":"SCT","skyCondition2b":4000,"flightCategory":"VFR","metarType":"METAR","geometry_esri":{"x":47.78,"y":13.02,"z":430}}}