{"type":"Feature","geometry":{"type":"Point","coordinates":[47.78,13.02,427]},"properties":{"stationId":"LOWS","rawText":"LOWS 241550Z 16008KT 130V210 7000 -RA FEW012 BKN034 06/04 Q1011 NOSIG","observationTime":"2020-12-24T15:50:00Z","temp":6,"dewpoint":4,"windDirection":160,"windSpeed":14.816,"visibility":4.35,"altim":29.852362,"qualityControlFlag":"TRUE","skyCondition1a":"FEW","skyCondition1b":1200,"skyCondition2a":"BKN","skyCondition2b":3400,"flightCategory":"MVFR","metarType":"METAR","geometry_esri":{"x":47.78,"y":13.02,"z":427}}}