{"type":"Feature","geometry":{"type":"Point","coordinates":[47.78,13.02,430]},"properties":{"stationId":"LOWS","rawText":"LOWS 180850Z 02006KT 350V060 9999 FEW015 OVC020 M02/M06 Q1001 NOSIG","observationTime":"2018-03-18T08:50:00Z","temp":-2,"dewpoint":-6,"windDirection":20,"windSpeed":11.112,"visibility":6.21,"altim":29.557087,"qualityControlFlag":"TRUE","skyCondition1a":"FEW","skyCondition1b":1500,"skyCondition2a":"OVC","skyCondition2b":2000,"flightCategory":"MVFR","metarType":"METAR","geometry_esri":{"x":47.78,"y":13.02,"z":430}}}