{"type":"Feature","geometry":{"type":"Point","coordinates":[47.78,13.02,430]},"properties":{"stationId":"LOWS","rawText":"LOWS 301450Z 01006KT 320V040 9999 FEW060 BKN240 14/07 Q1000 NOSIG","observationTime":"2018-03-30T14:50:00Z","temp":14,"dewpoint":7,"windDirection":10,"windSpeed":11.112,"visibility":6.21,"altim":29.52756,"qualityControlFlag":"TRUE","skyCondition1a":"FEW","skyCondition1b":6000,"skyCondition2a":"BKN","skyCondition2b":24000,"flightCategory":"VFR","metarType":"METAR","geometry_esri":{"x":47.78,"y":13.02,"z":430}}}