{"type":"Feature","geometry":{"type":"Point","coordinates":[47.78,13.02,430]},"properties":{"stationId":"LOWS","rawText":"LOWS 222150Z 02004KT 340V040 8000 FEW012 BKN013 M04/M06 Q1002 NOSIG","observationTime":"2019-01-22T21:50:00Z","temp":-4,"dewpoint":-6,"windDirection":20,"windSpeed":7.408,"visibility":4.97,"altim":29.586615,"qualityControlFlag":"TRUE","skyCondition1a":"FEW","skyCondition1b":1200,"skyCondition2a":"BKN","skyCondition2b":1300,"flightCategory":"MVFR","metarType":"METAR","geometry_esri":{"x":47.78,"y":13.02,"z":430}}}