{"type":"Feature","geometry":{"type":"Point","coordinates":[47.78,13.02,430]},"properties":{"stationId":"LOWS","rawText":"LOWS 131950Z VRB01KT 9999 SCT038 BKN048 11/06 Q1032 NOSIG","observationTime":"2018-11-13T19:50:00Z","temp":11,"dewpoint":6,"windDirection":0,"windSpeed":1.852,"visibility":6.21,"altim":30.47244,"qualityControlFlag":"TRUE","skyCondition1a":"SCT","skyCondition1b":3800,"skyCondition2a":"BKN","skyCondition2b":4800,"flightCategory":"VFR","metarType":"METAR","geometry_esri":{"x":47.78,"y":13.02,"z":430}}}