{"type":"Feature","geometry":{"type":"Point","coordinates":[47.78,13.02,427]},"properties":{"stationId":"LOWS","rawText":"LOWS 281450Z 30003KT 240V330 9999 FEW010 SCT022 BKN035 10/07 Q1012 NOSIG","observationTime":"2020-09-28T14:50:00Z","temp":10,"dewpoint":7,"windDirection":300,"windSpeed":5.556,"visibility":6.21,"altim":29.88189,"qualityControlFlag":"TRUE","skyCondition1a":"FEW","skyCondition1b":1000,"skyCondition2a":"SCT","skyCondition2b":2200,"flightCategory":"VFR","metarType":"METAR","geometry_esri":{"x":47.78,"y":13.02,"z":427}}}