{"type":"Feature","geometry":{"type":"Point","coordinates":[47.78,13.02,430]},"properties":{"stationId":"LOWS","rawText":"LOWS 191250Z 34006KT 290V040 9999 SCT045 SCT070 24/12 Q1025 NOSIG","observationTime":"2018-06-19T12:50:00Z","temp":24,"dewpoint":12,"windDirection":340,"windSpeed":11.112,"visibility":6.21,"altim":30.265747,"qualityControlFlag":"TRUE","skyCondition1a":"SCT","skyCondition1b":4500,"skyCondition2a":"SCT","skyCondition2b":7000,"flightCategory":"VFR","metarType":"METAR","geometry_esri":{"x":47.78,"y":13.02,"z":430}}}