{"type":"Feature","geometry":{"type":"Point","coordinates":[47.78,13.02,430]},"properties":{"stationId":"LOWS","rawText":"LOWS 020850Z 23005KT 160V310 9999 FEW040 SCT060 12/04 Q1012 NOSIG","observationTime":"2020-05-02T08:50:00Z","temp":12,"dewpoint":4,"windDirection":230,"windSpeed":9.26,"visibility":6.21,"altim":29.88189,"qualityControlFlag":"TRUE","skyCondition1a":"FEW","skyCondition1b":4000,"skyCondition2a":"SCT","skyCondition2b":6000,"flightCategory":"VFR","metarType":"METAR","geometry_esri":{"x":47.78,"y":13.02,"z":430}}}