{"type":"Feature","geometry":{"type":"Point","coordinates":[47.78,13.02,430]},"properties":{"stationId":"LOWS","rawText":"LOWS 050250Z 24005KT 210V280 5000 -SN FEW013 SCT019 BKN030 M00/M01 Q1028 R88/////// NOSIG","observationTime":"2019-01-05T02:50:00Z","temp":0,"dewpoint":-1,"windDirection":240,"windSpeed":9.26,"visibility":3.11,"altim":30.35433,"qualityControlFlag":"TRUE","skyCondition1a":"FEW","skyCondition1b":1300,"skyCondition2a":"SCT","skyCondition2b":1900,"flightCategory":"MVFR","metarType":"METAR","geometry_esri":{"x":47.78,"y":13.02,"z":430}}}