{"type":"Feature","geometry":{"type":"Point","coordinates":[47.78,13.02,430]},"properties":{"stationId":"LOWS","rawText":"LOWS 111650Z 13009KT 110V170 9999 FEW080 BKN110 16/03 Q0995 NOSIG","observationTime":"2018-03-11T16:50:00Z","temp":16,"dewpoint":3,"windDirection":130,"windSpeed":16.668,"visibility":6.21,"altim":29.379921,"qualityControlFlag":"TRUE","skyCondition1a":"FEW","skyCondition1b":8000,"skyCondition2a":"BKN","skyCondition2b":11000,"flightCategory":"VFR","metarType":"METAR","geometry_esri":{"x":47.78,"y":13.02,"z":430}}}