{"type":"Feature","geometry":{"type":"Point","coordinates":[47.78,13.02,430]},"properties":{"stationId":"LOWS","rawText":"LOWS 082050Z 04004KT 9999 -DZ SCT012 BKN020 BKN030 09/09 Q1015 NOSIG","observationTime":"2019-09-08T20:50:00Z","temp":9,"dewpoint":9,"windDirection":40,"windSpeed":7.408,"visibility":6.21,"altim":29.970472,"qualityControlFlag":"TRUE","skyCondition1a":"SCT","skyCondition1b":1200,"skyCondition2a":"BKN","skyCondition2b":2000,"flightCategory":"MVFR","metarType":"METAR","geometry_esri":{"x":47.78,"y":13.02,"z":430}}}