{"type":"Feature","geometry":{"type":"Point","coordinates":[47.78,13.02,427]},"properties":{"stationId":"LOWS","rawText":"LOWS 310450Z 34004KT 4000 -SN FEW004 BKN008 BKN013 M01/M01 Q0999 NOSIG","observationTime":"2021-01-31T04:50:00Z","temp":-1,"dewpoint":-1,"windDirection":340,"windSpeed":7.408,"visibility":2.49,"altim":29.498032,"qualityControlFlag":"TRUE","skyCondition1a":"FEW","skyCondition1b":400,"skyCondition2a":"BKN","skyCondition2b":800,"flightCategory":"IFR","metarType":"METAR","geometry_esri":{"x":47.78,"y":13.02,"z":427}}}