{"type":"Feature","geometry":{"type":"Point","coordinates":[47.78,13.02,430]},"properties":{"stationId":"LOWS","rawText":"LOWS 150450Z 19002KT 9999 FEW120 SCT140 BKN250 15/13 Q1017 NOSIG","observationTime":"2018-07-15T04:50:00Z","temp":15,"dewpoint":13,"windDirection":190,"windSpeed":3.704,"visibility":6.21,"altim":30.029528,"qualityControlFlag":"TRUE","skyCondition1a":"FEW","skyCondition1b":12000,"skyCondition2a":"SCT","skyCondition2b":14000,"flightCategory":"VFR","metarType":"METAR","geometry_esri":{"x":47.78,"y":13.02,"z":430}}}