{"type":"Feature","geometry":{"type":"Point","coordinates":[47.78,13.02,430]},"properties":{"stationId":"LOWS","rawText":"LOWS 031050Z 15008KT 110V170 9999 -SHRA FEW040 BKN050 BKN090 10/06 Q1010 NOSIG","observationTime":"2018-12-03T10:50:00Z","temp":10,"dewpoint":6,"windDirection":150,"windSpeed":14.816,"visibility":6.21,"altim":29.822834,"qualityControlFlag":"TRUE","skyCondition1a":"FEW","skyCondition1b":4000,"skyCondition2a":"BKN","skyCondition2b":5000,"flightCategory":"VFR","metarType":"METAR","geometry_esri":{"x":47.78,"y":13.02,"z":430}}}