{"type":"Feature","geometry":{"type":"Point","coordinates":[47.78,13.02,430]},"properties":{"stationId":"LOWS","rawText":"LOWS 171450Z VRB04KT 9999 FEW032 BKN230 08/06 Q1000 NOSIG","observationTime":"2019-11-17T14:50:00Z","temp":8,"dewpoint":6,"windDirection":0,"windSpeed":7.408,"visibility":6.21,"altim":29.52756,"qualityControlFlag":"TRUE","skyCondition1a":"FEW","skyCondition1b":3200,"skyCondition2a":"BKN","skyCondition2b":23000,"flightCategory":"VFR","metarType":"METAR","geometry_esri":{"x":47.78,"y":13.02,"z":430}}}