{"type":"Feature","geometry":{"type":"Point","coordinates":[47.78,13.02,430]},"properties":{"stationId":"LOWS","rawText":"LOWS 151950Z 17004KT 080V250 9999 FEW025 FEW050CB SCT080 BKN120 18/16 Q1015 NOSIG","observationTime":"2019-06-15T19:50:00Z","temp":18,"dewpoint":16,"windDirection":170,"windSpeed":7.408,"visibility":6.21,"altim":29.970472,"qualityControlFlag":"TRUE","skyCondition1a":"FEW","skyCondition1b":2500,"skyCondition2a":"FEW","skyCondition2b":5000,"flightCategory":"VFR","metarType":"METAR","geometry_esri":{"x":47.78,"y":13.02,"z":430}}}