{"type":"Feature","geometry":{"type":"Point","coordinates":[47.78,13.02,430]},"properties":{"stationId":"LOWS","rawText":"LOWS 051750Z VRB01KT 0500 R15/0750N R33/0600D FZFG FEW001 BKN002 M05/M05 Q1029 NOSIG","observationTime":"2019-02-05T17:50:00Z","temp":-5,"dewpoint":-5,"windDirection":0,"windSpeed":1.852,"visibility":0.31,"altim":30.383858,"qualityControlFlag":"TRUE","skyCondition1a":"FEW","skyCondition1b":100,"skyCondition2a":"BKN","skyCondition2b":200,"flightCategory":"LIFR","metarType":"METAR","geometry_esri":{"x":47.78,"y":13.02,"z":430}}}