{"type":"Feature","geometry":{"type":"Point","coordinates":[47.78,13.02,430]},"properties":{"stationId":"LOWS","rawText":"LOWS 231550Z 28004KT 240V310 9999 FEW060 SCT090 23/08 Q1014 NOSIG","observationTime":"2018-04-23T15:50:00Z","temp":23,"dewpoint":8,"windDirection":280,"windSpeed":7.408,"visibility":6.21,"altim":29.940945,"qualityControlFlag":"TRUE","skyCondition1a":"FEW","skyCondition1b":6000,"skyCondition2a":"SCT","skyCondition2b":9000,"flightCategory":"VFR","metarType":"METAR","geometry_esri":{"x":47.78,"y":13.02,"z":430}}}