{"type":"Feature","geometry":{"type":"Point","coordinates":[47.78,13.02,427]},"properties":{"stationId":"LOWS","rawText":"LOWS 291150Z 30004KT 250V330 9999 FEW010 BKN020 01/M02 Q1022 NOSIG","observationTime":"2020-11-29T11:50:00Z","temp":1,"dewpoint":-2,"windDirection":300,"windSpeed":7.408,"visibility":6.21,"altim":30.177166,"qualityControlFlag":"TRUE","skyCondition1a":"FEW","skyCondition1b":1000,"skyCondition2a":"BKN","skyCondition2b":2000,"flightCategory":"MVFR","metarType":"METAR","geometry_esri":{"x":47.78,"y":13.02,"z":427}}}