{"type":"Feature","geometry":{"type":"Point","coordinates":[47.78,13.02,427]},"properties":{"stationId":"LOWS","rawText":"LOWS 291350Z 29017KT 250V320 9999 FEW050 SCT055 11/02 Q1000 R15/29//95 NOSIG","observationTime":"2021-01-29T13:50:00Z","temp":11,"dewpoint":2,"windDirection":290,"windSpeed":31.484,"visibility":6.21,"altim":29.52756,"qualityControlFlag":"TRUE","skyCondition1a":"FEW","skyCondition1b":5000,"skyCondition2a":"SCT","skyCondition2b":5500,"flightCategory":"VFR","metarType":"METAR","geometry_esri":{"x":47.78,"y":13.02,"z":427}}}