{"type":"Feature","geometry":{"type":"Point","coordinates":[47.78,13.02,430]},"properties":{"stationId":"LOWS","rawText":"LOWS 101050Z 14006KT 9999 FEW100 SCT130 BKN160 13/02 Q1007 NOSIG","observationTime":"2018-03-10T10:50:00Z","temp":13,"dewpoint":2,"windDirection":140,"windSpeed":11.112,"visibility":6.21,"altim":29.734253,"qualityControlFlag":"TRUE","skyCondition1a":"FEW","skyCondition1b":10000,"skyCondition2a":"SCT","skyCondition2b":13000,"flightCategory":"VFR","metarType":"METAR","geometry_esri":{"x":47.78,"y":13.02,"z":430}}}