{"type":"Feature","geometry":{"type":"Point","coordinates":[47.78,13.02,430]},"properties":{"stationId":"LOWS","rawText":"LOWS 011050Z 33004KT 290V350 9999 -SHRA FEW007 SCT025 BKN040 14/12 Q1021 NOSIG","observationTime":"2018-09-01T10:50:00Z","temp":14,"dewpoint":12,"windDirection":330,"windSpeed":7.408,"visibility":6.21,"altim":30.147638,"qualityControlFlag":"TRUE","skyCondition1a":"FEW","skyCondition1b":700,"skyCondition2a":"SCT","skyCondition2b":2500,"flightCategory":"VFR","metarType":"METAR","geometry_esri":{"x":47.78,"y":13.02,"z":430}}}