{"type":"Feature","geometry":{"type":"Point","coordinates":[47.78,13.02,430]},"properties":{"stationId":"LOWS","rawText":"LOWS 221750Z 03003KT 8000 FEW011 BKN014 M02/M05 Q1005 NOSIG","observationTime":"2019-01-22T17:50:00Z","temp":-2,"dewpoint":-5,"windDirection":30,"windSpeed":5.556,"visibility":4.97,"altim":29.675198,"qualityControlFlag":"TRUE","skyCondition1a":"FEW","skyCondition1b":1100,"skyCondition2a":"BKN","skyCondition2b":1400,"flightCategory":"MVFR","metarType":"METAR","geometry_esri":{"x":47.78,"y":13.02,"z":430}}}