{"type":"Feature","geometry":{"type":"Point","coordinates":[47.78,13.02,430]},"properties":{"stationId":"LOWS","rawText":"LOWS 061150Z 32006KT 9000 FEW006 BKN300 M04/M06 Q1028 NOSIG","observationTime":"2019-02-06T11:50:00Z","temp":-4,"dewpoint":-6,"windDirection":320,"windSpeed":11.112,"visibility":5.59,"altim":30.35433,"qualityControlFlag":"TRUE","skyCondition1a":"FEW","skyCondition1b":600,"skyCondition2a":"BKN","skyCondition2b":30000,"flightCategory":"VFR","metarType":"METAR","geometry_esri":{"x":47.78,"y":13.02,"z":430}}}