{"type":"Feature","geometry":{"type":"Point","coordinates":[47.78,13.02,430]},"properties":{"stationId":"LOWS","rawText":"LOWS 141350Z 32005KT 9999 FEW030 SCT040 BKN060 08/01 Q1023 NOSIG","observationTime":"2020-02-14T13:50:00Z","temp":8,"dewpoint":1,"windDirection":320,"windSpeed":9.26,"visibility":6.21,"altim":30.206694,"qualityControlFlag":"TRUE","skyCondition1a":"FEW","skyCondition1b":3000,"skyCondition2a":"SCT","skyCondition2b":4000,"flightCategory":"VFR","metarType":"METAR","geometry_esri":{"x":47.78,"y":13.02,"z":430}}}