{"type":"Feature","geometry":{"type":"Point","coordinates":[47.78,13.02,427]},"properties":{"stationId":"LOWS","rawText":"LOWS 011350Z 29004KT 240V320 9999 -SHRA FEW020 SCT040 FEW040CB BKN050 15/12 Q1016 NOSIG","observationTime":"2020-09-01T13:50:00Z","temp":15,"dewpoint":12,"windDirection":290,"windSpeed":7.408,"visibility":6.21,"altim":30,"qualityControlFlag":"TRUE","skyCondition1a":"FEW","skyCondition1b":2000,"skyCondition2a":"SCT","skyCondition2b":4000,"flightCategory":"VFR","metarType":"METAR","geometry_esri":{"x":47.78,"y":13.02,"z":427}}}