{"type":"Feature","geometry":{"type":"Point","coordinates":[47.78,13.02,427]},"properties":{"stationId":"LOWS","rawText":"LOWS 170850Z 14008KT 9999 -SHRA FEW006 SCT055 BKN100 17/14 Q1023 NOSIG","observationTime":"2020-09-17T08:50:00Z","temp":17,"dewpoint":14,"windDirection":140,"windSpeed":14.816,"visibility":6.21,"altim":30.206694,"qualityControlFlag":"TRUE","skyCondition1a":"FEW","skyCondition1b":600,"skyCondition2a":"SCT","skyCondition2b":5500,"flightCategory":"VFR","metarType":"METAR","geometry_esri":{"x":47.78,"y":13.02,"z":427}}}