{"type":"Feature","geometry":{"type":"Point","coordinates":[47.78,13.02,430]},"properties":{"stationId":"LOWS","rawText":"LOWS 210950Z 15007KT 110V180 9999 FEW050 BKN090 09/02 Q1028 NOSIG","observationTime":"2019-02-21T09:50:00Z","temp":9,"dewpoint":2,"windDirection":150,"windSpeed":12.964,"visibility":6.21,"altim":30.35433,"qualityControlFlag":"TRUE","skyCondition1a":"FEW","skyCondition1b":5000,"skyCondition2a":"BKN","skyCondition2b":9000,"flightCategory":"VFR","metarType":"METAR","geometry_esri":{"x":47.78,"y":13.02,"z":430}}}