{"type":"Feature","geometry":{"type":"Point","coordinates":[47.78,13.02,430]},"properties":{"stationId":"LOWS","rawText":"LOWS 241150Z VRB02KT 9999 FEW030 BKN055 17/09 Q1021 NOSIG","observationTime":"2018-06-24T11:50:00Z","temp":17,"dewpoint":9,"windDirection":0,"windSpeed":3.704,"visibility":6.21,"altim":30.147638,"qualityControlFlag":"TRUE","skyCondition1a":"FEW","skyCondition1b":3000,"skyCondition2a":"BKN","skyCondition2b":5500,"flightCategory":"VFR","metarType":"METAR","geometry_esri":{"x":47.78,"y":13.02,"z":430}}}