{"type":"Feature","geometry":{"type":"Point","coordinates":[47.78,13.02,430]},"properties":{"stationId":"LOWS","rawText":"LOWS 231750Z 29014G25KT 250V320 9999 FEW019 SCT030 BKN034 06/02 Q1013 NOSIG","observationTime":"2019-12-23T17:50:00Z","temp":6,"dewpoint":2,"windDirection":290,"windSpeed":25.928,"visibility":6.21,"altim":29.911417,"qualityControlFlag":"TRUE","skyCondition1a":"FEW","skyCondition1b":1900,"skyCondition2a":"SCT","skyCondition2b":3000,"flightCategory":"VFR","metarType":"METAR","geometry_esri":{"x":47.78,"y":13.02,"z":430}}}