{"type":"Feature","geometry":{"type":"Point","coordinates":[47.78,13.02,430]},"properties":{"stationId":"LOWS","rawText":"LOWS 201350Z 36007KT 9999 FEW036 SCT040 BKN090 18/09 Q1020 NOSIG","observationTime":"2020-05-20T13:50:00Z","temp":18,"dewpoint":9,"windDirection":360,"windSpeed":12.964,"visibility":6.21,"altim":30.11811,"qualityControlFlag":"TRUE","skyCondition1a":"FEW","skyCondition1b":3600,"skyCondition2a":"SCT","skyCondition2b":4000,"flightCategory":"VFR","metarType":"METAR","geometry_esri":{"x":47.78,"y":13.02,"z":430}}}