{"type":"Feature","geometry":{"type":"Point","coordinates":[47.78,13.02,427]},"properties":{"stationId":"LOWS","rawText":"LOWS 101450Z 29005KT 8000 FEW004 BKN007 06/05 Q1027 NOSIG","observationTime":"2020-11-10T14:50:00Z","temp":6,"dewpoint":5,"windDirection":290,"windSpeed":9.26,"visibility":4.97,"altim":30.324802,"qualityControlFlag":"TRUE","skyCondition1a":"FEW","skyCondition1b":400,"skyCondition2a":"BKN","skyCondition2b":700,"flightCategory":"IFR","metarType":"METAR","geometry_esri":{"x":47.78,"y":13.02,"z":427}}}