{"type":"Feature","geometry":{"type":"Point","coordinates":[47.78,13.02,427]},"properties":{"stationId":"LOWS","rawText":"LOWS 031250Z 14004KT 9999 FEW012 BKN045 01/M03 Q1006 R15/19//95 NOSIG","observationTime":"2020-12-03T12:50:00Z","temp":1,"dewpoint":-3,"windDirection":140,"windSpeed":7.408,"visibility":6.21,"altim":29.704725,"qualityControlFlag":"TRUE","skyCondition1a":"FEW","skyCondition1b":1200,"skyCondition2a":"BKN","skyCondition2b":4500,"flightCategory":"VFR","metarType":"METAR","geometry_esri":{"x":47.78,"y":13.02,"z":427}}}