{"type":"Feature","geometry":{"type":"Point","coordinates":[47.78,13.02,427]},"properties":{"stationId":"LOWS","rawText":"LOWS 180650Z VRB01KT 9999 FEW003 SCT023 BKN040 06/06 Q1022 NOSIG","observationTime":"2020-10-18T06:50:00Z","temp":6,"dewpoint":6,"windDirection":0,"windSpeed":1.852,"visibility":6.21,"altim":30.177166,"qualityControlFlag":"TRUE","skyCondition1a":"FEW","skyCondition1b":300,"skyCondition2a":"SCT","skyCondition2b":2300,"flightCategory":"VFR","metarType":"METAR","geometry_esri":{"x":47.78,"y":13.02,"z":427}}}