{"type":"Feature","geometry":{"type":"Point","coordinates":[47.78,13.02,430]},"properties":{"stationId":"LOWS","rawText":"LOWS 310850Z 13003KT 100V170 9999 FEW007 SCT011 BKN020 05/03 Q0999 NOSIG","observationTime":"2018-03-31T08:50:00Z","temp":5,"dewpoint":3,"windDirection":130,"windSpeed":5.556,"visibility":6.21,"altim":29.498032,"qualityControlFlag":"TRUE","skyCondition1a":"FEW","skyCondition1b":700,"skyCondition2a":"SCT","skyCondition2b":1100,"flightCategory":"MVFR","metarType":"METAR","geometry_esri":{"x":47.78,"y":13.02,"z":430}}}