{"type":"Feature","geometry":{"type":"Point","coordinates":[47.78,13.02,430]},"properties":{"stationId":"LOWS","rawText":"LOWS 170650Z 15003KT 120V180 9999 FEW030 SCT040 12/09 Q1025 NOSIG","observationTime":"2018-04-17T06:50:00Z","temp":12,"dewpoint":9,"windDirection":150,"windSpeed":5.556,"visibility":6.21,"altim":30.265747,"qualityControlFlag":"TRUE","skyCondition1a":"FEW","skyCondition1b":3000,"skyCondition2a":"SCT","skyCondition2b":4000,"flightCategory":"VFR","metarType":"METAR","geometry_esri":{"x":47.78,"y":13.02,"z":430}}}