{"type":"Feature","geometry":{"type":"Point","coordinates":[47.78,13.02,430]},"properties":{"stationId":"LOWS","rawText":"LOWS 301550Z 01007KT 340V040 9999 FEW050 SCT070 24/14 Q1014 NOSIG","observationTime":"2018-06-30T15:50:00Z","temp":24,"dewpoint":14,"windDirection":10,"windSpeed":12.964,"visibility":6.21,"altim":29.940945,"qualityControlFlag":"TRUE","skyCondition1a":"FEW","skyCondition1b":5000,"skyCondition2a":"SCT","skyCondition2b":7000,"flightCategory":"VFR","metarType":"METAR","geometry_esri":{"x":47.78,"y":13.02,"z":430}}}