{"type":"Feature","geometry":{"type":"Point","coordinates":[47.78,13.02,430]},"properties":{"stationId":"LOWS","rawText":"LOWS 060820Z 18005KT 9999 FEW080 SCT300 14/06 Q1011 NOSIG","observationTime":"2018-11-06T08:20:00Z","temp":14,"dewpoint":6,"windDirection":180,"windSpeed":9.26,"visibility":6.21,"altim":29.852362,"qualityControlFlag":"TRUE","skyCondition1a":"FEW","skyCondition1b":8000,"skyCondition2a":"SCT","skyCondition2b":30000,"flightCategory":"VFR","metarType":"METAR","geometry_esri":{"x":47.78,"y":13.02,"z":430}}}