{"type":"Feature","geometry":{"type":"Point","coordinates":[47.78,13.02,430]},"properties":{"stationId":"LOWS","rawText":"LOWS 121150Z 30006KT 240V340 9999 -RASN FEW010 SCT016 BKN028 02/01 Q1021 R15/19//95 NOSIG","observationTime":"2019-01-12T11:50:00Z","temp":2,"dewpoint":1,"windDirection":300,"windSpeed":11.112,"visibility":6.21,"altim":30.147638,"qualityControlFlag":"TRUE","skyCondition1a":"FEW","skyCondition1b":1000,"skyCondition2a":"SCT","skyCondition2b":1600,"flightCategory":"MVFR","metarType":"SPECI","geometry_esri":{"x":47.78,"y":13.02,"z":430}}}