{"type":"Feature","geometry":{"type":"Point","coordinates":[47.78,13.02,427]},"properties":{"stationId":"LOWS","rawText":"LOWS 240950Z 29015G28KT 9999 FEW040 SCT065 03/M05 Q1000 NOSIG","observationTime":"2021-01-24T09:50:00Z","temp":3,"dewpoint":-5,"windDirection":290,"windSpeed":27.78,"visibility":6.21,"altim":29.52756,"qualityControlFlag":"TRUE","skyCondition1a":"FEW","skyCondition1b":4000,"skyCondition2a":"SCT","skyCondition2b":6500,"flightCategory":"VFR","metarType":"METAR","geometry_esri":{"x":47.78,"y":13.02,"z":427}}}