{"type":"Feature","geometry":{"type":"Point","coordinates":[47.78,13.02,430]},"properties":{"stationId":"LOWS","rawText":"LOWS 301250Z 33013KT 9999 FEW060 BKN160 10/04 Q1001 NOSIG","observationTime":"2018-10-30T12:50:00Z","temp":10,"dewpoint":4,"windDirection":330,"windSpeed":24.076,"visibility":6.21,"altim":29.557087,"qualityControlFlag":"TRUE","skyCondition1a":"FEW","skyCondition1b":6000,"skyCondition2a":"BKN","skyCondition2b":16000,"flightCategory":"VFR","metarType":"METAR","geometry_esri":{"x":47.78,"y":13.02,"z":430}}}