{"type":"Feature","geometry":{"type":"Point","coordinates":[47.78,13.02,430]},"properties":{"stationId":"LOWS","rawText":"LOWS 272150Z 31008KT 7000 FEW004 BKN008 02/01 Q1033 NOSIG","observationTime":"2019-12-27T21:50:00Z","temp":2,"dewpoint":1,"windDirection":310,"windSpeed":14.816,"visibility":4.35,"altim":30.501968,"qualityControlFlag":"TRUE","skyCondition1a":"FEW","skyCondition1b":400,"skyCondition2a":"BKN","skyCondition2b":800,"flightCategory":"IFR","metarType":"METAR","geometry_esri":{"x":47.78,"y":13.02,"z":430}}}