{"type":"Feature","geometry":{"type":"Point","coordinates":[47.78,13.02,430]},"properties":{"stationId":"LOWS","rawText":"LOWS 041650Z 31022KT 9999 FEW040 SCT300 11/04 Q0997 NOSIG","observationTime":"2019-04-04T16:50:00Z","temp":11,"dewpoint":4,"windDirection":310,"windSpeed":40.744,"visibility":6.21,"altim":29.438976,"qualityControlFlag":"TRUE","skyCondition1a":"FEW","skyCondition1b":4000,"skyCondition2a":"SCT","skyCondition2b":30000,"flightCategory":"VFR","metarType":"METAR","geometry_esri":{"x":47.78,"y":13.02,"z":430}}}