{"type":"Feature","geometry":{"type":"Point","coordinates":[47.78,13.02,430]},"properties":{"stationId":"LOWS","rawText":"LOWS 010450Z 14007KT 8000 -RA FEW010 SCT025 BKN030 02/02 Q1018 NOSIG","observationTime":"2018-12-01T04:50:00Z","temp":2,"dewpoint":2,"windDirection":140,"windSpeed":12.964,"visibility":4.97,"altim":30.059055,"qualityControlFlag":"TRUE","skyCondition1a":"FEW","skyCondition1b":1000,"skyCondition2a":"SCT","skyCondition2b":2500,"flightCategory":"MVFR","metarType":"METAR","geometry_esri":{"x":47.78,"y":13.02,"z":430}}}