{"type":"Feature","geometry":{"type":"Point","coordinates":[47.78,13.02,427]},"properties":{"stationId":"LOWS","rawText":"LOWS 161350Z 33006KT 310V010 9999 FEW042 FEW050CB 26/16 Q1018 NOSIG","observationTime":"2020-09-16T13:50:00Z","temp":26,"dewpoint":16,"windDirection":330,"windSpeed":11.112,"visibility":6.21,"altim":30.059055,"qualityControlFlag":"TRUE","skyCondition1a":"FEW","skyCondition1b":4200,"skyCondition2a":"FEW","skyCondition2b":5000,"flightCategory":"VFR","metarType":"METAR","geometry_esri":{"x":47.78,"y":13.02,"z":427}}}