{"type":"Feature","geometry":{"type":"Point","coordinates":[47.78,13.02,430]},"properties":{"stationId":"LOWS","rawText":"LOWS 071250Z 17004KT 140V210 9999 FEW014 SCT040 BKN080 19/16 Q1016 NOSIG","observationTime":"2018-09-07T12:50:00Z","temp":19,"dewpoint":16,"windDirection":170,"windSpeed":7.408,"visibility":6.21,"altim":30,"qualityControlFlag":"TRUE","skyCondition1a":"FEW","skyCondition1b":1400,"skyCondition2a":"SCT","skyCondition2b":4000,"flightCategory":"VFR","metarType":"METAR","geometry_esri":{"x":47.78,"y":13.02,"z":430}}}