{"type":"Feature","geometry":{"type":"Point","coordinates":[47.78,13.02,430]},"properties":{"stationId":"LOWS","rawText":"LOWS 171350Z 34007KT 320V020 9999 FEW044 BKN060 13/05 Q1030 NOSIG","observationTime":"2020-03-17T13:50:00Z","temp":13,"dewpoint":5,"windDirection":340,"windSpeed":12.964,"visibility":6.21,"altim":30.413385,"qualityControlFlag":"TRUE","skyCondition1a":"FEW","skyCondition1b":4400,"skyCondition2a":"BKN","skyCondition2b":6000,"flightCategory":"VFR","metarType":"METAR","geometry_esri":{"x":47.78,"y":13.02,"z":430}}}