{"type":"Feature","geometry":{"type":"Point","coordinates":[47.78,13.02,427]},"properties":{"stationId":"LOWS","rawText":"LOWS 190820Z 18003KT 9999 FEW012 SCT065 08/05 Q1025 NOSIG","observationTime":"2020-10-19T08:20:00Z","temp":8,"dewpoint":5,"windDirection":180,"windSpeed":5.556,"visibility":6.21,"altim":30.265747,"qualityControlFlag":"TRUE","skyCondition1a":"FEW","skyCondition1b":1200,"skyCondition2a":"SCT","skyCondition2b":6500,"flightCategory":"VFR","metarType":"METAR","geometry_esri":{"x":47.78,"y":13.02,"z":427}}}