{"type":"Feature","geometry":{"type":"Point","coordinates":[47.78,13.02,430]},"properties":{"stationId":"LOWS","rawText":"LOWS 180950Z 02007KT 350V050 9999 FEW015 OVC022 M02/M06 Q1001 NOSIG","observationTime":"2018-03-18T09:50:00Z","temp":-2,"dewpoint":-6,"windDirection":20,"windSpeed":12.964,"visibility":6.21,"altim":29.557087,"qualityControlFlag":"TRUE","skyCondition1a":"FEW","skyCondition1b":1500,"skyCondition2a":"OVC","skyCondition2b":2200,"flightCategory":"MVFR","metarType":"METAR","geometry_esri":{"x":47.78,"y":13.02,"z":430}}}