{"type":"Feature","geometry":{"type":"Point","coordinates":[47.78,13.02,427]},"properties":{"stationId":"LOWS","rawText":"LOWS 070750Z 03003KT 9999 FEW010 BKN024 04/01 Q1002 NOSIG","observationTime":"2020-12-07T07:50:00Z","temp":4,"dewpoint":1,"windDirection":30,"windSpeed":5.556,"visibility":6.21,"altim":29.586615,"qualityControlFlag":"TRUE","skyCondition1a":"FEW","skyCondition1b":1000,"skyCondition2a":"BKN","skyCondition2b":2400,"flightCategory":"MVFR","metarType":"METAR","geometry_esri":{"x":47.78,"y":13.02,"z":427}}}