{"type":"Feature","geometry":{"type":"Point","coordinates":[47.78,13.02,430]},"properties":{"stationId":"LOWS","rawText":"LOWS 141350Z 27008KT 240V310 9999 FEW040 BKN060 08/M02 Q1008 NOSIG","observationTime":"2019-03-14T13:50:00Z","temp":8,"dewpoint":-2,"windDirection":270,"windSpeed":14.816,"visibility":6.21,"altim":29.763779,"qualityControlFlag":"TRUE","skyCondition1a":"FEW","skyCondition1b":4000,"skyCondition2a":"BKN","skyCondition2b":6000,"flightCategory":"VFR","metarType":"METAR","geometry_esri":{"x":47.78,"y":13.02,"z":430}}}