{"type":"Feature","geometry":{"type":"Point","coordinates":[47.78,13.02,430]},"properties":{"stationId":"LOWS","rawText":"LOWS 120850Z 32008KT 280V350 9999 FEW011 SCT014 BKN024 18/15 Q1019 NOSIG","observationTime":"2019-08-12T08:50:00Z","temp":18,"dewpoint":15,"windDirection":320,"windSpeed":14.816,"visibility":6.21,"altim":30.088583,"qualityControlFlag":"TRUE","skyCondition1a":"FEW","skyCondition1b":1100,"skyCondition2a":"SCT","skyCondition2b":1400,"flightCategory":"MVFR","metarType":"METAR","geometry_esri":{"x":47.78,"y":13.02,"z":430}}}