{"type":"Feature","geometry":{"type":"Point","coordinates":[47.78,13.02,430]},"properties":{"stationId":"LOWS","rawText":"LOWS 120850Z 15004KT 9999 FEW015 BKN090 09/07 Q0997 NOSIG","observationTime":"2018-03-12T08:50:00Z","temp":9,"dewpoint":7,"windDirection":150,"windSpeed":7.408,"visibility":6.21,"altim":29.438976,"qualityControlFlag":"TRUE","skyCondition1a":"FEW","skyCondition1b":1500,"skyCondition2a":"BKN","skyCondition2b":9000,"flightCategory":"VFR","metarType":"METAR","geometry_esri":{"x":47.78,"y":13.02,"z":430}}}