{"type":"Feature","geometry":{"type":"Point","coordinates":[47.78,13.02,430]},"properties":{"stationId":"LOWS","rawText":"LOWS 252150Z 00000KT 7000 FEW006 SCT010 BKN015 04/03 Q1004 NOSIG","observationTime":"2018-11-25T21:50:00Z","temp":4,"dewpoint":3,"windDirection":0,"windSpeed":0,"visibility":4.35,"altim":29.64567,"qualityControlFlag":"TRUE","skyCondition1a":"FEW","skyCondition1b":600,"skyCondition2a":"SCT","skyCondition2b":1000,"flightCategory":"MVFR","metarType":"METAR","geometry_esri":{"x":47.78,"y":13.02,"z":430}}}