{"type":"Feature","geometry":{"type":"Point","coordinates":[47.78,13.02,430]},"properties":{"stationId":"LOWS","rawText":"LOWS 181450Z 35008KT 310V030 9999 FEW050 SCT060 22/11 Q1012 NOSIG","observationTime":"2020-06-18T14:50:00Z","temp":22,"dewpoint":11,"windDirection":350,"windSpeed":14.816,"visibility":6.21,"altim":29.88189,"qualityControlFlag":"TRUE","skyCondition1a":"FEW","skyCondition1b":5000,"skyCondition2a":"SCT","skyCondition2b":6000,"flightCategory":"VFR","metarType":"METAR","geometry_esri":{"x":47.78,"y":13.02,"z":430}}}