{"type":"Feature","geometry":{"type":"Point","coordinates":[47.78,13.02,430]},"properties":{"stationId":"LOWS","rawText":"LOWS 270550Z 15003KT 110V170 9999 FEW048 BKN055 BKN300 14/12 Q1012 NOSIG","observationTime":"2019-05-27T05:50:00Z","temp":14,"dewpoint":12,"windDirection":150,"windSpeed":5.556,"visibility":6.21,"altim":29.88189,"qualityControlFlag":"TRUE","skyCondition1a":"FEW","skyCondition1b":4800,"skyCondition2a":"BKN","skyCondition2b":5500,"flightCategory":"VFR","metarType":"METAR","geometry_esri":{"x":47.78,"y":13.02,"z":430}}}