{"type":"Feature","geometry":{"type":"Point","coordinates":[47.78,13.02,430]},"properties":{"stationId":"LOWS","rawText":"LOWS 212050Z 17003KT 110V230 9999 FEW012 SCT060 BKN090 16/16 Q1020 NOSIG","observationTime":"2019-06-21T20:50:00Z","temp":16,"dewpoint":16,"windDirection":170,"windSpeed":5.556,"visibility":6.21,"altim":30.11811,"qualityControlFlag":"TRUE","skyCondition1a":"FEW","skyCondition1b":1200,"skyCondition2a":"SCT","skyCondition2b":6000,"flightCategory":"VFR","metarType":"METAR","geometry_esri":{"x":47.78,"y":13.02,"z":430}}}