{"type":"Feature","geometry":{"type":"Point","coordinates":[47.78,13.02,430]},"properties":{"stationId":"LOWS","rawText":"LOWS 241050Z 12003KT 080V190 9999 FEW035 SCT060 18/12 Q1019 NOSIG","observationTime":"2018-04-24T10:50:00Z","temp":18,"dewpoint":12,"windDirection":120,"windSpeed":5.556,"visibility":6.21,"altim":30.088583,"qualityControlFlag":"TRUE","skyCondition1a":"FEW","skyCondition1b":3500,"skyCondition2a":"SCT","skyCondition2b":6000,"flightCategory":"VFR","metarType":"METAR","geometry_esri":{"x":47.78,"y":13.02,"z":430}}}