{"type":"Feature","geometry":{"type":"Point","coordinates":[47.78,13.02,430]},"properties":{"stationId":"LOWS","rawText":"LOWS 201450Z 32008KT 290V360 9999 FEW020 BKN035 M00/M06 Q1014 R15/CLRD// NOSIG","observationTime":"2018-03-20T14:50:00Z","temp":0,"dewpoint":-6,"windDirection":320,"windSpeed":14.816,"visibility":6.21,"altim":29.940945,"qualityControlFlag":"TRUE","skyCondition1a":"FEW","skyCondition1b":2000,"skyCondition2a":"BKN","skyCondition2b":3500,"flightCategory":"VFR","metarType":"METAR","geometry_esri":{"x":47.78,"y":13.02,"z":430}}}