{"type":"Feature","geometry":{"type":"Point","coordinates":[47.78,13.02,427]},"properties":{"stationId":"LOWS","rawText":"LOWS 291850Z 24002KT 9999 FEW010 OVC020 01/M02 Q1024 NOSIG","observationTime":"2020-11-29T18:50:00Z","temp":1,"dewpoint":-2,"windDirection":240,"windSpeed":3.704,"visibility":6.21,"altim":30.236221,"qualityControlFlag":"TRUE","skyCondition1a":"FEW","skyCondition1b":1000,"skyCondition2a":"OVC","skyCondition2b":2000,"flightCategory":"MVFR","metarType":"METAR","geometry_esri":{"x":47.78,"y":13.02,"z":427}}}