{"type":"Feature","geometry":{"type":"Point","coordinates":[47.78,13.02,430]},"properties":{"stationId":"LOWS","rawText":"LOWS 041350Z 29005KT 240V320 9999 -RA FEW008 BKN025 BKN060 04/01 Q1028 NOSIG","observationTime":"2020-01-04T13:50:00Z","temp":4,"dewpoint":1,"windDirection":290,"windSpeed":9.26,"visibility":6.21,"altim":30.35433,"qualityControlFlag":"TRUE","skyCondition1a":"FEW","skyCondition1b":800,"skyCondition2a":"BKN","skyCondition2b":2500,"flightCategory":"MVFR","metarType":"METAR","geometry_esri":{"x":47.78,"y":13.02,"z":430}}}