{"type":"Feature","geometry":{"type":"Point","coordinates":[47.78,13.02,427]},"properties":{"stationId":"LOWS","rawText":"LOWS 040450Z 27003KT 9999 FEW026 BKN038 08/06 Q1029 NOSIG","observationTime":"2020-11-04T04:50:00Z","temp":8,"dewpoint":6,"windDirection":270,"windSpeed":5.556,"visibility":6.21,"altim":30.383858,"qualityControlFlag":"TRUE","skyCondition1a":"FEW","skyCondition1b":2600,"skyCondition2a":"BKN","skyCondition2b":3800,"flightCategory":"VFR","metarType":"METAR","geometry_esri":{"x":47.78,"y":13.02,"z":427}}}