{"type":"Feature","geometry":{"type":"Point","coordinates":[47.78,13.02,427]},"properties":{"stationId":"LOWS","rawText":"LOWS 130950Z 15004KT 9999 FEW005 SCT012 BKN032 06/05 Q1013 NOSIG","observationTime":"2020-10-13T09:50:00Z","temp":6,"dewpoint":5,"windDirection":150,"windSpeed":7.408,"visibility":6.21,"altim":29.911417,"qualityControlFlag":"TRUE","skyCondition1a":"FEW","skyCondition1b":500,"skyCondition2a":"SCT","skyCondition2b":1200,"flightCategory":"VFR","metarType":"METAR","geometry_esri":{"x":47.78,"y":13.02,"z":427}}}