{"type":"Feature","geometry":{"type":"Point","coordinates":[47.78,13.02,430]},"properties":{"stationId":"LOWS","rawText":"LOWS 050650Z 14006KT 9999 FEW080 BKN095 16/11 Q1017 NOSIG","observationTime":"2019-09-05T06:50:00Z","temp":16,"dewpoint":11,"windDirection":140,"windSpeed":11.112,"visibility":6.21,"altim":30.029528,"qualityControlFlag":"TRUE","skyCondition1a":"FEW","skyCondition1b":8000,"skyCondition2a":"BKN","skyCondition2b":9500,"flightCategory":"VFR","metarType":"METAR","geometry_esri":{"x":47.78,"y":13.02,"z":430}}}