{"type":"Feature","geometry":{"type":"Point","coordinates":[47.78,13.02,427]},"properties":{"stationId":"LOWS","rawText":"LOWS 290850Z VRB02KT 9999 FEW006 SCT011 BKN070 17/14 Q1009 NOSIG","observationTime":"2020-08-29T08:50:00Z","temp":17,"dewpoint":14,"windDirection":0,"windSpeed":3.704,"visibility":6.21,"altim":29.793306,"qualityControlFlag":"TRUE","skyCondition1a":"FEW","skyCondition1b":600,"skyCondition2a":"SCT","skyCondition2b":1100,"flightCategory":"VFR","metarType":"METAR","geometry_esri":{"x":47.78,"y":13.02,"z":427}}}