{"type":"Feature","geometry":{"type":"Point","coordinates":[47.78,13.02,430]},"properties":{"stationId":"LOWS","rawText":"LOWS 010550Z 30006KT 3100 -DZ BR FEW002 SCT003 BKN006 12/12 Q1020 NOSIG","observationTime":"2018-09-01T05:50:00Z","temp":12,"dewpoint":12,"windDirection":300,"windSpeed":11.112,"visibility":1.93,"altim":30.11811,"qualityControlFlag":"TRUE","skyCondition1a":"FEW","skyCondition1b":200,"skyCondition2a":"SCT","skyCondition2b":300,"flightCategory":"IFR","metarType":"METAR","geometry_esri":{"x":47.78,"y":13.02,"z":430}}}