{"type":"Feature","geometry":{"type":"Point","coordinates":[47.78,13.02,430]},"properties":{"stationId":"LOWS","rawText":"LOWS 281450Z 19004KT 170V230 9999 -RA FEW032 BKN042 09/07 Q1002 NOSIG","observationTime":"2019-11-28T14:50:00Z","temp":9,"dewpoint":7,"windDirection":190,"windSpeed":7.408,"visibility":6.21,"altim":29.586615,"qualityControlFlag":"TRUE","skyCondition1a":"FEW","skyCondition1b":3200,"skyCondition2a":"BKN","skyCondition2b":4200,"flightCategory":"VFR","metarType":"METAR","geometry_esri":{"x":47.78,"y":13.02,"z":430}}}