{"type":"Feature","geometry":{"type":"Point","coordinates":[47.78,13.02,430]},"properties":{"stationId":"LOWS","rawText":"LOWS 242050Z 28009G20KT 240V320 9999 FEW034 SCT046 BKN070 09/02 Q1015 NOSIG","observationTime":"2019-12-24T20:50:00Z","temp":9,"dewpoint":2,"windDirection":280,"windSpeed":16.668,"visibility":6.21,"altim":29.970472,"qualityControlFlag":"TRUE","skyCondition1a":"FEW","skyCondition1b":3400,"skyCondition2a":"SCT","skyCondition2b":4600,"flightCategory":"VFR","metarType":"METAR","geometry_esri":{"x":47.78,"y":13.02,"z":430}}}