{"type":"Feature","geometry":{"type":"Point","coordinates":[47.78,13.02,430]},"properties":{"stationId":"LOWS","rawText":"LOWS 041350Z 25008KT 220V280 9999 FEW030 SCT044 BKN050 08/05 Q1020 NOSIG","observationTime":"2018-12-04T13:50:00Z","temp":8,"dewpoint":5,"windDirection":250,"windSpeed":14.816,"visibility":6.21,"altim":30.11811,"qualityControlFlag":"TRUE","skyCondition1a":"FEW","skyCondition1b":3000,"skyCondition2a":"SCT","skyCondition2b":4400,"flightCategory":"VFR","metarType":"METAR","geometry_esri":{"x":47.78,"y":13.02,"z":430}}}