{"type":"Feature","geometry":{"type":"Point","coordinates":[47.78,13.02,430]},"properties":{"stationId":"LOWS","rawText":"LOWS 281150Z 33004KT 290V010 9999 FEW023 SCT035 BKN100 21/17 Q1001 NOSIG","observationTime":"2019-07-28T11:50:00Z","temp":21,"dewpoint":17,"windDirection":330,"windSpeed":7.408,"visibility":6.21,"altim":29.557087,"qualityControlFlag":"TRUE","skyCondition1a":"FEW","skyCondition1b":2300,"skyCondition2a":"SCT","skyCondition2b":3500,"flightCategory":"VFR","metarType":"METAR","geometry_esri":{"x":47.78,"y":13.02,"z":430}}}