{"type":"Feature","geometry":{"type":"Point","coordinates":[47.78,13.02,427]},"properties":{"stationId":"LOWS","rawText":"LOWS 301550Z VRB01KT 9999 FEW040 OVC050 02/00 Q1006 R15/19//95 NOSIG","observationTime":"2020-12-30T15:50:00Z","temp":2,"dewpoint":0,"windDirection":0,"windSpeed":1.852,"visibility":6.21,"altim":29.704725,"qualityControlFlag":"TRUE","skyCondition1a":"FEW","skyCondition1b":4000,"skyCondition2a":"OVC","skyCondition2b":5000,"flightCategory":"VFR","metarType":"METAR","geometry_esri":{"x":47.78,"y":13.02,"z":427}}}