{"type":"Feature","geometry":{"type":"Point","coordinates":[47.78,13.02,427]},"properties":{"stationId":"LOWS","rawText":"LOWS 050550Z 25007KT 220V290 9999 FEW028 SCT050 BKN065 11/08 Q1005 NOSIG","observationTime":"2020-10-05T05:50:00Z","temp":11,"dewpoint":8,"windDirection":250,"windSpeed":12.964,"visibility":6.21,"altim":29.675198,"qualityControlFlag":"TRUE","skyCondition1a":"FEW","skyCondition1b":2800,"skyCondition2a":"SCT","skyCondition2b":5000,"flightCategory":"VFR","metarType":"METAR","geometry_esri":{"x":47.78,"y":13.02,"z":427}}}