{"type":"Feature","geometry":{"type":"Point","coordinates":[47.78,13.02,430]},"properties":{"stationId":"LOWS","rawText":"LOWS 031250Z 32002KT 8000 SCT010 BKN014 10/08 Q1025 NOSIG","observationTime":"2018-11-03T12:50:00Z","temp":10,"dewpoint":8,"windDirection":320,"windSpeed":3.704,"visibility":4.97,"altim":30.265747,"qualityControlFlag":"TRUE","skyCondition1a":"SCT","skyCondition1b":1000,"skyCondition2a":"BKN","skyCondition2b":1400,"flightCategory":"MVFR","metarType":"METAR","geometry_esri":{"x":47.78,"y":13.02,"z":430}}}