{"type":"Feature","geometry":{"type":"Point","coordinates":[47.78,13.02,430]},"properties":{"stationId":"LOWS","rawText":"LOWS 210950Z 30004KT 250V340 9999 FEW006 BKN018 BKN030 15/12 Q1029 NOSIG","observationTime":"2019-08-21T09:50:00Z","temp":15,"dewpoint":12,"windDirection":300,"windSpeed":7.408,"visibility":6.21,"altim":30.383858,"qualityControlFlag":"TRUE","skyCondition1a":"FEW","skyCondition1b":600,"skyCondition2a":"BKN","skyCondition2b":1800,"flightCategory":"MVFR","metarType":"METAR","geometry_esri":{"x":47.78,"y":13.02,"z":430}}}