{"type":"Feature","geometry":{"type":"Point","coordinates":[47.78,13.02,427]},"properties":{"stationId":"LOWS","rawText":"LOWS 150650Z 18004KT 9999 SCT026 BKN028 03/03 Q1013 NOSIG","observationTime":"2020-10-15T06:50:00Z","temp":3,"dewpoint":3,"windDirection":180,"windSpeed":7.408,"visibility":6.21,"altim":29.911417,"qualityControlFlag":"TRUE","skyCondition1a":"SCT","skyCondition1b":2600,"skyCondition2a":"BKN","skyCondition2b":2800,"flightCategory":"MVFR","metarType":"METAR","geometry_esri":{"x":47.78,"y":13.02,"z":427}}}