{"type":"Feature","geometry":{"type":"Point","coordinates":[47.78,13.02,427]},"properties":{"stationId":"LOWS","rawText":"LOWS 011150Z 23006KT 200V260 9999 FEW009 SCT035 BKN090 15/12 Q1016 NOSIG","observationTime":"2020-09-01T11:50:00Z","temp":15,"dewpoint":12,"windDirection":230,"windSpeed":11.112,"visibility":6.21,"altim":30,"qualityControlFlag":"TRUE","skyCondition1a":"FEW","skyCondition1b":900,"skyCondition2a":"SCT","skyCondition2b":3500,"flightCategory":"VFR","metarType":"METAR","geometry_esri":{"x":47.78,"y":13.02,"z":427}}}