{"type":"Feature","geometry":{"type":"Point","coordinates":[47.78,13.02,430]},"properties":{"stationId":"LOWS","rawText":"LOWS 011250Z 34006KT 300V030 9999 FEW060 SCT130 27/15 Q1014 NOSIG","observationTime":"2019-09-01T12:50:00Z","temp":27,"dewpoint":15,"windDirection":340,"windSpeed":11.112,"visibility":6.21,"altim":29.940945,"qualityControlFlag":"TRUE","skyCondition1a":"FEW","skyCondition1b":6000,"skyCondition2a":"SCT","skyCondition2b":13000,"flightCategory":"VFR","metarType":"METAR","geometry_esri":{"x":47.78,"y":13.02,"z":430}}}