{"type":"Feature","geometry":{"type":"Point","coordinates":[47.78,13.02,430]},"properties":{"stationId":"LOWS","rawText":"LOWS 250550Z 29004KT 6000 -SHRA FEW014 SCT035 BKN050 08/05 Q1018 NOSIG","observationTime":"2019-03-25T05:50:00Z","temp":8,"dewpoint":5,"windDirection":290,"windSpeed":7.408,"visibility":3.73,"altim":30.059055,"qualityControlFlag":"TRUE","skyCondition1a":"FEW","skyCondition1b":1400,"skyCondition2a":"SCT","skyCondition2b":3500,"flightCategory":"MVFR","metarType":"METAR","geometry_esri":{"x":47.78,"y":13.02,"z":430}}}