{"type":"Feature","geometry":{"type":"Point","coordinates":[47.78,13.02,430]},"properties":{"stationId":"LOWS","rawText":"LOWS 070750Z 33009KT 300V360 9999 FEW009 SCT014 16/14 Q1006 NOSIG","observationTime":"2020-06-07T07:50:00Z","temp":16,"dewpoint":14,"windDirection":330,"windSpeed":16.668,"visibility":6.21,"altim":29.704725,"qualityControlFlag":"TRUE","skyCondition1a":"FEW","skyCondition1b":900,"skyCondition2a":"SCT","skyCondition2b":1400,"flightCategory":"VFR","metarType":"METAR","geometry_esri":{"x":47.78,"y":13.02,"z":430}}}