{"type":"Feature","geometry":{"type":"Point","coordinates":[47.78,13.02,430]},"properties":{"stationId":"LOWS","rawText":"LOWS 291550Z 15003KT 6000 FEW012 SCT080 M00/M02 Q1031 NOSIG","observationTime":"2018-12-29T15:50:00Z","temp":0,"dewpoint":-2,"windDirection":150,"windSpeed":5.556,"visibility":3.73,"altim":30.442913,"qualityControlFlag":"TRUE","skyCondition1a":"FEW","skyCondition1b":1200,"skyCondition2a":"SCT","skyCondition2b":8000,"flightCategory":"MVFR","metarType":"METAR","geometry_esri":{"x":47.78,"y":13.02,"z":430}}}