{"type":"Feature","geometry":{"type":"Point","coordinates":[47.78,13.02,430]},"properties":{"stationId":"LOWS","rawText":"LOWS 241950Z 05008KT 010V070 9999 FEW070 BKN110 20/08 Q1021 NOSIG","observationTime":"2020-06-24T19:50:00Z","temp":20,"dewpoint":8,"windDirection":50,"windSpeed":14.816,"visibility":6.21,"altim":30.147638,"qualityControlFlag":"TRUE","skyCondition1a":"FEW","skyCondition1b":7000,"skyCondition2a":"BKN","skyCondition2b":11000,"flightCategory":"VFR","metarType":"METAR","geometry_esri":{"x":47.78,"y":13.02,"z":430}}}