{"type":"Feature","geometry":{"type":"Point","coordinates":[47.78,13.02,430]},"properties":{"stationId":"LOWS","rawText":"LOWS 221650Z 32008KT 4000 BR FEW003 BKN004 12/12 Q1023 NOSIG","observationTime":"2019-10-22T16:50:00Z","temp":12,"dewpoint":12,"windDirection":320,"windSpeed":14.816,"visibility":2.49,"altim":30.206694,"qualityControlFlag":"TRUE","skyCondition1a":"FEW","skyCondition1b":300,"skyCondition2a":"BKN","skyCondition2b":400,"flightCategory":"LIFR","metarType":"METAR","geometry_esri":{"x":47.78,"y":13.02,"z":430}}}