{"type":"Feature","geometry":{"type":"Point","coordinates":[47.78,13.02,430]},"properties":{"stationId":"LOWS","rawText":"LOWS 070550Z 13012KT 9999 FEW120 SCT200 BKN300 13/M02 Q1000 NOSIG","observationTime":"2019-03-07T05:50:00Z","temp":13,"dewpoint":-2,"windDirection":130,"windSpeed":22.224,"visibility":6.21,"altim":29.52756,"qualityControlFlag":"TRUE","skyCondition1a":"FEW","skyCondition1b":12000,"skyCondition2a":"SCT","skyCondition2b":20000,"flightCategory":"VFR","metarType":"METAR","geometry_esri":{"x":47.78,"y":13.02,"z":430}}}