{"type":"Feature","geometry":{"type":"Point","coordinates":[47.78,13.02,430]},"properties":{"stationId":"LOWS","rawText":"LOWS 270450Z VRB02KT 9999 FEW002 BKN300 05/05 Q1017 NOSIG","observationTime":"2018-04-27T04:50:00Z","temp":5,"dewpoint":5,"windDirection":0,"windSpeed":3.704,"visibility":6.21,"altim":30.029528,"qualityControlFlag":"TRUE","skyCondition1a":"FEW","skyCondition1b":200,"skyCondition2a":"BKN","skyCondition2b":30000,"flightCategory":"VFR","metarType":"METAR","geometry_esri":{"x":47.78,"y":13.02,"z":430}}}