{"type":"Feature","geometry":{"type":"Point","coordinates":[47.78,13.02,430]},"properties":{"stationId":"LOWS","rawText":"LOWS 060850Z VRB03KT 9999 FEW018 BKN022 17/12 Q1022 NOSIG","observationTime":"2018-05-06T08:50:00Z","temp":17,"dewpoint":12,"windDirection":0,"windSpeed":5.556,"visibility":6.21,"altim":30.177166,"qualityControlFlag":"TRUE","skyCondition1a":"FEW","skyCondition1b":1800,"skyCondition2a":"BKN","skyCondition2b":2200,"flightCategory":"MVFR","metarType":"METAR","geometry_esri":{"x":47.78,"y":13.02,"z":430}}}