{"type":"Feature","geometry":{"type":"Point","coordinates":[47.78,13.02,430]},"properties":{"stationId":"LOWS","rawText":"LOWS 210450Z 15009KT 9999 FEW080 SCT170 BKN250 02/M01 Q1021 NOSIG","observationTime":"2018-12-21T04:50:00Z","temp":2,"dewpoint":-1,"windDirection":150,"windSpeed":16.668,"visibility":6.21,"altim":30.147638,"qualityControlFlag":"TRUE","skyCondition1a":"FEW","skyCondition1b":8000,"skyCondition2a":"SCT","skyCondition2b":17000,"flightCategory":"VFR","metarType":"METAR","geometry_esri":{"x":47.78,"y":13.02,"z":430}}}