{"type":"Feature","geometry":{"type":"Point","coordinates":[47.78,13.02,430]},"properties":{"stationId":"LOWS","rawText":"LOWS 141050Z 35013KT 310V010 8000 -RA FEW004 SCT008 BKN019 03/01 Q1007 R15/29//95 NOSIG","observationTime":"2019-01-14T10:50:00Z","temp":3,"dewpoint":1,"windDirection":350,"windSpeed":24.076,"visibility":4.97,"altim":29.734253,"qualityControlFlag":"TRUE","skyCondition1a":"FEW","skyCondition1b":400,"skyCondition2a":"SCT","skyCondition2b":800,"flightCategory":"MVFR","metarType":"METAR","geometry_esri":{"x":47.78,"y":13.02,"z":430}}}