{"type":"Feature","geometry":{"type":"Point","coordinates":[47.78,13.02,430]},"properties":{"stationId":"LOWS","rawText":"LOWS 271550Z 19003KT 160V240 9999 FEW042 BKN080 07/M00 Q1013 NOSIG","observationTime":"2018-03-27T15:50:00Z","temp":7,"dewpoint":0,"windDirection":190,"windSpeed":5.556,"visibility":6.21,"altim":29.911417,"qualityControlFlag":"TRUE","skyCondition1a":"FEW","skyCondition1b":4200,"skyCondition2a":"BKN","skyCondition2b":8000,"flightCategory":"VFR","metarType":"METAR","geometry_esri":{"x":47.78,"y":13.02,"z":430}}}