{"type":"Feature","geometry":{"type":"Point","coordinates":[47.78,13.02,430]},"properties":{"stationId":"LOWS","rawText":"LOWS 110550Z 35003KT 320V050 9999 FEW002 SCT008 BKN025 13/12 Q1009 NOSIG","observationTime":"2020-06-11T05:50:00Z","temp":13,"dewpoint":12,"windDirection":350,"windSpeed":5.556,"visibility":6.21,"altim":29.793306,"qualityControlFlag":"TRUE","skyCondition1a":"FEW","skyCondition1b":200,"skyCondition2a":"SCT","skyCondition2b":800,"flightCategory":"MVFR","metarType":"METAR","geometry_esri":{"x":47.78,"y":13.02,"z":430}}}