{"type":"Feature","geometry":{"type":"Point","coordinates":[47.78,13.02,430]},"properties":{"stationId":"LOWS","rawText":"LOWS 281750Z 12003KT 8000 FEW008 BKN012 M00/M01 Q1026 NOSIG","observationTime":"2018-11-28T17:50:00Z","temp":0,"dewpoint":-1,"windDirection":120,"windSpeed":5.556,"visibility":4.97,"altim":30.295275,"qualityControlFlag":"TRUE","skyCondition1a":"FEW","skyCondition1b":800,"skyCondition2a":"BKN","skyCondition2b":1200,"flightCategory":"MVFR","metarType":"METAR","geometry_esri":{"x":47.78,"y":13.02,"z":430}}}