{"type":"Feature","geometry":{"type":"Point","coordinates":[47.78,13.02,430]},"properties":{"stationId":"LOWS","rawText":"LOWS 250650Z 32010KT 7000 -SHRA FEW018 SCT025 BKN042 08/05 Q1018 NOSIG","observationTime":"2019-03-25T06:50:00Z","temp":8,"dewpoint":5,"windDirection":320,"windSpeed":18.52,"visibility":4.35,"altim":30.059055,"qualityControlFlag":"TRUE","skyCondition1a":"FEW","skyCondition1b":1800,"skyCondition2a":"SCT","skyCondition2b":2500,"flightCategory":"MVFR","metarType":"METAR","geometry_esri":{"x":47.78,"y":13.02,"z":430}}}