{"type":"Feature","geometry":{"type":"Point","coordinates":[47.78,13.02,427]},"properties":{"stationId":"LOWS","rawText":"LOWS 151450Z 31004KT 9999 -RA FEW015 BKN028 08/05 Q1012 NOSIG","observationTime":"2020-10-15T14:50:00Z","temp":8,"dewpoint":5,"windDirection":310,"windSpeed":7.408,"visibility":6.21,"altim":29.88189,"qualityControlFlag":"TRUE","skyCondition1a":"FEW","skyCondition1b":1500,"skyCondition2a":"BKN","skyCondition2b":2800,"flightCategory":"MVFR","metarType":"METAR","geometry_esri":{"x":47.78,"y":13.02,"z":427}}}