{"type":"Feature","geometry":{"type":"Point","coordinates":[47.78,13.02,430]},"properties":{"stationId":"LOWS","rawText":"LOWS 120750Z 16004KT 8000 -RA FEW004 SCT025 BKN042 03/03 Q1011 NOSIG","observationTime":"2019-11-12T07:50:00Z","temp":3,"dewpoint":3,"windDirection":160,"windSpeed":7.408,"visibility":4.97,"altim":29.852362,"qualityControlFlag":"TRUE","skyCondition1a":"FEW","skyCondition1b":400,"skyCondition2a":"SCT","skyCondition2b":2500,"flightCategory":"MVFR","metarType":"METAR","geometry_esri":{"x":47.78,"y":13.02,"z":430}}}