{"type":"Feature","geometry":{"type":"Point","coordinates":[47.78,13.02,430]},"properties":{"stationId":"LOWS","rawText":"LOWS 030850Z VRB02KT 9000 FEW030 BKN300 01/M03 Q0996 R15/19//95 NOSIG","observationTime":"2018-03-03T08:50:00Z","temp":1,"dewpoint":-3,"windDirection":0,"windSpeed":3.704,"visibility":5.59,"altim":29.409449,"qualityControlFlag":"TRUE","skyCondition1a":"FEW","skyCondition1b":3000,"skyCondition2a":"BKN","skyCondition2b":30000,"flightCategory":"VFR","metarType":"METAR","geometry_esri":{"x":47.78,"y":13.02,"z":430}}}