{"type":"Feature","geometry":{"type":"Point","coordinates":[47.78,13.02,430]},"properties":{"stationId":"LOWS","rawText":"LOWS 031450Z 31007KT 9999 -SHRA FEW008 SCT015 BKN030 12/11 Q1025 NOSIG","observationTime":"2018-10-03T14:50:00Z","temp":12,"dewpoint":11,"windDirection":310,"windSpeed":12.964,"visibility":6.21,"altim":30.265747,"qualityControlFlag":"TRUE","skyCondition1a":"FEW","skyCondition1b":800,"skyCondition2a":"SCT","skyCondition2b":1500,"flightCategory":"MVFR","metarType":"METAR","geometry_esri":{"x":47.78,"y":13.02,"z":430}}}