{"type":"Feature","geometry":{"type":"Point","coordinates":[47.78,13.02,430]},"properties":{"stationId":"LOWS","rawText":"LOWS 291150Z 27005KT 230V300 9999 FEW007 BKN010 09/07 Q0998 NOSIG","observationTime":"2018-10-29T11:50:00Z","temp":9,"dewpoint":7,"windDirection":270,"windSpeed":9.26,"visibility":6.21,"altim":29.468504,"qualityControlFlag":"TRUE","skyCondition1a":"FEW","skyCondition1b":700,"skyCondition2a":"BKN","skyCondition2b":1000,"flightCategory":"MVFR","metarType":"METAR","geometry_esri":{"x":47.78,"y":13.02,"z":430}}}