{"type":"Feature","geometry":{"type":"Point","coordinates":[47.78,13.02,430]},"properties":{"stationId":"LOWS","rawText":"LOWS 140950Z VRB02KT 9999 FEW060 BKN130 25/14 Q1020 NOSIG","observationTime":"2018-07-14T09:50:00Z","temp":25,"dewpoint":14,"windDirection":0,"windSpeed":3.704,"visibility":6.21,"altim":30.11811,"qualityControlFlag":"TRUE","skyCondition1a":"FEW","skyCondition1b":6000,"skyCondition2a":"BKN","skyCondition2b":13000,"flightCategory":"VFR","metarType":"METAR","geometry_esri":{"x":47.78,"y":13.02,"z":430}}}