{"type":"Feature","geometry":{"type":"Point","coordinates":[47.78,13.02,427]},"properties":{"stationId":"LOWS","rawText":"LOWS 100950Z 30003KT 9999 FEW027 SCT038 BKN050 14/11 Q1020 NOSIG","observationTime":"2020-10-10T09:50:00Z","temp":14,"dewpoint":11,"windDirection":300,"windSpeed":5.556,"visibility":6.21,"altim":30.11811,"qualityControlFlag":"TRUE","skyCondition1a":"FEW","skyCondition1b":2700,"skyCondition2a":"SCT","skyCondition2b":3800,"flightCategory":"VFR","metarType":"METAR","geometry_esri":{"x":47.78,"y":13.02,"z":427}}}