{"type":"Feature","geometry":{"type":"Point","coordinates":[47.78,13.02,430]},"properties":{"stationId":"LOWS","rawText":"LOWS 271750Z 16007KT 9999 FEW050 SCT060 BKN140 03/M00 Q0993 NOSIG","observationTime":"2019-01-27T17:50:00Z","temp":3,"dewpoint":0,"windDirection":160,"windSpeed":12.964,"visibility":6.21,"altim":29.320866,"qualityControlFlag":"TRUE","skyCondition1a":"FEW","skyCondition1b":5000,"skyCondition2a":"SCT","skyCondition2b":6000,"flightCategory":"VFR","metarType":"METAR","geometry_esri":{"x":47.78,"y":13.02,"z":430}}}