{"type":"Feature","geometry":{"type":"Point","coordinates":[47.78,13.02,427]},"properties":{"stationId":"LOWS","rawText":"LOWS 041450Z 36004KT 330V030 9999 FEW013 BKN017 M00/M02 Q1010 NOSIG","observationTime":"2021-01-04T14:50:00Z","temp":0,"dewpoint":-2,"windDirection":360,"windSpeed":7.408,"visibility":6.21,"altim":29.822834,"qualityControlFlag":"TRUE","skyCondition1a":"FEW","skyCondition1b":1300,"skyCondition2a":"BKN","skyCondition2b":1700,"flightCategory":"MVFR","metarType":"METAR","geometry_esri":{"x":47.78,"y":13.02,"z":427}}}