{"type":"Feature","geometry":{"type":"Point","coordinates":[47.78,13.02,430]},"properties":{"stationId":"LOWS","rawText":"LOWS 211550Z 31004KT 250V030 9999 FEW024 SCT090 22/15 Q1013 NOSIG","observationTime":"2018-07-21T15:50:00Z","temp":22,"dewpoint":15,"windDirection":310,"windSpeed":7.408,"visibility":6.21,"altim":29.911417,"qualityControlFlag":"TRUE","skyCondition1a":"FEW","skyCondition1b":2400,"skyCondition2a":"SCT","skyCondition2b":9000,"flightCategory":"VFR","metarType":"METAR","geometry_esri":{"x":47.78,"y":13.02,"z":430}}}