{"type":"Feature","geometry":{"type":"Point","coordinates":[47.78,13.02,430]},"properties":{"stationId":"LOWS","rawText":"LOWS 290750Z 27006KT 230V320 9999 VCSH FEW022 SCT034 BKN050 01/M04 Q1009 NOSIG","observationTime":"2019-01-29T07:50:00Z","temp":1,"dewpoint":-4,"windDirection":270,"windSpeed":11.112,"visibility":6.21,"altim":29.793306,"qualityControlFlag":"TRUE","skyCondition1a":"FEW","skyCondition1b":2200,"skyCondition2a":"SCT","skyCondition2b":3400,"flightCategory":"VFR","metarType":"METAR","geometry_esri":{"x":47.78,"y":13.02,"z":430}}}