{"type":"Feature","geometry":{"type":"Point","coordinates":[47.78,13.02,430]},"properties":{"stationId":"LOWS","rawText":"LOWS 141750Z 14005KT 9999 FEW130 SCT180 BKN250 20/06 Q1014 NOSIG","observationTime":"2018-10-14T17:50:00Z","temp":20,"dewpoint":6,"windDirection":140,"windSpeed":9.26,"visibility":6.21,"altim":29.940945,"qualityControlFlag":"TRUE","skyCondition1a":"FEW","skyCondition1b":13000,"skyCondition2a":"SCT","skyCondition2b":18000,"flightCategory":"VFR","metarType":"METAR","geometry_esri":{"x":47.78,"y":13.02,"z":430}}}