{"type":"Feature","geometry":{"type":"Point","coordinates":[47.78,13.02,430]},"properties":{"stationId":"LOWS","rawText":"LOWS 240950Z 14003KT 110V170 9999 FEW025 BKN050 06/03 Q1015 NOSIG","observationTime":"2018-11-24T09:50:00Z","temp":6,"dewpoint":3,"windDirection":140,"windSpeed":5.556,"visibility":6.21,"altim":29.970472,"qualityControlFlag":"TRUE","skyCondition1a":"FEW","skyCondition1b":2500,"skyCondition2a":"BKN","skyCondition2b":5000,"flightCategory":"VFR","metarType":"METAR","geometry_esri":{"x":47.78,"y":13.02,"z":430}}}