{"type":"Feature","geometry":{"type":"Point","coordinates":[47.78,13.02,430]},"properties":{"stationId":"LOWS","rawText":"LOWS 110650Z 03004KT 330V060 9999 FEW004 SCT010 BKN028 14/12 Q1010 NOSIG","observationTime":"2020-06-11T06:50:00Z","temp":14,"dewpoint":12,"windDirection":30,"windSpeed":7.408,"visibility":6.21,"altim":29.822834,"qualityControlFlag":"TRUE","skyCondition1a":"FEW","skyCondition1b":400,"skyCondition2a":"SCT","skyCondition2b":1000,"flightCategory":"MVFR","metarType":"METAR","geometry_esri":{"x":47.78,"y":13.02,"z":430}}}