{"type":"Feature","geometry":{"type":"Point","coordinates":[47.78,13.02,430]},"properties":{"stationId":"LOWS","rawText":"LOWS 281950Z 01004KT 9999 FEW022 BKN045 M00/M03 Q1040 NOSIG","observationTime":"2019-12-28T19:50:00Z","temp":0,"dewpoint":-3,"windDirection":10,"windSpeed":7.408,"visibility":6.21,"altim":30.708662,"qualityControlFlag":"TRUE","skyCondition1a":"FEW","skyCondition1b":2200,"skyCondition2a":"BKN","skyCondition2b":4500,"flightCategory":"VFR","metarType":"METAR","geometry_esri":{"x":47.78,"y":13.02,"z":430}}}