{"type":"Feature","geometry":{"type":"Point","coordinates":[47.78,13.02,430]},"properties":{"stationId":"LOWS","rawText":"LOWS 021950Z VRB01KT 9000 FEW009 BKN034 08/07 Q1025 NOSIG","observationTime":"2018-11-02T19:50:00Z","temp":8,"dewpoint":7,"windDirection":0,"windSpeed":1.852,"visibility":5.59,"altim":30.265747,"qualityControlFlag":"TRUE","skyCondition1a":"FEW","skyCondition1b":900,"skyCondition2a":"BKN","skyCondition2b":3400,"flightCategory":"VFR","metarType":"METAR","geometry_esri":{"x":47.78,"y":13.02,"z":430}}}