{"type":"Feature","geometry":{"type":"Point","coordinates":[47.78,13.02,430]},"properties":{"stationId":"LOWS","rawText":"LOWS 271450Z 03006KT 9999 FEW017 BKN035 BKN300 M09/M16 Q1013 NOSIG","observationTime":"2018-02-27T14:50:00Z","temp":-9,"dewpoint":-16,"windDirection":30,"windSpeed":11.112,"visibility":6.21,"altim":29.911417,"qualityControlFlag":"TRUE","skyCondition1a":"FEW","skyCondition1b":1700,"skyCondition2a":"BKN","skyCondition2b":3500,"flightCategory":"VFR","metarType":"METAR","geometry_esri":{"x":47.78,"y":13.02,"z":430}}}