{"type":"Feature","geometry":{"type":"Point","coordinates":[47.78,13.02,430]},"properties":{"stationId":"LOWS","rawText":"LOWS 300750Z 33005KT 9999 FEW009 BKN100 BKN120 00/M02 Q1017 NOSIG","observationTime":"2018-11-30T07:50:00Z","temp":0,"dewpoint":-2,"windDirection":330,"windSpeed":9.26,"visibility":6.21,"altim":30.029528,"qualityControlFlag":"TRUE","skyCondition1a":"FEW","skyCondition1b":900,"skyCondition2a":"BKN","skyCondition2b":10000,"flightCategory":"VFR","metarType":"METAR","geometry_esri":{"x":47.78,"y":13.02,"z":430}}}