{"type":"Feature","geometry":{"type":"Point","coordinates":[47.78,13.02,427]},"properties":{"stationId":"LOWS","rawText":"LOWS 241250Z VRB02KT 6000 -RA FEW005 SCT010 BKN025 12/12 Q1019 NOSIG","observationTime":"2020-10-24T12:50:00Z","temp":12,"dewpoint":12,"windDirection":0,"windSpeed":3.704,"visibility":3.73,"altim":30.088583,"qualityControlFlag":"TRUE","skyCondition1a":"FEW","skyCondition1b":500,"skyCondition2a":"SCT","skyCondition2b":1000,"flightCategory":"MVFR","metarType":"METAR","geometry_esri":{"x":47.78,"y":13.02,"z":427}}}