{"type":"Feature","geometry":{"type":"Point","coordinates":[47.78,13.02,427]},"properties":{"stationId":"LOWS","rawText":"LOWS 021250Z 30003KT 210V360 9999 FEW008 SCT035 BKN070 15/11 Q1018 NOSIG","observationTime":"2020-09-02T12:50:00Z","temp":15,"dewpoint":11,"windDirection":300,"windSpeed":5.556,"visibility":6.21,"altim":30.059055,"qualityControlFlag":"TRUE","skyCondition1a":"FEW","skyCondition1b":800,"skyCondition2a":"SCT","skyCondition2b":3500,"flightCategory":"VFR","metarType":"METAR","geometry_esri":{"x":47.78,"y":13.02,"z":427}}}