{"type":"Feature","geometry":{"type":"Point","coordinates":[47.78,13.02,430]},"properties":{"stationId":"LOWS","rawText":"LOWS 190550Z 16008KT 9999 FEW010 BKN070 16/14 Q1015 NOSIG","observationTime":"2020-08-19T05:50:00Z","temp":16,"dewpoint":14,"windDirection":160,"windSpeed":14.816,"visibility":6.21,"altim":29.970472,"qualityControlFlag":"TRUE","skyCondition1a":"FEW","skyCondition1b":1000,"skyCondition2a":"BKN","skyCondition2b":7000,"flightCategory":"VFR","metarType":"METAR","geometry_esri":{"x":47.78,"y":13.02,"z":430}}}