{"type":"Feature","geometry":{"type":"Point","coordinates":[47.78,13.02,427]},"properties":{"stationId":"LOWS","rawText":"LOWS 190720Z 16005KT 9999 FEW006 BKN065 07/05 Q1025 NOSIG","observationTime":"2020-10-19T07:20:00Z","temp":7,"dewpoint":5,"windDirection":160,"windSpeed":9.26,"visibility":6.21,"altim":30.265747,"qualityControlFlag":"TRUE","skyCondition1a":"FEW","skyCondition1b":600,"skyCondition2a":"BKN","skyCondition2b":6500,"flightCategory":"VFR","metarType":"METAR","geometry_esri":{"x":47.78,"y":13.02,"z":427}}}