{"type":"Feature","geometry":{"type":"Point","coordinates":[47.78,13.02,430]},"properties":{"stationId":"LOWS","rawText":"LOWS 150550Z 28010KT 250V310 9999 FEW014 BKN055 01/M04 Q1020 R15/550195 NOSIG","observationTime":"2019-01-15T05:50:00Z","temp":1,"dewpoint":-4,"windDirection":280,"windSpeed":18.52,"visibility":6.21,"altim":30.11811,"qualityControlFlag":"TRUE","skyCondition1a":"FEW","skyCondition1b":1400,"skyCondition2a":"BKN","skyCondition2b":5500,"flightCategory":"VFR","metarType":"SPECI","geometry_esri":{"x":47.78,"y":13.02,"z":430}}}