{"type":"Feature","geometry":{"type":"Point","coordinates":[47.78,13.02,430]},"properties":{"stationId":"LOWS","rawText":"LOWS 282050Z 02003KT 350V120 9999 FEW048 BKN070 07/03 Q1032 NOSIG","observationTime":"2019-03-28T20:50:00Z","temp":7,"dewpoint":3,"windDirection":20,"windSpeed":5.556,"visibility":6.21,"altim":30.47244,"qualityControlFlag":"TRUE","skyCondition1a":"FEW","skyCondition1b":4800,"skyCondition2a":"BKN","skyCondition2b":7000,"flightCategory":"VFR","metarType":"METAR","geometry_esri":{"x":47.78,"y":13.02,"z":430}}}