{"type":"Feature","geometry":{"type":"Point","coordinates":[47.78,13.02,430]},"properties":{"stationId":"LOWS","rawText":"LOWS 031250Z 31003KT 260V360 9999 FEW100 SCT250 16/08 Q0989 NOSIG","observationTime":"2019-11-03T12:50:00Z","temp":16,"dewpoint":8,"windDirection":310,"windSpeed":5.556,"visibility":6.21,"altim":29.202755,"qualityControlFlag":"TRUE","skyCondition1a":"FEW","skyCondition1b":10000,"skyCondition2a":"SCT","skyCondition2b":25000,"flightCategory":"VFR","metarType":"METAR","geometry_esri":{"x":47.78,"y":13.02,"z":430}}}