{"type":"Feature","geometry":{"type":"Point","coordinates":[47.78,13.02,427]},"properties":{"stationId":"LOWS","rawText":"LOWS 291950Z 28013KT 240V320 9999 FEW048 SCT050 BKN080 09/01 Q1001 R15/29//95 NOSIG","observationTime":"2021-01-29T19:50:00Z","temp":9,"dewpoint":1,"windDirection":280,"windSpeed":24.076,"visibility":6.21,"altim":29.557087,"qualityControlFlag":"TRUE","skyCondition1a":"FEW","skyCondition1b":4800,"skyCondition2a":"SCT","skyCondition2b":5000,"flightCategory":"VFR","metarType":"METAR","geometry_esri":{"x":47.78,"y":13.02,"z":427}}}