{"type":"Feature","geometry":{"type":"Point","coordinates":[47.78,13.02,430]},"properties":{"stationId":"LOWS","rawText":"LOWS 231650Z 26005KT 9999 FEW070 BKN080 15/01 Q1021 NOSIG","observationTime":"2018-10-23T16:50:00Z","temp":15,"dewpoint":1,"windDirection":260,"windSpeed":9.26,"visibility":6.21,"altim":30.147638,"qualityControlFlag":"TRUE","skyCondition1a":"FEW","skyCondition1b":7000,"skyCondition2a":"BKN","skyCondition2b":8000,"flightCategory":"VFR","metarType":"METAR","geometry_esri":{"x":47.78,"y":13.02,"z":430}}}