{"type":"Feature","geometry":{"type":"Point","coordinates":[47.78,13.02,430]},"properties":{"stationId":"LOWS","rawText":"LOWS 152050Z 21003KT 200V270 9999 FEW070 SCT095 BKN140 14/10 Q1010 NOSIG","observationTime":"2018-04-15T20:50:00Z","temp":14,"dewpoint":10,"windDirection":210,"windSpeed":5.556,"visibility":6.21,"altim":29.822834,"qualityControlFlag":"TRUE","skyCondition1a":"FEW","skyCondition1b":7000,"skyCondition2a":"SCT","skyCondition2b":9500,"flightCategory":"VFR","metarType":"METAR","geometry_esri":{"x":47.78,"y":13.02,"z":430}}}