{"type":"Feature","geometry":{"type":"Point","coordinates":[47.78,13.02,427]},"properties":{"stationId":"LOWS","rawText":"LOWS 291150Z 03004KT 320V080 9999 FEW015 BKN075 19/16 Q1008 NOSIG","observationTime":"2020-08-29T11:50:00Z","temp":19,"dewpoint":16,"windDirection":30,"windSpeed":7.408,"visibility":6.21,"altim":29.763779,"qualityControlFlag":"TRUE","skyCondition1a":"FEW","skyCondition1b":1500,"skyCondition2a":"BKN","skyCondition2b":7500,"flightCategory":"VFR","metarType":"METAR","geometry_esri":{"x":47.78,"y":13.02,"z":427}}}