{"type":"Feature","geometry":{"type":"Point","coordinates":[47.78,13.02,430]},"properties":{"stationId":"LOWS","rawText":"LOWS 121650Z 26005KT 220V300 9999 FEW035 BKN075 02/M04 Q1034 NOSIG","observationTime":"2019-02-12T16:50:00Z","temp":2,"dewpoint":-4,"windDirection":260,"windSpeed":9.26,"visibility":6.21,"altim":30.531496,"qualityControlFlag":"TRUE","skyCondition1a":"FEW","skyCondition1b":3500,"skyCondition2a":"BKN","skyCondition2b":7500,"flightCategory":"VFR","metarType":"METAR","geometry_esri":{"x":47.78,"y":13.02,"z":430}}}