{"type":"Feature","geometry":{"type":"Point","coordinates":[47.78,13.02,430]},"properties":{"stationId":"LOWS","rawText":"LOWS 010520Z 36006KT 9999 -RA FEW028 BKN043 07/02 Q1006 NOSIG","observationTime":"2020-03-01T05:20:00Z","temp":7,"dewpoint":2,"windDirection":360,"windSpeed":11.112,"visibility":6.21,"altim":29.704725,"qualityControlFlag":"TRUE","skyCondition1a":"FEW","skyCondition1b":2800,"skyCondition2a":"BKN","skyCondition2b":4300,"flightCategory":"VFR","metarType":"METAR","geometry_esri":{"x":47.78,"y":13.02,"z":430}}}