{"type":"Feature","geometry":{"type":"Point","coordinates":[47.78,13.02,427]},"properties":{"stationId":"LOWS","rawText":"LOWS 161450Z 31006KT 280V350 9999 FEW048 FEW050CB 27/16 Q1018 NOSIG","observationTime":"2020-09-16T14:50:00Z","temp":27,"dewpoint":16,"windDirection":310,"windSpeed":11.112,"visibility":6.21,"altim":30.059055,"qualityControlFlag":"TRUE","skyCondition1a":"FEW","skyCondition1b":4800,"skyCondition2a":"FEW","skyCondition2b":5000,"flightCategory":"VFR","metarType":"METAR","geometry_esri":{"x":47.78,"y":13.02,"z":427}}}