{"type":"Feature","geometry":{"type":"Point","coordinates":[47.78,13.02,427]},"properties":{"stationId":"LOWS","rawText":"LOWS 261050Z 26007KT 210V300 9999 -RA FEW012 SCT029 BKN040 08/05 Q1001 NOSIG","observationTime":"2020-09-26T10:50:00Z","temp":8,"dewpoint":5,"windDirection":260,"windSpeed":12.964,"visibility":6.21,"altim":29.557087,"qualityControlFlag":"TRUE","skyCondition1a":"FEW","skyCondition1b":1200,"skyCondition2a":"SCT","skyCondition2b":2900,"flightCategory":"VFR","metarType":"METAR","geometry_esri":{"x":47.78,"y":13.02,"z":427}}}