{"type":"Feature","geometry":{"type":"Point","coordinates":[47.78,13.02,427]},"properties":{"stationId":"LOWS","rawText":"LOWS 261950Z 28011G22KT 240V320 9999 -SN FEW009 SCT034 BKN044 M00/M04 Q1018 R15/29//95 NOSIG","observationTime":"2021-01-26T19:50:00Z","temp":0,"dewpoint":-4,"windDirection":280,"windSpeed":20.372,"visibility":6.21,"altim":30.059055,"qualityControlFlag":"TRUE","skyCondition1a":"FEW","skyCondition1b":900,"skyCondition2a":"SCT","skyCondition2b":3400,"flightCategory":"VFR","metarType":"METAR","geometry_esri":{"x":47.78,"y":13.02,"z":427}}}