{"type":"Feature","geometry":{"type":"Point","coordinates":[47.78,13.02,427]},"properties":{"stationId":"LOWS","rawText":"LOWS 170750Z 18004KT 9999 -RA FEW003 SCT008 BKN030 06/06 Q1018 NOSIG","observationTime":"2020-10-17T07:50:00Z","temp":6,"dewpoint":6,"windDirection":180,"windSpeed":7.408,"visibility":6.21,"altim":30.059055,"qualityControlFlag":"TRUE","skyCondition1a":"FEW","skyCondition1b":300,"skyCondition2a":"SCT","skyCondition2b":800,"flightCategory":"MVFR","metarType":"METAR","geometry_esri":{"x":47.78,"y":13.02,"z":427}}}