{"type":"Feature","geometry":{"type":"Point","coordinates":[47.78,13.02,427]},"properties":{"stationId":"LOWS","rawText":"LOWS 121450Z 14003KT 110V170 9999 -RA FEW025 SCT038 BKN055 03/01 Q1002 NOSIG","observationTime":"2020-12-12T14:50:00Z","temp":3,"dewpoint":1,"windDirection":140,"windSpeed":5.556,"visibility":6.21,"altim":29.586615,"qualityControlFlag":"TRUE","skyCondition1a":"FEW","skyCondition1b":2500,"skyCondition2a":"SCT","skyCondition2b":3800,"flightCategory":"VFR","metarType":"METAR","geometry_esri":{"x":47.78,"y":13.02,"z":427}}}