{"type":"Feature","geometry":{"type":"Point","coordinates":[47.78,13.02,430]},"properties":{"stationId":"LOWS","rawText":"LOWS 010950Z 35004KT 290V070 9999 FEW040 BKN060 15/04 Q1007 NOSIG","observationTime":"2020-05-01T09:50:00Z","temp":15,"dewpoint":4,"windDirection":350,"windSpeed":7.408,"visibility":6.21,"altim":29.734253,"qualityControlFlag":"TRUE","skyCondition1a":"FEW","skyCondition1b":4000,"skyCondition2a":"BKN","skyCondition2b":6000,"flightCategory":"VFR","metarType":"METAR","geometry_esri":{"x":47.78,"y":13.02,"z":430}}}