{"type":"Feature","geometry":{"type":"Point","coordinates":[47.78,13.02,430]},"properties":{"stationId":"LOWS","rawText":"LOWS 211450Z 03011KT 350V070 9999 FEW050 SCT070 24/10 Q1012 NOSIG","observationTime":"2018-05-21T14:50:00Z","temp":24,"dewpoint":10,"windDirection":30,"windSpeed":20.372,"visibility":6.21,"altim":29.88189,"qualityControlFlag":"TRUE","skyCondition1a":"FEW","skyCondition1b":5000,"skyCondition2a":"SCT","skyCondition2b":7000,"flightCategory":"VFR","metarType":"METAR","geometry_esri":{"x":47.78,"y":13.02,"z":430}}}