{"type":"Feature","geometry":{"type":"Point","coordinates":[47.78,13.02,430]},"properties":{"stationId":"LOWS","rawText":"LOWS 150850Z VRB03KT 9999 FEW070 BKN180 BKN250 06/02 Q0996 NOSIG","observationTime":"2019-11-15T08:50:00Z","temp":6,"dewpoint":2,"windDirection":0,"windSpeed":5.556,"visibility":6.21,"altim":29.409449,"qualityControlFlag":"TRUE","skyCondition1a":"FEW","skyCondition1b":7000,"skyCondition2a":"BKN","skyCondition2b":18000,"flightCategory":"VFR","metarType":"METAR","geometry_esri":{"x":47.78,"y":13.02,"z":430}}}