{"type":"Feature","geometry":{"type":"Point","coordinates":[47.78,13.02,427]},"properties":{"stationId":"LOWS","rawText":"LOWS 182050Z VRB01KT 0450 R15/0600N R33/0400N FZFG SCT001 BKN002 M01/M01 Q1024 NOSIG","observationTime":"2020-12-18T20:50:00Z","temp":-1,"dewpoint":-1,"windDirection":0,"windSpeed":1.852,"visibility":0.28,"altim":30.236221,"qualityControlFlag":"TRUE","skyCondition1a":"SCT","skyCondition1b":100,"skyCondition2a":"BKN","skyCondition2b":200,"flightCategory":"LIFR","metarType":"METAR","geometry_esri":{"x":47.78,"y":13.02,"z":427}}}