{"type":"Feature","geometry":{"type":"Point","coordinates":[47.78,13.02,430]},"properties":{"stationId":"LOWS","rawText":"LOWS 050550Z 21004KT 170V250 9999 RA FEW004 BKN036 08/05 Q1001 NOSIG","observationTime":"2019-11-05T05:50:00Z","temp":8,"dewpoint":5,"windDirection":210,"windSpeed":7.408,"visibility":6.21,"altim":29.557087,"qualityControlFlag":"TRUE","skyCondition1a":"FEW","skyCondition1b":400,"skyCondition2a":"BKN","skyCondition2b":3600,"flightCategory":"VFR","metarType":"METAR","geometry_esri":{"x":47.78,"y":13.02,"z":430}}}