{"type":"Feature","geometry":{"type":"Point","coordinates":[47.78,13.02,430]},"properties":{"stationId":"LOWS","rawText":"LOWS 292050Z 17006KT 9999 FEW060 SCT085 BKN120 16/13 Q1008 NOSIG","observationTime":"2019-09-29T20:50:00Z","temp":16,"dewpoint":13,"windDirection":170,"windSpeed":11.112,"visibility":6.21,"altim":29.763779,"qualityControlFlag":"TRUE","skyCondition1a":"FEW","skyCondition1b":6000,"skyCondition2a":"SCT","skyCondition2b":8500,"flightCategory":"VFR","metarType":"METAR","geometry_esri":{"x":47.78,"y":13.02,"z":430}}}