{"type":"Feature","geometry":{"type":"Point","coordinates":[47.78,13.02,427]},"properties":{"stationId":"LOWS","rawText":"LOWS 181150Z 29013KT 250V320 7000 -SN FEW006 SCT024 BKN036 01/M01 Q1024 R15/29//95 NOSIG","observationTime":"2021-01-18T11:50:00Z","temp":1,"dewpoint":-1,"windDirection":290,"windSpeed":24.076,"visibility":4.35,"altim":30.236221,"qualityControlFlag":"TRUE","skyCondition1a":"FEW","skyCondition1b":600,"skyCondition2a":"SCT","skyCondition2b":2400,"flightCategory":"MVFR","metarType":"SPECI","geometry_esri":{"x":47.78,"y":13.02,"z":427}}}