{"type":"Feature","geometry":{"type":"Point","coordinates":[47.78,13.02,430]},"properties":{"stationId":"LOWS","rawText":"LOWS 030650Z VRB02KT 5000 BR FEW028 BKN300 M05/M06 Q0997 R15/490195 NOSIG","observationTime":"2018-03-03T06:50:00Z","temp":-5,"dewpoint":-6,"windDirection":0,"windSpeed":3.704,"visibility":3.11,"altim":29.438976,"qualityControlFlag":"TRUE","skyCondition1a":"FEW","skyCondition1b":2800,"skyCondition2a":"BKN","skyCondition2b":30000,"flightCategory":"MVFR","metarType":"METAR","geometry_esri":{"x":47.78,"y":13.02,"z":430}}}