{"type":"Feature","geometry":{"type":"Point","coordinates":[47.78,13.02,430]},"properties":{"stationId":"LOWS","rawText":"LOWS 041950Z VRB02KT 9999 FEW045 SCT300 07/06 Q0999 NOSIG","observationTime":"2019-11-04T19:50:00Z","temp":7,"dewpoint":6,"windDirection":0,"windSpeed":3.704,"visibility":6.21,"altim":29.498032,"qualityControlFlag":"TRUE","skyCondition1a":"FEW","skyCondition1b":4500,"skyCondition2a":"SCT","skyCondition2b":30000,"flightCategory":"VFR","metarType":"METAR","geometry_esri":{"x":47.78,"y":13.02,"z":430}}}