{"type":"Feature","geometry":{"type":"Point","coordinates":[47.78,13.02,430]},"properties":{"stationId":"LOWS","rawText":"LOWS 072050Z VRB02KT 9999 FEW011 SCT017 BKN022 02/01 Q1032 NOSIG","observationTime":"2020-01-07T20:50:00Z","temp":2,"dewpoint":1,"windDirection":0,"windSpeed":3.704,"visibility":6.21,"altim":30.47244,"qualityControlFlag":"TRUE","skyCondition1a":"FEW","skyCondition1b":1100,"skyCondition2a":"SCT","skyCondition2b":1700,"flightCategory":"MVFR","metarType":"METAR","geometry_esri":{"x":47.78,"y":13.02,"z":430}}}