{"type":"Feature","geometry":{"type":"Point","coordinates":[47.78,13.02,430]},"properties":{"stationId":"LOWS","rawText":"LOWS 140750Z VRB02KT 9999 FEW012 SCT023 BKN050 14/10 Q1017 NOSIG","observationTime":"2018-06-14T07:50:00Z","temp":14,"dewpoint":10,"windDirection":0,"windSpeed":3.704,"visibility":6.21,"altim":30.029528,"qualityControlFlag":"TRUE","skyCondition1a":"FEW","skyCondition1b":1200,"skyCondition2a":"SCT","skyCondition2b":2300,"flightCategory":"VFR","metarType":"METAR","geometry_esri":{"x":47.78,"y":13.02,"z":430}}}