{"type":"Feature","geometry":{"type":"Point","coordinates":[47.78,13.02,430]},"properties":{"stationId":"LOWS","rawText":"LOWS 251550Z 33009KT 9999 FEW034 BKN050 M03/M09 Q1016 NOSIG","observationTime":"2019-01-25T15:50:00Z","temp":-3,"dewpoint":-9,"windDirection":330,"windSpeed":16.668,"visibility":6.21,"altim":30,"qualityControlFlag":"TRUE","skyCondition1a":"FEW","skyCondition1b":3400,"skyCondition2a":"BKN","skyCondition2b":5000,"flightCategory":"VFR","metarType":"METAR","geometry_esri":{"x":47.78,"y":13.02,"z":430}}}