{"type":"Feature","geometry":{"type":"Point","coordinates":[47.78,13.02,430]},"properties":{"stationId":"LOWS","rawText":"LOWS 121750Z 16009KT 130V190 9999 FEW046 BKN050 09/05 Q1000 NOSIG","observationTime":"2018-03-12T17:50:00Z","temp":9,"dewpoint":5,"windDirection":160,"windSpeed":16.668,"visibility":6.21,"altim":29.52756,"qualityControlFlag":"TRUE","skyCondition1a":"FEW","skyCondition1b":4600,"skyCondition2a":"BKN","skyCondition2b":5000,"flightCategory":"VFR","metarType":"METAR","geometry_esri":{"x":47.78,"y":13.02,"z":430}}}