{"type":"Feature","geometry":{"type":"Point","coordinates":[47.78,13.02,430]},"properties":{"stationId":"LOWS","rawText":"LOWS 291650Z 23005KT 9999 FEW042 BKN050 08/02 Q1016 NOSIG","observationTime":"2020-03-29T16:50:00Z","temp":8,"dewpoint":2,"windDirection":230,"windSpeed":9.26,"visibility":6.21,"altim":30,"qualityControlFlag":"TRUE","skyCondition1a":"FEW","skyCondition1b":4200,"skyCondition2a":"BKN","skyCondition2b":5000,"flightCategory":"VFR","metarType":"METAR","geometry_esri":{"x":47.78,"y":13.02,"z":430}}}