{"type":"Feature","geometry":{"type":"Point","coordinates":[47.78,13.02,427]},"properties":{"stationId":"LOWS","rawText":"LOWS 231450Z 14004KT 9999 FEW012 BKN050 18/15 Q1009 NOSIG","observationTime":"2020-09-23T14:50:00Z","temp":18,"dewpoint":15,"windDirection":140,"windSpeed":7.408,"visibility":6.21,"altim":29.793306,"qualityControlFlag":"TRUE","skyCondition1a":"FEW","skyCondition1b":1200,"skyCondition2a":"BKN","skyCondition2b":5000,"flightCategory":"VFR","metarType":"METAR","geometry_esri":{"x":47.78,"y":13.02,"z":427}}}