{"type":"Feature","geometry":{"type":"Point","coordinates":[47.78,13.02,430]},"properties":{"stationId":"LOWS","rawText":"LOWS 251550Z 26003KT 7000 RA FEW008 SCT028 BKN046 14/12 Q1015 NOSIG","observationTime":"2018-08-25T15:50:00Z","temp":14,"dewpoint":12,"windDirection":260,"windSpeed":5.556,"visibility":4.35,"altim":29.970472,"qualityControlFlag":"TRUE","skyCondition1a":"FEW","skyCondition1b":800,"skyCondition2a":"SCT","skyCondition2b":2800,"flightCategory":"MVFR","metarType":"METAR","geometry_esri":{"x":47.78,"y":13.02,"z":430}}}