{"type":"Feature","geometry":{"type":"Point","coordinates":[47.78,13.02,430]},"properties":{"stationId":"LOWS","rawText":"LOWS 110850Z 33003KT 290V080 9999 FEW006 SCT018 BKN045 16/12 Q1009 NOSIG","observationTime":"2020-06-11T08:50:00Z","temp":16,"dewpoint":12,"windDirection":330,"windSpeed":5.556,"visibility":6.21,"altim":29.793306,"qualityControlFlag":"TRUE","skyCondition1a":"FEW","skyCondition1b":600,"skyCondition2a":"SCT","skyCondition2b":1800,"flightCategory":"VFR","metarType":"METAR","geometry_esri":{"x":47.78,"y":13.02,"z":430}}}