{"type":"Feature","geometry":{"type":"Point","coordinates":[47.78,13.02,430]},"properties":{"stationId":"LOWS","rawText":"LOWS 101150Z 15004KT 100V170 9999 SCT100 BKN130 13/01 Q1007 NOSIG","observationTime":"2018-03-10T11:50:00Z","temp":13,"dewpoint":1,"windDirection":150,"windSpeed":7.408,"visibility":6.21,"altim":29.734253,"qualityControlFlag":"TRUE","skyCondition1a":"SCT","skyCondition1b":10000,"skyCondition2a":"BKN","skyCondition2b":13000,"flightCategory":"VFR","metarType":"METAR","geometry_esri":{"x":47.78,"y":13.02,"z":430}}}