{"type":"Feature","geometry":{"type":"Point","coordinates":[47.78,13.02,427]},"properties":{"stationId":"LOWS","rawText":"LOWS 310950Z 33004KT 5000 BR FEW004 BKN008 BKN020 M01/M01 Q1002 NOSIG","observationTime":"2021-01-31T09:50:00Z","temp":-1,"dewpoint":-1,"windDirection":330,"windSpeed":7.408,"visibility":3.11,"altim":29.586615,"qualityControlFlag":"TRUE","skyCondition1a":"FEW","skyCondition1b":400,"skyCondition2a":"BKN","skyCondition2b":800,"flightCategory":"IFR","metarType":"METAR","geometry_esri":{"x":47.78,"y":13.02,"z":427}}}