{"type":"Feature","geometry":{"type":"Point","coordinates":[47.78,13.02,430]},"properties":{"stationId":"LOWS","rawText":"LOWS 240950Z 27009KT 240V300 9999 -SHRA FEW017 BKN040 09/05 Q1031 NOSIG","observationTime":"2018-09-24T09:50:00Z","temp":9,"dewpoint":5,"windDirection":270,"windSpeed":16.668,"visibility":6.21,"altim":30.442913,"qualityControlFlag":"TRUE","skyCondition1a":"FEW","skyCondition1b":1700,"skyCondition2a":"BKN","skyCondition2b":4000,"flightCategory":"VFR","metarType":"METAR","geometry_esri":{"x":47.78,"y":13.02,"z":430}}}