{"type":"Feature","geometry":{"type":"Point","coordinates":[47.78,13.02,430]},"properties":{"stationId":"LOWS","rawText":"LOWS 121450Z 28013KT 250V320 9999 FEW030 BKN075 04/M03 Q1033 NOSIG","observationTime":"2019-02-12T14:50:00Z","temp":4,"dewpoint":-3,"windDirection":280,"windSpeed":24.076,"visibility":6.21,"altim":30.501968,"qualityControlFlag":"TRUE","skyCondition1a":"FEW","skyCondition1b":3000,"skyCondition2a":"BKN","skyCondition2b":7500,"flightCategory":"VFR","metarType":"METAR","geometry_esri":{"x":47.78,"y":13.02,"z":430}}}