{"type":"Feature","geometry":{"type":"Point","coordinates":[47.78,13.02,430]},"properties":{"stationId":"LOWS","rawText":"LOWS 031820Z VRB01KT 7000 FEW010 SCT017 BKN021 10/09 Q1023 NOSIG","observationTime":"2018-11-03T18:20:00Z","temp":10,"dewpoint":9,"windDirection":0,"windSpeed":1.852,"visibility":4.35,"altim":30.206694,"qualityControlFlag":"TRUE","skyCondition1a":"FEW","skyCondition1b":1000,"skyCondition2a":"SCT","skyCondition2b":1700,"flightCategory":"MVFR","metarType":"METAR","geometry_esri":{"x":47.78,"y":13.02,"z":430}}}