{"type":"Feature","geometry":{"type":"Point","coordinates":[47.78,13.02,430]},"properties":{"stationId":"LOWS","rawText":"LOWS 241150Z 18003KT 110V230 9999 FEW036 SCT060 BKN100 22/16 Q1014 NOSIG","observationTime":"2018-08-24T11:50:00Z","temp":22,"dewpoint":16,"windDirection":180,"windSpeed":5.556,"visibility":6.21,"altim":29.940945,"qualityControlFlag":"TRUE","skyCondition1a":"FEW","skyCondition1b":3600,"skyCondition2a":"SCT","skyCondition2b":6000,"flightCategory":"VFR","metarType":"METAR","geometry_esri":{"x":47.78,"y":13.02,"z":430}}}