{"type":"Feature","geometry":{"type":"Point","coordinates":[47.78,13.02,427]},"properties":{"stationId":"LOWS","rawText":"LOWS 091950Z 19003KT 150V220 0550 R15/0600N R33/0500N FG SCT001 BKN002 03/03 Q1027 NOSIG","observationTime":"2020-11-09T19:50:00Z","temp":3,"dewpoint":3,"windDirection":190,"windSpeed":5.556,"visibility":0.34,"altim":30.324802,"qualityControlFlag":"TRUE","skyCondition1a":"SCT","skyCondition1b":100,"skyCondition2a":"BKN","skyCondition2b":200,"flightCategory":"LIFR","metarType":"METAR","geometry_esri":{"x":47.78,"y":13.02,"z":427}}}