{"type":"Feature","geometry":{"type":"Point","coordinates":[47.78,13.02,430]},"properties":{"stationId":"LOWS","rawText":"LOWS 221950Z 26009KT 220V310 9999 -SHRA FEW030 SCT040 BKN050 06/03 Q0995 NOSIG","observationTime":"2019-12-22T19:50:00Z","temp":6,"dewpoint":3,"windDirection":260,"windSpeed":16.668,"visibility":6.21,"altim":29.379921,"qualityControlFlag":"TRUE","skyCondition1a":"FEW","skyCondition1b":3000,"skyCondition2a":"SCT","skyCondition2b":4000,"flightCategory":"VFR","metarType":"METAR","geometry_esri":{"x":47.78,"y":13.02,"z":430}}}