{"type":"Feature","geometry":{"type":"Point","coordinates":[47.78,13.02,430]},"properties":{"stationId":"LOWS","rawText":"LOWS 032050Z 15003KT 7000 FEW020 SCT025 BKN030 15/14 Q1014 NOSIG","observationTime":"2018-05-03T20:50:00Z","temp":15,"dewpoint":14,"windDirection":150,"windSpeed":5.556,"visibility":4.35,"altim":29.940945,"qualityControlFlag":"TRUE","skyCondition1a":"FEW","skyCondition1b":2000,"skyCondition2a":"SCT","skyCondition2b":2500,"flightCategory":"MVFR","metarType":"METAR","geometry_esri":{"x":47.78,"y":13.02,"z":430}}}