{"type":"Feature","geometry":{"type":"Point","coordinates":[47.78,13.02,427]},"properties":{"stationId":"LOWS","rawText":"LOWS 011950Z 16004KT 9999 -RA FEW030 BKN040 03/03 Q1001 NOSIG","observationTime":"2021-02-01T19:50:00Z","temp":3,"dewpoint":3,"windDirection":160,"windSpeed":7.408,"visibility":6.21,"altim":29.557087,"qualityControlFlag":"TRUE","skyCondition1a":"FEW","skyCondition1b":3000,"skyCondition2a":"BKN","skyCondition2b":4000,"flightCategory":"VFR","metarType":"METAR","geometry_esri":{"x":47.78,"y":13.02,"z":427}}}