{"type":"Feature","geometry":{"type":"Point","coordinates":[47.78,13.02,430]},"properties":{"stationId":"LOWS","rawText":"LOWS 280450Z 14002KT 9999 FEW004 SCT150 16/15 Q1000 NOSIG","observationTime":"2019-07-28T04:50:00Z","temp":16,"dewpoint":15,"windDirection":140,"windSpeed":3.704,"visibility":6.21,"altim":29.52756,"qualityControlFlag":"TRUE","skyCondition1a":"FEW","skyCondition1b":400,"skyCondition2a":"SCT","skyCondition2b":15000,"flightCategory":"VFR","metarType":"METAR","geometry_esri":{"x":47.78,"y":13.02,"z":430}}}