{"type":"Feature","geometry":{"type":"Point","coordinates":[47.78,13.02,430]},"properties":{"stationId":"LOWS","rawText":"LOWS 260550Z 14003KT 9999 0650S R15/P1500U R33/P1500D BCFG FEW019 SCT180 06/05 Q1014 NOSIG","observationTime":"2018-10-26T05:50:00Z","temp":6,"dewpoint":5,"windDirection":140,"windSpeed":5.556,"visibility":6.21,"altim":29.940945,"qualityControlFlag":"TRUE","skyCondition1a":"FEW","skyCondition1b":1900,"skyCondition2a":"SCT","skyCondition2b":18000,"flightCategory":"VFR","metarType":"METAR","geometry_esri":{"x":47.78,"y":13.02,"z":430}}}