{"type":"Feature","geometry":{"type":"Point","coordinates":[47.78,13.02,430]},"properties":{"stationId":"LOWS","rawText":"LOWS 130550Z 23010KT 9999 FEW032 SCT050 BKN055 07/01 Q1019 NOSIG","observationTime":"2020-03-13T05:50:00Z","temp":7,"dewpoint":1,"windDirection":230,"windSpeed":18.52,"visibility":6.21,"altim":30.088583,"qualityControlFlag":"TRUE","skyCondition1a":"FEW","skyCondition1b":3200,"skyCondition2a":"SCT","skyCondition2b":5000,"flightCategory":"VFR","metarType":"METAR","geometry_esri":{"x":47.78,"y":13.02,"z":430}}}