{"type":"Feature","geometry":{"type":"Point","coordinates":[47.78,13.02,430]},"properties":{"stationId":"LOWS","rawText":"LOWS 091350Z VRB02KT 8000 FEW006 BKN008 08/07 Q1016 NOSIG","observationTime":"2018-11-09T13:50:00Z","temp":8,"dewpoint":7,"windDirection":0,"windSpeed":3.704,"visibility":4.97,"altim":30,"qualityControlFlag":"TRUE","skyCondition1a":"FEW","skyCondition1b":600,"skyCondition2a":"BKN","skyCondition2b":800,"flightCategory":"IFR","metarType":"METAR","geometry_esri":{"x":47.78,"y":13.02,"z":430}}}