{"type":"Feature","geometry":{"type":"Point","coordinates":[47.78,13.02,430]},"properties":{"stationId":"LOWS","rawText":"LOWS 071350Z 28010KT 250V320 9999 FEW040 BKN300 23/10 Q1021 NOSIG","observationTime":"2018-07-07T13:50:00Z","temp":23,"dewpoint":10,"windDirection":280,"windSpeed":18.52,"visibility":6.21,"altim":30.147638,"qualityControlFlag":"TRUE","skyCondition1a":"FEW","skyCondition1b":4000,"skyCondition2a":"BKN","skyCondition2b":30000,"flightCategory":"VFR","metarType":"METAR","geometry_esri":{"x":47.78,"y":13.02,"z":430}}}