{"type":"Feature","geometry":{"type":"Point","coordinates":[47.78,13.02,430]},"properties":{"stationId":"LOWS","rawText":"LOWS 141950Z 20003KT 130V270 9999 FEW090 BKN230 25/13 Q1012 NOSIG","observationTime":"2019-06-14T19:50:00Z","temp":25,"dewpoint":13,"windDirection":200,"windSpeed":5.556,"visibility":6.21,"altim":29.88189,"qualityControlFlag":"TRUE","skyCondition1a":"FEW","skyCondition1b":9000,"skyCondition2a":"BKN","skyCondition2b":23000,"flightCategory":"VFR","metarType":"METAR","geometry_esri":{"x":47.78,"y":13.02,"z":430}}}