{"type":"Feature","geometry":{"type":"Point","coordinates":[47.78,13.02,427]},"properties":{"stationId":"LOWS","rawText":"LOWS 080650Z 16006KT 130V190 9999 FEW060 BKN075 M02/M05 Q1014 NOSIG","observationTime":"2021-01-08T06:50:00Z","temp":-2,"dewpoint":-5,"windDirection":160,"windSpeed":11.112,"visibility":6.21,"altim":29.940945,"qualityControlFlag":"TRUE","skyCondition1a":"FEW","skyCondition1b":6000,"skyCondition2a":"BKN","skyCondition2b":7500,"flightCategory":"VFR","metarType":"METAR","geometry_esri":{"x":47.78,"y":13.02,"z":427}}}