{"type":"Feature","geometry":{"type":"Point","coordinates":[47.78,13.02,430]},"properties":{"stationId":"LOWS","rawText":"LOWS 121650Z 16004KT 8000 -SN FEW013 SCT020 BKN024 M00/M01 Q1020 NOSIG","observationTime":"2018-12-12T16:50:00Z","temp":0,"dewpoint":-1,"windDirection":160,"windSpeed":7.408,"visibility":4.97,"altim":30.11811,"qualityControlFlag":"TRUE","skyCondition1a":"FEW","skyCondition1b":1300,"skyCondition2a":"SCT","skyCondition2b":2000,"flightCategory":"MVFR","metarType":"METAR","geometry_esri":{"x":47.78,"y":13.02,"z":430}}}