{"type":"Feature","geometry":{"type":"Point","coordinates":[47.78,13.02,430]},"properties":{"stationId":"LOWS","rawText":"LOWS 151650Z VRB01KT 9999 FEW009 SCT040 BKN070 09/06 Q1020 NOSIG","observationTime":"2020-05-15T16:50:00Z","temp":9,"dewpoint":6,"windDirection":0,"windSpeed":1.852,"visibility":6.21,"altim":30.11811,"qualityControlFlag":"TRUE","skyCondition1a":"FEW","skyCondition1b":900,"skyCondition2a":"SCT","skyCondition2b":4000,"flightCategory":"VFR","metarType":"METAR","geometry_esri":{"x":47.78,"y":13.02,"z":430}}}