{"type":"Feature","geometry":{"type":"Point","coordinates":[47.78,13.02,430]},"properties":{"stationId":"LOWS","rawText":"LOWS 141420Z 01003KT 300V040 9999 -SHRA FEW028 SCT040 BKN055 07/03 Q1023 NOSIG","observationTime":"2020-02-14T14:20:00Z","temp":7,"dewpoint":3,"windDirection":10,"windSpeed":5.556,"visibility":6.21,"altim":30.206694,"qualityControlFlag":"TRUE","skyCondition1a":"FEW","skyCondition1b":2800,"skyCondition2a":"SCT","skyCondition2b":4000,"flightCategory":"VFR","metarType":"METAR","geometry_esri":{"x":47.78,"y":13.02,"z":430}}}