{"type":"Feature","geometry":{"type":"Point","coordinates":[47.78,13.02,430]},"properties":{"stationId":"LOWS","rawText":"LOWS 110450Z 34003KT 310V020 8000 FEW001 BKN002 05/05 Q1014 NOSIG","observationTime":"2018-11-11T04:50:00Z","temp":5,"dewpoint":5,"windDirection":340,"windSpeed":5.556,"visibility":4.97,"altim":29.940945,"qualityControlFlag":"TRUE","skyCondition1a":"FEW","skyCondition1b":100,"skyCondition2a":"BKN","skyCondition2b":200,"flightCategory":"LIFR","metarType":"METAR","geometry_esri":{"x":47.78,"y":13.02,"z":430}}}