{"type":"Feature","geometry":{"type":"Point","coordinates":[47.78,13.02,430]},"properties":{"stationId":"LOWS","rawText":"LOWS 161150Z VRB02KT 9999 FEW040 BKN070 15/06 Q1021 NOSIG","observationTime":"2020-05-16T11:50:00Z","temp":15,"dewpoint":6,"windDirection":0,"windSpeed":3.704,"visibility":6.21,"altim":30.147638,"qualityControlFlag":"TRUE","skyCondition1a":"FEW","skyCondition1b":4000,"skyCondition2a":"BKN","skyCondition2b":7000,"flightCategory":"VFR","metarType":"METAR","geometry_esri":{"x":47.78,"y":13.02,"z":430}}}