{"type":"Feature","geometry":{"type":"Point","coordinates":[47.78,13.02,427]},"properties":{"stationId":"LOWS","rawText":"LOWS 041850Z 03004KT 9999 FEW017 BKN025 09/06 Q1031 NOSIG","observationTime":"2020-11-04T18:50:00Z","temp":9,"dewpoint":6,"windDirection":30,"windSpeed":7.408,"visibility":6.21,"altim":30.442913,"qualityControlFlag":"TRUE","skyCondition1a":"FEW","skyCondition1b":1700,"skyCondition2a":"BKN","skyCondition2b":2500,"flightCategory":"MVFR","metarType":"METAR","geometry_esri":{"x":47.78,"y":13.02,"z":427}}}