{"type":"Feature","geometry":{"type":"Point","coordinates":[47.78,13.02,427]},"properties":{"stationId":"LOWS","rawText":"LOWS 130850Z 30007KT 9999 FEW020 SCT028 BKN050 00/M03 Q1018 R15/590593 NOSIG","observationTime":"2021-01-13T08:50:00Z","temp":0,"dewpoint":-3,"windDirection":300,"windSpeed":12.964,"visibility":6.21,"altim":30.059055,"qualityControlFlag":"TRUE","skyCondition1a":"FEW","skyCondition1b":2000,"skyCondition2a":"SCT","skyCondition2b":2800,"flightCategory":"VFR","metarType":"METAR","geometry_esri":{"x":47.78,"y":13.02,"z":427}}}