{"type":"Feature","geometry":{"type":"Point","coordinates":[47.78,13.02,427]},"properties":{"stationId":"LOWS","rawText":"LOWS 092150Z 05002KT 9999 FEW018 BKN022 02/01 Q1009 NOSIG","observationTime":"2020-12-09T21:50:00Z","temp":2,"dewpoint":1,"windDirection":50,"windSpeed":3.704,"visibility":6.21,"altim":29.793306,"qualityControlFlag":"TRUE","skyCondition1a":"FEW","skyCondition1b":1800,"skyCondition2a":"BKN","skyCondition2b":2200,"flightCategory":"MVFR","metarType":"METAR","geometry_esri":{"x":47.78,"y":13.02,"z":427}}}