{"type":"Feature","geometry":{"type":"Point","coordinates":[47.78,13.02,430]},"properties":{"stationId":"LOWS","rawText":"LOWS 061250Z 35007KT 310V040 9999 FEW050 FEW060TCU SCT070 BKN100 27/15 Q1011 NOSIG","observationTime":"2018-06-06T12:50:00Z","temp":27,"dewpoint":15,"windDirection":350,"windSpeed":12.964,"visibility":6.21,"altim":29.852362,"qualityControlFlag":"TRUE","skyCondition1a":"FEW","skyCondition1b":5000,"skyCondition2a":"FEW","skyCondition2b":6000,"flightCategory":"VFR","metarType":"METAR","geometry_esri":{"x":47.78,"y":13.02,"z":430}}}