{"type":"Feature","geometry":{"type":"Point","coordinates":[47.78,13.02,427]},"properties":{"stationId":"LOWS","rawText":"LOWS 251950Z 02003KT 1200 R15/P1500D R33/P1500D SN FEW003 SCT005 BKN013 M01/M02 Q1008 R15/590195 NOSIG","observationTime":"2021-01-25T19:50:00Z","temp":-1,"dewpoint":-2,"windDirection":20,"windSpeed":5.556,"visibility":0.75,"altim":29.763779,"qualityControlFlag":"TRUE","skyCondition1a":"FEW","skyCondition1b":300,"skyCondition2a":"SCT","skyCondition2b":500,"flightCategory":"LIFR","metarType":"METAR","geometry_esri":{"x":47.78,"y":13.02,"z":427}}}