{"type":"Feature","geometry":{"type":"Point","coordinates":[47.78,13.02,430]},"properties":{"stationId":"LOWS","rawText":"LOWS 050450Z VRB01KT 9000 3800S MIFG BR FEW008 BKN120 11/11 Q1019 NOSIG","observationTime":"2018-05-05T04:50:00Z","temp":11,"dewpoint":11,"windDirection":0,"windSpeed":1.852,"visibility":5.59,"altim":30.088583,"qualityControlFlag":"TRUE","skyCondition1a":"FEW","skyCondition1b":800,"skyCondition2a":"BKN","skyCondition2b":12000,"flightCategory":"VFR","metarType":"METAR","geometry_esri":{"x":47.78,"y":13.02,"z":430}}}