{"type":"Feature","geometry":{"type":"Point","coordinates":[47.78,13.02,430]},"properties":{"stationId":"LOWS","rawText":"LOWS 121350Z 22009KT 190V250 9999 FEW028 SCT040 FEW040CB BKN070 10/06 Q0999 NOSIG","observationTime":"2018-03-12T13:50:00Z","temp":10,"dewpoint":6,"windDirection":220,"windSpeed":16.668,"visibility":6.21,"altim":29.498032,"qualityControlFlag":"TRUE","skyCondition1a":"FEW","skyCondition1b":2800,"skyCondition2a":"SCT","skyCondition2b":4000,"flightCategory":"VFR","metarType":"METAR","geometry_esri":{"x":47.78,"y":13.02,"z":430}}}