{"type":"Feature","geometry":{"type":"Point","coordinates":[47.78,13.02,430]},"properties":{"stationId":"LOWS","rawText":"LOWS 191650Z 04004KT 020V080 9999 FEW034 SCT038 13/10 Q1013 NOSIG","observationTime":"2019-10-19T16:50:00Z","temp":13,"dewpoint":10,"windDirection":40,"windSpeed":7.408,"visibility":6.21,"altim":29.911417,"qualityControlFlag":"TRUE","skyCondition1a":"FEW","skyCondition1b":3400,"skyCondition2a":"SCT","skyCondition2b":3800,"flightCategory":"VFR","metarType":"METAR","geometry_esri":{"x":47.78,"y":13.02,"z":430}}}