{"type":"Feature","geometry":{"type":"Point","coordinates":[47.78,13.02,430]},"properties":{"stationId":"LOWS","rawText":"LOWS 021950Z 15004KT 110V180 9999 FEW120 SCT140 BKN250 11/07 Q0998 NOSIG","observationTime":"2019-11-02T19:50:00Z","temp":11,"dewpoint":7,"windDirection":150,"windSpeed":7.408,"visibility":6.21,"altim":29.468504,"qualityControlFlag":"TRUE","skyCondition1a":"FEW","skyCondition1b":12000,"skyCondition2a":"SCT","skyCondition2b":14000,"flightCategory":"VFR","metarType":"METAR","geometry_esri":{"x":47.78,"y":13.02,"z":430}}}