{"type":"Feature","geometry":{"type":"Point","coordinates":[47.78,13.02,430]},"properties":{"stationId":"LOWS","rawText":"LOWS 240950Z VRB01KT 6000 -SN FEW015 BKN025 M03/M06 Q1007 NOSIG","observationTime":"2019-01-24T09:50:00Z","temp":-3,"dewpoint":-6,"windDirection":0,"windSpeed":1.852,"visibility":3.73,"altim":29.734253,"qualityControlFlag":"TRUE","skyCondition1a":"FEW","skyCondition1b":1500,"skyCondition2a":"BKN","skyCondition2b":2500,"flightCategory":"MVFR","metarType":"METAR","geometry_esri":{"x":47.78,"y":13.02,"z":430}}}