{"type":"Feature","geometry":{"type":"Point","coordinates":[47.78,13.02,427]},"properties":{"stationId":"LOWS","rawText":"LOWS 201720Z 25003KT 9999 FEW028 SCT060 BKN070 03/01 Q1034 NOSIG","observationTime":"2020-11-20T17:20:00Z","temp":3,"dewpoint":1,"windDirection":250,"windSpeed":5.556,"visibility":6.21,"altim":30.531496,"qualityControlFlag":"TRUE","skyCondition1a":"FEW","skyCondition1b":2800,"skyCondition2a":"SCT","skyCondition2b":6000,"flightCategory":"VFR","metarType":"METAR","geometry_esri":{"x":47.78,"y":13.02,"z":427}}}