{"type":"Feature","geometry":{"type":"Point","coordinates":[47.78,13.02,430]},"properties":{"stationId":"LOWS","rawText":"LOWS 041150Z 31008KT 9999 -SHRA FEW016 SCT028 BKN035 09/06 Q1018 NOSIG","observationTime":"2018-12-04T11:50:00Z","temp":9,"dewpoint":6,"windDirection":310,"windSpeed":14.816,"visibility":6.21,"altim":30.059055,"qualityControlFlag":"TRUE","skyCondition1a":"FEW","skyCondition1b":1600,"skyCondition2a":"SCT","skyCondition2b":2800,"flightCategory":"VFR","metarType":"METAR","geometry_esri":{"x":47.78,"y":13.02,"z":430}}}