{"type":"Feature","geometry":{"type":"Point","coordinates":[47.78,13.02,430]},"properties":{"stationId":"LOWS","rawText":"LOWS 190720Z 15013KT 9999 FEW065 SCT085 BKN100 04/M03 Q1020 NOSIG","observationTime":"2020-02-19T07:20:00Z","temp":4,"dewpoint":-3,"windDirection":150,"windSpeed":24.076,"visibility":6.21,"altim":30.11811,"qualityControlFlag":"TRUE","skyCondition1a":"FEW","skyCondition1b":6500,"skyCondition2a":"SCT","skyCondition2b":8500,"flightCategory":"VFR","metarType":"METAR","geometry_esri":{"x":47.78,"y":13.02,"z":430}}}