{"type":"Feature","geometry":{"type":"Point","coordinates":[47.78,13.02,427]},"properties":{"stationId":"LOWS","rawText":"LOWS 140550Z 27006KT 230V300 9999 FEW016 BKN042 07/03 Q1010 NOSIG","observationTime":"2020-10-14T05:50:00Z","temp":7,"dewpoint":3,"windDirection":270,"windSpeed":11.112,"visibility":6.21,"altim":29.822834,"qualityControlFlag":"TRUE","skyCondition1a":"FEW","skyCondition1b":1600,"skyCondition2a":"BKN","skyCondition2b":4200,"flightCategory":"VFR","metarType":"METAR","geometry_esri":{"x":47.78,"y":13.02,"z":427}}}