{"type":"Feature","geometry":{"type":"Point","coordinates":[47.78,13.02,430]},"properties":{"stationId":"LOWS","rawText":"LOWS 241650Z 01007KT 9999 FEW040 SCT300 08/01 Q1001 NOSIG","observationTime":"2018-03-24T16:50:00Z","temp":8,"dewpoint":1,"windDirection":10,"windSpeed":12.964,"visibility":6.21,"altim":29.557087,"qualityControlFlag":"TRUE","skyCondition1a":"FEW","skyCondition1b":4000,"skyCondition2a":"SCT","skyCondition2b":30000,"flightCategory":"VFR","metarType":"METAR","geometry_esri":{"x":47.78,"y":13.02,"z":430}}}