{"type":"Feature","geometry":{"type":"Point","coordinates":[47.78,13.02,430]},"properties":{"stationId":"LOWS","rawText":"LOWS 061450Z 30009KT 270V330 9999 FEW070 BKN130 30/09 Q1011 NOSIG","observationTime":"2019-07-06T14:50:00Z","temp":30,"dewpoint":9,"windDirection":300,"windSpeed":16.668,"visibility":6.21,"altim":29.852362,"qualityControlFlag":"TRUE","skyCondition1a":"FEW","skyCondition1b":7000,"skyCondition2a":"BKN","skyCondition2b":13000,"flightCategory":"VFR","metarType":"METAR","geometry_esri":{"x":47.78,"y":13.02,"z":430}}}