{"type":"Feature","geometry":{"type":"Point","coordinates":[47.78,13.02,430]},"properties":{"stationId":"LOWS","rawText":"LOWS 140350Z 23005KT 9999 -DZRA FEW006 SCT016 BKN028 11/10 Q1017 NOSIG","observationTime":"2018-06-14T03:50:00Z","temp":11,"dewpoint":10,"windDirection":230,"windSpeed":9.26,"visibility":6.21,"altim":30.029528,"qualityControlFlag":"TRUE","skyCondition1a":"FEW","skyCondition1b":600,"skyCondition2a":"SCT","skyCondition2b":1600,"flightCategory":"MVFR","metarType":"METAR","geometry_esri":{"x":47.78,"y":13.02,"z":430}}}