{"type":"Feature","geometry":{"type":"Point","coordinates":[47.78,13.02,427]},"properties":{"stationId":"LOWS","rawText":"LOWS 160850Z 16004KT 9999 -RA FEW003 SCT019 BKN030 05/05 Q1016 NOSIG","observationTime":"2020-10-16T08:50:00Z","temp":5,"dewpoint":5,"windDirection":160,"windSpeed":7.408,"visibility":6.21,"altim":30,"qualityControlFlag":"TRUE","skyCondition1a":"FEW","skyCondition1b":300,"skyCondition2a":"SCT","skyCondition2b":1900,"flightCategory":"MVFR","metarType":"METAR","geometry_esri":{"x":47.78,"y":13.02,"z":427}}}