{"type":"Feature","geometry":{"type":"Point","coordinates":[47.78,13.02,430]},"properties":{"stationId":"LOWS","rawText":"LOWS 131850Z 12003KT 020V160 9999 FEW070 BKN100 19/11 Q1004 NOSIG","observationTime":"2018-05-13T18:50:00Z","temp":19,"dewpoint":11,"windDirection":120,"windSpeed":5.556,"visibility":6.21,"altim":29.64567,"qualityControlFlag":"TRUE","skyCondition1a":"FEW","skyCondition1b":7000,"skyCondition2a":"BKN","skyCondition2b":10000,"flightCategory":"VFR","metarType":"METAR","geometry_esri":{"x":47.78,"y":13.02,"z":430}}}