{"type":"Feature","geometry":{"type":"Point","coordinates":[47.78,13.02,430]},"properties":{"stationId":"LOWS","rawText":"LOWS 031450Z 02006KT 8000 FEW110 BKN120 02/M02 Q0995 NOSIG","observationTime":"2018-03-03T14:50:00Z","temp":2,"dewpoint":-2,"windDirection":20,"windSpeed":11.112,"visibility":4.97,"altim":29.379921,"qualityControlFlag":"TRUE","skyCondition1a":"FEW","skyCondition1b":11000,"skyCondition2a":"BKN","skyCondition2b":12000,"flightCategory":"MVFR","metarType":"METAR","geometry_esri":{"x":47.78,"y":13.02,"z":430}}}