{"type":"Feature","geometry":{"type":"Point","coordinates":[47.78,13.02,430]},"properties":{"stationId":"LOWS","rawText":"LOWS 241350Z 33003KT 290V010 9999 -SN FEW020 BKN040 M02/M07 Q1007 NOSIG","observationTime":"2019-01-24T13:50:00Z","temp":-2,"dewpoint":-7,"windDirection":330,"windSpeed":5.556,"visibility":6.21,"altim":29.734253,"qualityControlFlag":"TRUE","skyCondition1a":"FEW","skyCondition1b":2000,"skyCondition2a":"BKN","skyCondition2b":4000,"flightCategory":"VFR","metarType":"METAR","geometry_esri":{"x":47.78,"y":13.02,"z":430}}}