{"type":"Feature","geometry":{"type":"Point","coordinates":[47.78,13.02,427]},"properties":{"stationId":"LOWS","rawText":"LOWS 061950Z 29005KT 260V320 9999 FEW006 BKN012 03/01 Q0996 NOSIG","observationTime":"2020-12-06T19:50:00Z","temp":3,"dewpoint":1,"windDirection":290,"windSpeed":9.26,"visibility":6.21,"altim":29.409449,"qualityControlFlag":"TRUE","skyCondition1a":"FEW","skyCondition1b":600,"skyCondition2a":"BKN","skyCondition2b":1200,"flightCategory":"MVFR","metarType":"METAR","geometry_esri":{"x":47.78,"y":13.02,"z":427}}}