{"type":"Feature","geometry":{"type":"Point","coordinates":[47.78,13.02,430]},"properties":{"stationId":"LOWS","rawText":"LOWS 210520Z VRB01KT 0500 R15/0550N R33/0450N FZFG FEW001 BKN002 M02/M02 Q1012 NOSIG","observationTime":"2018-11-21T05:20:00Z","temp":-2,"dewpoint":-2,"windDirection":0,"windSpeed":1.852,"visibility":0.31,"altim":29.88189,"qualityControlFlag":"TRUE","skyCondition1a":"FEW","skyCondition1b":100,"skyCondition2a":"BKN","skyCondition2b":200,"flightCategory":"LIFR","metarType":"METAR","geometry_esri":{"x":47.78,"y":13.02,"z":430}}}