{"type":"Feature","geometry":{"type":"Point","coordinates":[47.78,13.02,427]},"properties":{"stationId":"LOWS","rawText":"LOWS 291350Z 13003KT 100V170 9999 FEW005 SCT022 BKN030 11/10 Q1018 NOSIG","observationTime":"2020-09-29T13:50:00Z","temp":11,"dewpoint":10,"windDirection":130,"windSpeed":5.556,"visibility":6.21,"altim":30.059055,"qualityControlFlag":"TRUE","skyCondition1a":"FEW","skyCondition1b":500,"skyCondition2a":"SCT","skyCondition2b":2200,"flightCategory":"MVFR","metarType":"METAR","geometry_esri":{"x":47.78,"y":13.02,"z":427}}}