{"type":"Feature","geometry":{"type":"Point","coordinates":[47.78,13.02,430]},"properties":{"stationId":"LOWS","rawText":"LOWS 211250Z 30005KT 9999 FEW008 BKN010 M01/M02 Q1040 R15/19//95 NOSIG","observationTime":"2020-01-21T12:50:00Z","temp":-1,"dewpoint":-2,"windDirection":300,"windSpeed":9.26,"visibility":6.21,"altim":30.708662,"qualityControlFlag":"TRUE","skyCondition1a":"FEW","skyCondition1b":800,"skyCondition2a":"BKN","skyCondition2b":1000,"flightCategory":"MVFR","metarType":"SPECI","geometry_esri":{"x":47.78,"y":13.02,"z":430}}}