{"type":"Feature","geometry":{"type":"Point","coordinates":[47.78,13.02,430]},"properties":{"stationId":"LOWS","rawText":"LOWS 241250Z 27008KT 240V310 9999 FEW040 BKN070 12/03 Q1031 NOSIG","observationTime":"2018-09-24T12:50:00Z","temp":12,"dewpoint":3,"windDirection":270,"windSpeed":14.816,"visibility":6.21,"altim":30.442913,"qualityControlFlag":"TRUE","skyCondition1a":"FEW","skyCondition1b":4000,"skyCondition2a":"BKN","skyCondition2b":7000,"flightCategory":"VFR","metarType":"METAR","geometry_esri":{"x":47.78,"y":13.02,"z":430}}}