{"type":"Feature","geometry":{"type":"Point","coordinates":[47.78,13.02,430]},"properties":{"stationId":"LOWS","rawText":"LOWS 280950Z 15009KT 9999 FEW014 BKN050 07/04 Q1009 NOSIG","observationTime":"2018-03-28T09:50:00Z","temp":7,"dewpoint":4,"windDirection":150,"windSpeed":16.668,"visibility":6.21,"altim":29.793306,"qualityControlFlag":"TRUE","skyCondition1a":"FEW","skyCondition1b":1400,"skyCondition2a":"BKN","skyCondition2b":5000,"flightCategory":"VFR","metarType":"METAR","geometry_esri":{"x":47.78,"y":13.02,"z":430}}}