{"type":"Feature","geometry":{"type":"Point","coordinates":[47.78,13.02,430]},"properties":{"stationId":"LOWS","rawText":"LOWS 201150Z 06009KT 020V110 9999 FEW030 SCT120 BKN250 20/11 Q1018 NOSIG","observationTime":"2018-05-20T11:50:00Z","temp":20,"dewpoint":11,"windDirection":60,"windSpeed":16.668,"visibility":6.21,"altim":30.059055,"qualityControlFlag":"TRUE","skyCondition1a":"FEW","skyCondition1b":3000,"skyCondition2a":"SCT","skyCondition2b":12000,"flightCategory":"VFR","metarType":"METAR","geometry_esri":{"x":47.78,"y":13.02,"z":430}}}