{"type":"Feature","geometry":{"type":"Point","coordinates":[47.78,13.02,427]},"properties":{"stationId":"LOWS","rawText":"LOWS 150350Z 18003KT 130V240 9999 FEW007 SCT030 01/01 Q1013 NOSIG","observationTime":"2020-10-15T03:50:00Z","temp":1,"dewpoint":1,"windDirection":180,"windSpeed":5.556,"visibility":6.21,"altim":29.911417,"qualityControlFlag":"TRUE","skyCondition1a":"FEW","skyCondition1b":700,"skyCondition2a":"SCT","skyCondition2b":3000,"flightCategory":"VFR","metarType":"METAR","geometry_esri":{"x":47.78,"y":13.02,"z":427}}}