{"type":"Feature","geometry":{"type":"Point","coordinates":[47.78,13.02,430]},"properties":{"stationId":"LOWS","rawText":"LOWS 151150Z 33007KT 290V020 9999 FEW070 SCT140 BKN300 23/13 Q1016 NOSIG","observationTime":"2019-08-15T11:50:00Z","temp":23,"dewpoint":13,"windDirection":330,"windSpeed":12.964,"visibility":6.21,"altim":30,"qualityControlFlag":"TRUE","skyCondition1a":"FEW","skyCondition1b":7000,"skyCondition2a":"SCT","skyCondition2b":14000,"flightCategory":"VFR","metarType":"METAR","geometry_esri":{"x":47.78,"y":13.02,"z":430}}}