{"type":"Feature","geometry":{"type":"Point","coordinates":[47.78,13.02,430]},"properties":{"stationId":"LOWS","rawText":"LOWS 011750Z 34005KT 9999 -SHRA FEW005 SCT022 BKN032 13/12 Q1022 NOSIG","observationTime":"2018-09-01T17:50:00Z","temp":13,"dewpoint":12,"windDirection":340,"windSpeed":9.26,"visibility":6.21,"altim":30.177166,"qualityControlFlag":"TRUE","skyCondition1a":"FEW","skyCondition1b":500,"skyCondition2a":"SCT","skyCondition2b":2200,"flightCategory":"VFR","metarType":"METAR","geometry_esri":{"x":47.78,"y":13.02,"z":430}}}