{"type":"Feature","geometry":{"type":"Point","coordinates":[47.78,13.02,430]},"properties":{"stationId":"LOWS","rawText":"LOWS 091350Z 30013KT 7000 FEW001 SCT011 BKN030 00/M02 Q1008 R15/29//95 NOSIG","observationTime":"2019-01-09T13:50:00Z","temp":0,"dewpoint":-2,"windDirection":300,"windSpeed":24.076,"visibility":4.35,"altim":29.763779,"qualityControlFlag":"TRUE","skyCondition1a":"FEW","skyCondition1b":100,"skyCondition2a":"SCT","skyCondition2b":1100,"flightCategory":"MVFR","metarType":"METAR","geometry_esri":{"x":47.78,"y":13.02,"z":430}}}