{"type":"Feature","geometry":{"type":"Point","coordinates":[47.78,13.02,430]},"properties":{"stationId":"LOWS","rawText":"LOWS 292050Z VRB01KT 9999 FEW090 SCT250 M03/M05 Q1019 NOSIG","observationTime":"2018-11-29T20:50:00Z","temp":-3,"dewpoint":-5,"windDirection":0,"windSpeed":1.852,"visibility":6.21,"altim":30.088583,"qualityControlFlag":"TRUE","skyCondition1a":"FEW","skyCondition1b":9000,"skyCondition2a":"SCT","skyCondition2b":25000,"flightCategory":"VFR","metarType":"METAR","geometry_esri":{"x":47.78,"y":13.02,"z":430}}}