{"type":"Feature","geometry":{"type":"Point","coordinates":[47.78,13.02,427]},"properties":{"stationId":"LOWS","rawText":"LOWS 311950Z VRB01KT 9000 FEW007 SCT009 BKN070 M00/M01 Q1000 NOSIG","observationTime":"2021-01-31T19:50:00Z","temp":0,"dewpoint":-1,"windDirection":0,"windSpeed":1.852,"visibility":5.59,"altim":29.52756,"qualityControlFlag":"TRUE","skyCondition1a":"FEW","skyCondition1b":700,"skyCondition2a":"SCT","skyCondition2b":900,"flightCategory":"VFR","metarType":"METAR","geometry_esri":{"x":47.78,"y":13.02,"z":427}}}