{"type":"Feature","geometry":{"type":"Point","coordinates":[47.78,13.02,430]},"properties":{"stationId":"LOWS","rawText":"LOWS 291650Z 11003KT 070V140 9999 R15/P1500D R33/P1500U FEW018 BKN027 20/16 Q1012 NOSIG","observationTime":"2019-07-29T16:50:00Z","temp":20,"dewpoint":16,"windDirection":110,"windSpeed":5.556,"visibility":6.21,"altim":29.88189,"qualityControlFlag":"TRUE","skyCondition1a":"FEW","skyCondition1b":1800,"skyCondition2a":"BKN","skyCondition2b":2700,"flightCategory":"MVFR","metarType":"SPECI","geometry_esri":{"x":47.78,"y":13.02,"z":430}}}