{"type":"Feature","geometry":{"type":"Point","coordinates":[47.78,13.02,430]},"properties":{"stationId":"LOWS","rawText":"LOWS 231750Z 30015G31KT 260V320 9999 -RA FEW050 OVC070 14/02 Q1022 NOSIG","observationTime":"2018-10-23T17:50:00Z","temp":14,"dewpoint":2,"windDirection":300,"windSpeed":27.78,"visibility":6.21,"altim":30.177166,"qualityControlFlag":"TRUE","skyCondition1a":"FEW","skyCondition1b":5000,"skyCondition2a":"OVC","skyCondition2b":7000,"flightCategory":"VFR","metarType":"METAR","geometry_esri":{"x":47.78,"y":13.02,"z":430}}}