{"type":"Feature","geometry":{"type":"Point","coordinates":[47.78,13.02,430]},"properties":{"stationId":"LOWS","rawText":"LOWS 151150Z 32006KT 9999 -RA FEW022 BKN036 12/09 Q1011 NOSIG","observationTime":"2018-05-15T11:50:00Z","temp":12,"dewpoint":9,"windDirection":320,"windSpeed":11.112,"visibility":6.21,"altim":29.852362,"qualityControlFlag":"TRUE","skyCondition1a":"FEW","skyCondition1b":2200,"skyCondition2a":"BKN","skyCondition2b":3600,"flightCategory":"VFR","metarType":"METAR","geometry_esri":{"x":47.78,"y":13.02,"z":430}}}