{"type":"Feature","geometry":{"type":"Point","coordinates":[47.78,13.02,430]},"properties":{"stationId":"LOWS","rawText":"LOWS 062050Z VRB01KT 3500 -RA BR FEW006 BKN035 03/02 Q0993 NOSIG","observationTime":"2018-03-06T20:50:00Z","temp":3,"dewpoint":2,"windDirection":0,"windSpeed":1.852,"visibility":2.17,"altim":29.320866,"qualityControlFlag":"TRUE","skyCondition1a":"FEW","skyCondition1b":600,"skyCondition2a":"BKN","skyCondition2b":3500,"flightCategory":"IFR","metarType":"METAR","geometry_esri":{"x":47.78,"y":13.02,"z":430}}}