{"type":"Feature","geometry":{"type":"Point","coordinates":[47.78,13.02,430]},"properties":{"stationId":"LOWS","rawText":"LOWS 170350Z VRB01KT 4000 BR FEW002 SCT025 BKN060 16/15 Q1018 NOSIG","observationTime":"2019-09-17T03:50:00Z","temp":16,"dewpoint":15,"windDirection":0,"windSpeed":1.852,"visibility":2.49,"altim":30.059055,"qualityControlFlag":"TRUE","skyCondition1a":"FEW","skyCondition1b":200,"skyCondition2a":"SCT","skyCondition2b":2500,"flightCategory":"IFR","metarType":"METAR","geometry_esri":{"x":47.78,"y":13.02,"z":430}}}