{"type":"Feature","geometry":{"type":"Point","coordinates":[47.78,13.02,427]},"properties":{"stationId":"LOWS","rawText":"LOWS 011850Z VRB02KT 9999 -RA FEW030 BKN050 03/03 Q1000 NOSIG","observationTime":"2021-02-01T18:50:00Z","temp":3,"dewpoint":3,"windDirection":0,"windSpeed":3.704,"visibility":6.21,"altim":29.52756,"qualityControlFlag":"TRUE","skyCondition1a":"FEW","skyCondition1b":3000,"skyCondition2a":"BKN","skyCondition2b":5000,"flightCategory":"VFR","metarType":"METAR","geometry_esri":{"x":47.78,"y":13.02,"z":427}}}