{"type":"Feature","geometry":{"type":"Point","coordinates":[47.78,13.02,430]},"properties":{"stationId":"LOWS","rawText":"LOWS 271150Z 36004KT 330V040 9999 -RA FEW008 SCT014 BKN028 08/06 Q1008 NOSIG","observationTime":"2018-10-27T11:50:00Z","temp":8,"dewpoint":6,"windDirection":360,"windSpeed":7.408,"visibility":6.21,"altim":29.763779,"qualityControlFlag":"TRUE","skyCondition1a":"FEW","skyCondition1b":800,"skyCondition2a":"SCT","skyCondition2b":1400,"flightCategory":"MVFR","metarType":"METAR","geometry_esri":{"x":47.78,"y":13.02,"z":430}}}