{"type":"Feature","geometry":{"type":"Point","coordinates":[47.78,13.02,430]},"properties":{"stationId":"LOWS","rawText":"LOWS 010550Z 15005KT 7000 -RA FEW009 SCT018 BKN025 02/02 Q1018 NOSIG","observationTime":"2018-12-01T05:50:00Z","temp":2,"dewpoint":2,"windDirection":150,"windSpeed":9.26,"visibility":4.35,"altim":30.059055,"qualityControlFlag":"TRUE","skyCondition1a":"FEW","skyCondition1b":900,"skyCondition2a":"SCT","skyCondition2b":1800,"flightCategory":"MVFR","metarType":"METAR","geometry_esri":{"x":47.78,"y":13.02,"z":430}}}