{"type":"Feature","geometry":{"type":"Point","coordinates":[47.78,13.02,430]},"properties":{"stationId":"LOWS","rawText":"LOWS 160950Z 30006KT 270V340 9999 FEW040 SCT100 13/08 Q1022 NOSIG","observationTime":"2020-05-16T09:50:00Z","temp":13,"dewpoint":8,"windDirection":300,"windSpeed":11.112,"visibility":6.21,"altim":30.177166,"qualityControlFlag":"TRUE","skyCondition1a":"FEW","skyCondition1b":4000,"skyCondition2a":"SCT","skyCondition2b":10000,"flightCategory":"VFR","metarType":"METAR","geometry_esri":{"x":47.78,"y":13.02,"z":430}}}