{"type":"Feature","geometry":{"type":"Point","coordinates":[47.78,13.02,430]},"properties":{"stationId":"LOWS","rawText":"LOWS 031950Z 32003KT 270V340 9999 FEW030 SCT038 BKN050 03/M00 Q1008 NOSIG","observationTime":"2020-03-03T19:50:00Z","temp":3,"dewpoint":0,"windDirection":320,"windSpeed":5.556,"visibility":6.21,"altim":29.763779,"qualityControlFlag":"TRUE","skyCondition1a":"FEW","skyCondition1b":3000,"skyCondition2a":"SCT","skyCondition2b":3800,"flightCategory":"VFR","metarType":"METAR","geometry_esri":{"x":47.78,"y":13.02,"z":430}}}