{"type":"Feature","geometry":{"type":"Point","coordinates":[47.78,13.02,430]},"properties":{"stationId":"LOWS","rawText":"LOWS 172150Z 25007KT 200V280 9999 -SHRA FEW013 SCT019 BKN025 05/02 Q1015 NOSIG","observationTime":"2019-03-17T21:50:00Z","temp":5,"dewpoint":2,"windDirection":250,"windSpeed":12.964,"visibility":6.21,"altim":29.970472,"qualityControlFlag":"TRUE","skyCondition1a":"FEW","skyCondition1b":1300,"skyCondition2a":"SCT","skyCondition2b":1900,"flightCategory":"MVFR","metarType":"METAR","geometry_esri":{"x":47.78,"y":13.02,"z":430}}}