{"type":"Feature","geometry":{"type":"Point","coordinates":[47.78,13.02,430]},"properties":{"stationId":"LOWS","rawText":"LOWS 051250Z 30008KT 260V340 9999 FEW050 SCT150 BKN300 26/12 Q1013 NOSIG","observationTime":"2018-07-05T12:50:00Z","temp":26,"dewpoint":12,"windDirection":300,"windSpeed":14.816,"visibility":6.21,"altim":29.911417,"qualityControlFlag":"TRUE","skyCondition1a":"FEW","skyCondition1b":5000,"skyCondition2a":"SCT","skyCondition2b":15000,"flightCategory":"VFR","metarType":"METAR","geometry_esri":{"x":47.78,"y":13.02,"z":430}}}