{"type":"Feature","geometry":{"type":"Point","coordinates":[47.78,13.02,430]},"properties":{"stationId":"LOWS","rawText":"LOWS 181450Z 30009KT 240V320 9999 FEW050 BKN100 26/12 Q1016 NOSIG","observationTime":"2018-07-18T14:50:00Z","temp":26,"dewpoint":12,"windDirection":300,"windSpeed":16.668,"visibility":6.21,"altim":30,"qualityControlFlag":"TRUE","skyCondition1a":"FEW","skyCondition1b":5000,"skyCondition2a":"BKN","skyCondition2b":10000,"flightCategory":"VFR","metarType":"METAR","geometry_esri":{"x":47.78,"y":13.02,"z":430}}}