{"type":"Feature","geometry":{"type":"Point","coordinates":[47.78,13.02,430]},"properties":{"stationId":"LOWS","rawText":"LOWS 141050Z 01007KT 9999 FEW038 FEW040TCU BKN300 23/14 Q1006 NOSIG","observationTime":"2018-05-14T10:50:00Z","temp":23,"dewpoint":14,"windDirection":10,"windSpeed":12.964,"visibility":6.21,"altim":29.704725,"qualityControlFlag":"TRUE","skyCondition1a":"FEW","skyCondition1b":3800,"skyCondition2a":"FEW","skyCondition2b":4000,"flightCategory":"VFR","metarType":"METAR","geometry_esri":{"x":47.78,"y":13.02,"z":430}}}