{"type":"Feature","geometry":{"type":"Point","coordinates":[47.78,13.02,427]},"properties":{"stationId":"LOWS","rawText":"LOWS 141550Z 29006KT 250V320 9999 -SN FEW008 SCT020 BKN035 M01/M03 Q1018 R15/690193 NOSIG","observationTime":"2021-01-14T15:50:00Z","temp":-1,"dewpoint":-3,"windDirection":290,"windSpeed":11.112,"visibility":6.21,"altim":30.059055,"qualityControlFlag":"TRUE","skyCondition1a":"FEW","skyCondition1b":800,"skyCondition2a":"SCT","skyCondition2b":2000,"flightCategory":"VFR","metarType":"METAR","geometry_esri":{"x":47.78,"y":13.02,"z":427}}}