{"type":"Feature","geometry":{"type":"Point","coordinates":[47.78,13.02,430]},"properties":{"stationId":"LOWS","rawText":"LOWS 091750Z 05003KT 360V120 9999 FEW050 SCT065 BKN090 16/05 Q1006 NOSIG","observationTime":"2019-04-09T17:50:00Z","temp":16,"dewpoint":5,"windDirection":50,"windSpeed":5.556,"visibility":6.21,"altim":29.704725,"qualityControlFlag":"TRUE","skyCondition1a":"FEW","skyCondition1b":5000,"skyCondition2a":"SCT","skyCondition2b":6500,"flightCategory":"VFR","metarType":"METAR","geometry_esri":{"x":47.78,"y":13.02,"z":430}}}