{"type":"Feature","geometry":{"type":"Point","coordinates":[47.78,13.02,430]},"properties":{"stationId":"LOWS","rawText":"LOWS 021450Z 27003KT 210V320 9999 FEW050 SCT120 BKN300 21/11 Q1007 NOSIG","observationTime":"2018-05-02T14:50:00Z","temp":21,"dewpoint":11,"windDirection":270,"windSpeed":5.556,"visibility":6.21,"altim":29.734253,"qualityControlFlag":"TRUE","skyCondition1a":"FEW","skyCondition1b":5000,"skyCondition2a":"SCT","skyCondition2b":12000,"flightCategory":"VFR","metarType":"METAR","geometry_esri":{"x":47.78,"y":13.02,"z":430}}}