{"type":"Feature","geometry":{"type":"Point","coordinates":[47.78,13.02,430]},"properties":{"stationId":"LOWS","rawText":"LOWS 121150Z 31004KT 9999 SCT035 SCT180 BKN300 14/06 Q0997 NOSIG","observationTime":"2018-03-12T11:50:00Z","temp":14,"dewpoint":6,"windDirection":310,"windSpeed":7.408,"visibility":6.21,"altim":29.438976,"qualityControlFlag":"TRUE","skyCondition1a":"SCT","skyCondition1b":3500,"skyCondition2a":"SCT","skyCondition2b":18000,"flightCategory":"VFR","metarType":"METAR","geometry_esri":{"x":47.78,"y":13.02,"z":430}}}