{"type":"Feature","geometry":{"type":"Point","coordinates":[47.78,13.02,430]},"properties":{"stationId":"LOWS","rawText":"LOWS 131950Z VRB01KT 8000 FEW011 BKN018 M03/M04 Q1015 NOSIG","observationTime":"2018-12-13T19:50:00Z","temp":-3,"dewpoint":-4,"windDirection":0,"windSpeed":1.852,"visibility":4.97,"altim":29.970472,"qualityControlFlag":"TRUE","skyCondition1a":"FEW","skyCondition1b":1100,"skyCondition2a":"BKN","skyCondition2b":1800,"flightCategory":"MVFR","metarType":"METAR","geometry_esri":{"x":47.78,"y":13.02,"z":430}}}