{"type":"Feature","geometry":{"type":"Point","coordinates":[47.78,13.02,430]},"properties":{"stationId":"LOWS","rawText":"LOWS 190750Z 15007KT 9999 FEW070 BKN110 17/15 Q1023 NOSIG","observationTime":"2018-09-19T07:50:00Z","temp":17,"dewpoint":15,"windDirection":150,"windSpeed":12.964,"visibility":6.21,"altim":30.206694,"qualityControlFlag":"TRUE","skyCondition1a":"FEW","skyCondition1b":7000,"skyCondition2a":"BKN","skyCondition2b":11000,"flightCategory":"VFR","metarType":"METAR","geometry_esri":{"x":47.78,"y":13.02,"z":430}}}