{"type":"Feature","geometry":{"type":"Point","coordinates":[47.78,13.02,430]},"properties":{"stationId":"LOWS","rawText":"LOWS 291650Z 12003KT 080V140 8000 FEW012 SCT070 M01/M02 Q1031 NOSIG","observationTime":"2018-12-29T16:50:00Z","temp":-1,"dewpoint":-2,"windDirection":120,"windSpeed":5.556,"visibility":4.97,"altim":30.442913,"qualityControlFlag":"TRUE","skyCondition1a":"FEW","skyCondition1b":1200,"skyCondition2a":"SCT","skyCondition2b":7000,"flightCategory":"MVFR","metarType":"METAR","geometry_esri":{"x":47.78,"y":13.02,"z":430}}}