{"type":"Feature","geometry":{"type":"Point","coordinates":[47.78,13.02,430]},"properties":{"stationId":"LOWS","rawText":"LOWS 070950Z 02003KT 300V110 9999 FEW050 SCT070 13/05 Q1004 NOSIG","observationTime":"2019-04-07T09:50:00Z","temp":13,"dewpoint":5,"windDirection":20,"windSpeed":5.556,"visibility":6.21,"altim":29.64567,"qualityControlFlag":"TRUE","skyCondition1a":"FEW","skyCondition1b":5000,"skyCondition2a":"SCT","skyCondition2b":7000,"flightCategory":"VFR","metarType":"METAR","geometry_esri":{"x":47.78,"y":13.02,"z":430}}}