{"type":"Feature","geometry":{"type":"Point","coordinates":[47.78,13.02,430]},"properties":{"stationId":"LOWS","rawText":"LOWS 051050Z 12004KT 070V180 9999 FEW012 BKN055 BKN100 05/03 Q1027 NOSIG","observationTime":"2018-12-05T10:50:00Z","temp":5,"dewpoint":3,"windDirection":120,"windSpeed":7.408,"visibility":6.21,"altim":30.324802,"qualityControlFlag":"TRUE","skyCondition1a":"FEW","skyCondition1b":1200,"skyCondition2a":"BKN","skyCondition2b":5500,"flightCategory":"VFR","metarType":"METAR","geometry_esri":{"x":47.78,"y":13.02,"z":430}}}