{"type":"Feature","geometry":{"type":"Point","coordinates":[47.78,13.02,430]},"properties":{"stationId":"LOWS","rawText":"LOWS 121450Z VRB02KT 9999 FEW070 SCT120 22/03 Q1015 NOSIG","observationTime":"2020-04-12T14:50:00Z","temp":22,"dewpoint":3,"windDirection":0,"windSpeed":3.704,"visibility":6.21,"altim":29.970472,"qualityControlFlag":"TRUE","skyCondition1a":"FEW","skyCondition1b":7000,"skyCondition2a":"SCT","skyCondition2b":12000,"flightCategory":"VFR","metarType":"METAR","geometry_esri":{"x":47.78,"y":13.02,"z":430}}}