{"type":"Feature","geometry":{"type":"Point","coordinates":[47.78,13.02,430]},"properties":{"stationId":"LOWS","rawText":"LOWS 031050Z 33004KT 300V010 9999 FEW100 BKN240 14/09 Q0991 NOSIG","observationTime":"2019-11-03T10:50:00Z","temp":14,"dewpoint":9,"windDirection":330,"windSpeed":7.408,"visibility":6.21,"altim":29.26181,"qualityControlFlag":"TRUE","skyCondition1a":"FEW","skyCondition1b":10000,"skyCondition2a":"BKN","skyCondition2b":24000,"flightCategory":"VFR","metarType":"METAR","geometry_esri":{"x":47.78,"y":13.02,"z":430}}}