{"type":"Feature","geometry":{"type":"Point","coordinates":[47.78,13.02,430]},"properties":{"stationId":"LOWS","rawText":"LOWS 020950Z 34008KT 9999 VCSH FEW012 SCT023 BKN050 07/04 Q1024 NOSIG","observationTime":"2018-10-02T09:50:00Z","temp":7,"dewpoint":4,"windDirection":340,"windSpeed":14.816,"visibility":6.21,"altim":30.236221,"qualityControlFlag":"TRUE","skyCondition1a":"FEW","skyCondition1b":1200,"skyCondition2a":"SCT","skyCondition2b":2300,"flightCategory":"VFR","metarType":"METAR","geometry_esri":{"x":47.78,"y":13.02,"z":430}}}