{"type":"Feature","geometry":{"type":"Point","coordinates":[47.78,13.02,430]},"properties":{"stationId":"LOWS","rawText":"LOWS 130350Z 29008KT 250V320 9999 FEW032 SCT050 BKN070 16/10 Q1014 NOSIG","observationTime":"2019-07-13T03:50:00Z","temp":16,"dewpoint":10,"windDirection":290,"windSpeed":14.816,"visibility":6.21,"altim":29.940945,"qualityControlFlag":"TRUE","skyCondition1a":"FEW","skyCondition1b":3200,"skyCondition2a":"SCT","skyCondition2b":5000,"flightCategory":"VFR","metarType":"METAR","geometry_esri":{"x":47.78,"y":13.02,"z":430}}}