{"type":"Feature","geometry":{"type":"Point","coordinates":[47.78,13.02,430]},"properties":{"stationId":"LOWS","rawText":"LOWS 230350Z 15004KT 6000 RA FEW003 SCT030 BKN050 11/10 Q1021 NOSIG","observationTime":"2018-09-23T03:50:00Z","temp":11,"dewpoint":10,"windDirection":150,"windSpeed":7.408,"visibility":3.73,"altim":30.147638,"qualityControlFlag":"TRUE","skyCondition1a":"FEW","skyCondition1b":300,"skyCondition2a":"SCT","skyCondition2b":3000,"flightCategory":"MVFR","metarType":"METAR","geometry_esri":{"x":47.78,"y":13.02,"z":430}}}