{"type":"Feature","geometry":{"type":"Point","coordinates":[47.78,13.02,430]},"properties":{"stationId":"LOWS","rawText":"LOWS 111250Z 15006KT 100V170 9999 FEW030 BKN070 17/13 Q1016 NOSIG","observationTime":"2018-07-11T12:50:00Z","temp":17,"dewpoint":13,"windDirection":150,"windSpeed":11.112,"visibility":6.21,"altim":30,"qualityControlFlag":"TRUE","skyCondition1a":"FEW","skyCondition1b":3000,"skyCondition2a":"BKN","skyCondition2b":7000,"flightCategory":"VFR","metarType":"METAR","geometry_esri":{"x":47.78,"y":13.02,"z":430}}}