{"type":"Feature","geometry":{"type":"Point","coordinates":[47.78,13.02,430]},"properties":{"stationId":"LOWS","rawText":"LOWS 030950Z 02004KT 9999 FEW032 SCT300 03/M01 Q0996 R15/19//95 NOSIG","observationTime":"2018-03-03T09:50:00Z","temp":3,"dewpoint":-1,"windDirection":20,"windSpeed":7.408,"visibility":6.21,"altim":29.409449,"qualityControlFlag":"TRUE","skyCondition1a":"FEW","skyCondition1b":3200,"skyCondition2a":"SCT","skyCondition2b":30000,"flightCategory":"VFR","metarType":"METAR","geometry_esri":{"x":47.78,"y":13.02,"z":430}}}