{"type":"Feature","geometry":{"type":"Point","coordinates":[47.78,13.02,430]},"properties":{"stationId":"LOWS","rawText":"LOWS 221250Z 34007KT 300V040 9999 FEW050 SCT110 05/M06 Q1016 NOSIG","observationTime":"2018-03-22T12:50:00Z","temp":5,"dewpoint":-6,"windDirection":340,"windSpeed":12.964,"visibility":6.21,"altim":30,"qualityControlFlag":"TRUE","skyCondition1a":"FEW","skyCondition1b":5000,"skyCondition2a":"SCT","skyCondition2b":11000,"flightCategory":"VFR","metarType":"METAR","geometry_esri":{"x":47.78,"y":13.02,"z":430}}}