{"type":"Feature","geometry":{"type":"Point","coordinates":[47.78,13.02,430]},"properties":{"stationId":"LOWS","rawText":"LOWS 170550Z 16003KT 9999 FEW003 SCT040 BKN050 11/10 Q1015 NOSIG","observationTime":"2018-05-17T05:50:00Z","temp":11,"dewpoint":10,"windDirection":160,"windSpeed":5.556,"visibility":6.21,"altim":29.970472,"qualityControlFlag":"TRUE","skyCondition1a":"FEW","skyCondition1b":300,"skyCondition2a":"SCT","skyCondition2b":4000,"flightCategory":"VFR","metarType":"METAR","geometry_esri":{"x":47.78,"y":13.02,"z":430}}}