{"type":"Feature","geometry":{"type":"Point","coordinates":[47.78,13.02,430]},"properties":{"stationId":"LOWS","rawText":"LOWS 210650Z 32009KT 6000 FEW022 SCT028 BKN036 09/07 Q1027 NOSIG","observationTime":"2018-10-21T06:50:00Z","temp":9,"dewpoint":7,"windDirection":320,"windSpeed":16.668,"visibility":3.73,"altim":30.324802,"qualityControlFlag":"TRUE","skyCondition1a":"FEW","skyCondition1b":2200,"skyCondition2a":"SCT","skyCondition2b":2800,"flightCategory":"MVFR","metarType":"METAR","geometry_esri":{"x":47.78,"y":13.02,"z":430}}}