{"type":"Feature","geometry":{"type":"Point","coordinates":[47.78,13.02,430]},"properties":{"stationId":"LOWS","rawText":"LOWS 121650Z 27011G22KT 230V310 9999 FEW016 SCT030 BKN040 04/M01 Q1018 R15/19//95 NOSIG","observationTime":"2019-01-12T16:50:00Z","temp":4,"dewpoint":-1,"windDirection":270,"windSpeed":20.372,"visibility":6.21,"altim":30.059055,"qualityControlFlag":"TRUE","skyCondition1a":"FEW","skyCondition1b":1600,"skyCondition2a":"SCT","skyCondition2b":3000,"flightCategory":"VFR","metarType":"METAR","geometry_esri":{"x":47.78,"y":13.02,"z":430}}}