{"type":"Feature","geometry":{"type":"Point","coordinates":[47.78,13.02,430]},"properties":{"stationId":"LOWS","rawText":"LOWS 221850Z 15002KT 9999 SCT100 BKN150 15/12 Q1012 NOSIG","observationTime":"2019-09-22T18:50:00Z","temp":15,"dewpoint":12,"windDirection":150,"windSpeed":3.704,"visibility":6.21,"altim":29.88189,"qualityControlFlag":"TRUE","skyCondition1a":"SCT","skyCondition1b":10000,"skyCondition2a":"BKN","skyCondition2b":15000,"flightCategory":"VFR","metarType":"METAR","geometry_esri":{"x":47.78,"y":13.02,"z":430}}}