{"type":"Feature","geometry":{"type":"Point","coordinates":[47.78,13.02,427]},"properties":{"stationId":"LOWS","rawText":"LOWS 141750Z 32009KT 9999 FEW034 SCT040 BKN050 08/05 Q1011 NOSIG","observationTime":"2020-10-14T17:50:00Z","temp":8,"dewpoint":5,"windDirection":320,"windSpeed":16.668,"visibility":6.21,"altim":29.852362,"qualityControlFlag":"TRUE","skyCondition1a":"FEW","skyCondition1b":3400,"skyCondition2a":"SCT","skyCondition2b":4000,"flightCategory":"VFR","metarType":"METAR","geometry_esri":{"x":47.78,"y":13.02,"z":427}}}