{"type":"Feature","geometry":{"type":"Point","coordinates":[47.78,13.02,430]},"properties":{"stationId":"LOWS","rawText":"LOWS 281450Z 19007KT 9999 -SHRA FEW012 SCT036 BKN050 09/06 Q1006 NOSIG","observationTime":"2018-03-28T14:50:00Z","temp":9,"dewpoint":6,"windDirection":190,"windSpeed":12.964,"visibility":6.21,"altim":29.704725,"qualityControlFlag":"TRUE","skyCondition1a":"FEW","skyCondition1b":1200,"skyCondition2a":"SCT","skyCondition2b":3600,"flightCategory":"VFR","metarType":"METAR","geometry_esri":{"x":47.78,"y":13.02,"z":430}}}