{"type":"Feature","geometry":{"type":"Point","coordinates":[47.78,13.02,430]},"properties":{"stationId":"LOWS","rawText":"LOWS 041450Z 28006KT 230V310 9999 SCT050 BKN080 06/M04 Q1013 NOSIG","observationTime":"2020-03-04T14:50:00Z","temp":6,"dewpoint":-4,"windDirection":280,"windSpeed":11.112,"visibility":6.21,"altim":29.911417,"qualityControlFlag":"TRUE","skyCondition1a":"SCT","skyCondition1b":5000,"skyCondition2a":"BKN","skyCondition2b":8000,"flightCategory":"VFR","metarType":"METAR","geometry_esri":{"x":47.78,"y":13.02,"z":430}}}