{"type":"Feature","geometry":{"type":"Point","coordinates":[47.78,13.02,430]},"properties":{"stationId":"LOWS","rawText":"LOWS 280450Z 17003KT 9999 FEW006 SCT140 BKN300 M04/M04 Q1026 NOSIG","observationTime":"2018-12-28T04:50:00Z","temp":-4,"dewpoint":-4,"windDirection":170,"windSpeed":5.556,"visibility":6.21,"altim":30.295275,"qualityControlFlag":"TRUE","skyCondition1a":"FEW","skyCondition1b":600,"skyCondition2a":"SCT","skyCondition2b":14000,"flightCategory":"VFR","metarType":"METAR","geometry_esri":{"x":47.78,"y":13.02,"z":430}}}