{"type":"Feature","geometry":{"type":"Point","coordinates":[47.78,13.02,430]},"properties":{"stationId":"LOWS","rawText":"LOWS 210550Z 13004KT 100V160 9999 FEW007 BKN060 06/06 Q0997 NOSIG","observationTime":"2019-12-21T05:50:00Z","temp":6,"dewpoint":6,"windDirection":130,"windSpeed":7.408,"visibility":6.21,"altim":29.438976,"qualityControlFlag":"TRUE","skyCondition1a":"FEW","skyCondition1b":700,"skyCondition2a":"BKN","skyCondition2b":6000,"flightCategory":"VFR","metarType":"METAR","geometry_esri":{"x":47.78,"y":13.02,"z":430}}}