{"type":"Feature","geometry":{"type":"Point","coordinates":[47.78,13.02,430]},"properties":{"stationId":"LOWS","rawText":"LOWS 030450Z 13006KT 9999 FEW080 SCT100 BKN150 09/02 Q1009 NOSIG","observationTime":"2018-04-03T04:50:00Z","temp":9,"dewpoint":2,"windDirection":130,"windSpeed":11.112,"visibility":6.21,"altim":29.793306,"qualityControlFlag":"TRUE","skyCondition1a":"FEW","skyCondition1b":8000,"skyCondition2a":"SCT","skyCondition2b":10000,"flightCategory":"VFR","metarType":"METAR","geometry_esri":{"x":47.78,"y":13.02,"z":430}}}