{"type":"Feature","geometry":{"type":"Point","coordinates":[47.78,13.02,430]},"properties":{"stationId":"LOWS","rawText":"LOWS 011450Z 35006KT 310V030 9999 FEW035 BKN060 23/12 Q1018 NOSIG","observationTime":"2018-06-01T14:50:00Z","temp":23,"dewpoint":12,"windDirection":350,"windSpeed":11.112,"visibility":6.21,"altim":30.059055,"qualityControlFlag":"TRUE","skyCondition1a":"FEW","skyCondition1b":3500,"skyCondition2a":"BKN","skyCondition2b":6000,"flightCategory":"VFR","metarType":"METAR","geometry_esri":{"x":47.78,"y":13.02,"z":430}}}