{"type":"Feature","geometry":{"type":"Point","coordinates":[47.78,13.02,430]},"properties":{"stationId":"LOWS","rawText":"LOWS 240850Z 04003KT 010V090 9999 FEW014 BKN090 05/02 Q1015 NOSIG","observationTime":"2018-11-24T08:50:00Z","temp":5,"dewpoint":2,"windDirection":40,"windSpeed":5.556,"visibility":6.21,"altim":29.970472,"qualityControlFlag":"TRUE","skyCondition1a":"FEW","skyCondition1b":1400,"skyCondition2a":"BKN","skyCondition2b":9000,"flightCategory":"VFR","metarType":"METAR","geometry_esri":{"x":47.78,"y":13.02,"z":430}}}