{"type":"Feature","geometry":{"type":"Point","coordinates":[47.78,13.02,430]},"properties":{"stationId":"LOWS","rawText":"LOWS 221650Z 17005KT 9999 -SHRA FEW006 SCT030 BKN040 17/16 Q1015 NOSIG","observationTime":"2018-07-22T16:50:00Z","temp":17,"dewpoint":16,"windDirection":170,"windSpeed":9.26,"visibility":6.21,"altim":29.970472,"qualityControlFlag":"TRUE","skyCondition1a":"FEW","skyCondition1b":600,"skyCondition2a":"SCT","skyCondition2b":3000,"flightCategory":"VFR","metarType":"METAR","geometry_esri":{"x":47.78,"y":13.02,"z":430}}}