{"type":"Feature","geometry":{"type":"Point","coordinates":[47.78,13.02,430]},"properties":{"stationId":"LOWS","rawText":"LOWS 111150Z 29015G25KT 250V320 9999 FEW038 BKN050 15/06 Q1018 NOSIG","observationTime":"2020-03-11T11:50:00Z","temp":15,"dewpoint":6,"windDirection":290,"windSpeed":27.78,"visibility":6.21,"altim":30.059055,"qualityControlFlag":"TRUE","skyCondition1a":"FEW","skyCondition1b":3800,"skyCondition2a":"BKN","skyCondition2b":5000,"flightCategory":"VFR","metarType":"METAR","geometry_esri":{"x":47.78,"y":13.02,"z":430}}}