{"type":"Feature","geometry":{"type":"Point","coordinates":[47.78,13.02,430]},"properties":{"stationId":"LOWS","rawText":"LOWS 251550Z 28010KT 230V310 9999 FEW006 SCT014 BKN027 05/03 Q1019 NOSIG","observationTime":"2019-12-25T15:50:00Z","temp":5,"dewpoint":3,"windDirection":280,"windSpeed":18.52,"visibility":6.21,"altim":30.088583,"qualityControlFlag":"TRUE","skyCondition1a":"FEW","skyCondition1b":600,"skyCondition2a":"SCT","skyCondition2b":1400,"flightCategory":"MVFR","metarType":"METAR","geometry_esri":{"x":47.78,"y":13.02,"z":430}}}