{"type":"Feature","geometry":{"type":"Point","coordinates":[47.78,13.02,430]},"properties":{"stationId":"LOWS","rawText":"LOWS 290950Z 19006KT 9999 VCSH FEW004 SCT026 BKN038 M01/M02 Q1009 RESN R15/99 NOSIG","observationTime":"2019-01-29T09:50:00Z","temp":-1,"dewpoint":-2,"windDirection":190,"windSpeed":11.112,"visibility":6.21,"altim":29.793306,"qualityControlFlag":"TRUE","skyCondition1a":"FEW","skyCondition1b":400,"skyCondition2a":"SCT","skyCondition2b":2600,"flightCategory":"VFR","metarType":"METAR","geometry_esri":{"x":47.78,"y":13.02,"z":430}}}