{"type":"Feature","geometry":{"type":"Point","coordinates":[47.78,13.02,427]},"properties":{"stationId":"LOWS","rawText":"LOWS 302050Z 18004KT 9999 FEW036 BKN040 01/00 Q1008 R15/19//95 NOSIG","observationTime":"2020-12-30T20:50:00Z","temp":1,"dewpoint":0,"windDirection":180,"windSpeed":7.408,"visibility":6.21,"altim":29.763779,"qualityControlFlag":"TRUE","skyCondition1a":"FEW","skyCondition1b":3600,"skyCondition2a":"BKN","skyCondition2b":4000,"flightCategory":"VFR","metarType":"SPECI","geometry_esri":{"x":47.78,"y":13.02,"z":427}}}