{"type":"Feature","geometry":{"type":"Point","coordinates":[47.78,13.02,427]},"properties":{"stationId":"LOWS","rawText":"LOWS 260650Z 30006KT 9999 FEW024 BKN050 M00/M05 Q1024 NOSIG","observationTime":"2020-12-26T06:50:00Z","temp":0,"dewpoint":-5,"windDirection":300,"windSpeed":11.112,"visibility":6.21,"altim":30.236221,"qualityControlFlag":"TRUE","skyCondition1a":"FEW","skyCondition1b":2400,"skyCondition2a":"BKN","skyCondition2b":5000,"flightCategory":"VFR","metarType":"METAR","geometry_esri":{"x":47.78,"y":13.02,"z":427}}}