{"type":"Feature","geometry":{"type":"Point","coordinates":[47.78,13.02,430]},"properties":{"stationId":"LOWS","rawText":"LOWS 020450Z VRB01KT 9999 FEW004 BKN039 12/11 Q1021 NOSIG","observationTime":"2018-09-02T04:50:00Z","temp":12,"dewpoint":11,"windDirection":0,"windSpeed":1.852,"visibility":6.21,"altim":30.147638,"qualityControlFlag":"TRUE","skyCondition1a":"FEW","skyCondition1b":400,"skyCondition2a":"BKN","skyCondition2b":3900,"flightCategory":"VFR","metarType":"METAR","geometry_esri":{"x":47.78,"y":13.02,"z":430}}}