{"type":"Feature","geometry":{"type":"Point","coordinates":[47.78,13.02,430]},"properties":{"stationId":"LOWS","rawText":"LOWS 121550Z VRB02KT 9999 -SHRA FEW008 SCT044 BKN090 20/17 Q1008 NOSIG","observationTime":"2018-06-12T15:50:00Z","temp":20,"dewpoint":17,"windDirection":0,"windSpeed":3.704,"visibility":6.21,"altim":29.763779,"qualityControlFlag":"TRUE","skyCondition1a":"FEW","skyCondition1b":800,"skyCondition2a":"SCT","skyCondition2b":4400,"flightCategory":"VFR","metarType":"METAR","geometry_esri":{"x":47.78,"y":13.02,"z":430}}}