{"type":"Feature","geometry":{"type":"Point","coordinates":[47.78,13.02,427]},"properties":{"stationId":"LOWS","rawText":"LOWS 100550Z 03002KT 8000 -RADZ FEW006 SCT009 BKN012 01/00 Q1007 NOSIG","observationTime":"2020-12-10T05:50:00Z","temp":1,"dewpoint":0,"windDirection":30,"windSpeed":3.704,"visibility":4.97,"altim":29.734253,"qualityControlFlag":"TRUE","skyCondition1a":"FEW","skyCondition1b":600,"skyCondition2a":"SCT","skyCondition2b":900,"flightCategory":"MVFR","metarType":"METAR","geometry_esri":{"x":47.78,"y":13.02,"z":427}}}