{"type":"Feature","geometry":{"type":"Point","coordinates":[47.78,13.02,430]},"properties":{"stationId":"LOWS","rawText":"LOWS 261820Z 28009KT 240V310 9999 FEW050 BKN060 03/M06 Q1005 R15/2///95 NOSIG","observationTime":"2020-02-26T18:20:00Z","temp":3,"dewpoint":-6,"windDirection":280,"windSpeed":16.668,"visibility":6.21,"altim":29.675198,"qualityControlFlag":"TRUE","skyCondition1a":"FEW","skyCondition1b":5000,"skyCondition2a":"BKN","skyCondition2b":6000,"flightCategory":"VFR","metarType":"SPECI","geometry_esri":{"x":47.78,"y":13.02,"z":430}}}