{"type":"Feature","geometry":{"type":"Point","coordinates":[47.78,13.02,427]},"properties":{"stationId":"LOWS","rawText":"LOWS 080450Z 16007KT 9999 FEW030 SCT036 BKN050 09/08 Q1024 NOSIG","observationTime":"2020-10-08T04:50:00Z","temp":9,"dewpoint":8,"windDirection":160,"windSpeed":12.964,"visibility":6.21,"altim":30.236221,"qualityControlFlag":"TRUE","skyCondition1a":"FEW","skyCondition1b":3000,"skyCondition2a":"SCT","skyCondition2b":3600,"flightCategory":"VFR","metarType":"METAR","geometry_esri":{"x":47.78,"y":13.02,"z":427}}}