{"type":"Feature","geometry":{"type":"Point","coordinates":[47.78,13.02,430]},"properties":{"stationId":"LOWS","rawText":"LOWS 150850Z 01002KT 4000 -SN BR FEW007 BKN014 BKN035 M03/M05 Q1025 R15/420195 NOSIG","observationTime":"2018-12-15T08:50:00Z","temp":-3,"dewpoint":-5,"windDirection":10,"windSpeed":3.704,"visibility":2.49,"altim":30.265747,"qualityControlFlag":"TRUE","skyCondition1a":"FEW","skyCondition1b":700,"skyCondition2a":"BKN","skyCondition2b":1400,"flightCategory":"IFR","metarType":"METAR","geometry_esri":{"x":47.78,"y":13.02,"z":430}}}