{"type":"Feature","geometry":{"type":"Point","coordinates":[47.78,13.02,430]},"properties":{"stationId":"LOWS","rawText":"LOWS 021250Z 15006KT 090V190 9999 FEW040 SCT300 14/M00 Q1011 NOSIG","observationTime":"2018-04-02T12:50:00Z","temp":14,"dewpoint":0,"windDirection":150,"windSpeed":11.112,"visibility":6.21,"altim":29.852362,"qualityControlFlag":"TRUE","skyCondition1a":"FEW","skyCondition1b":4000,"skyCondition2a":"SCT","skyCondition2b":30000,"flightCategory":"VFR","metarType":"METAR","geometry_esri":{"x":47.78,"y":13.02,"z":430}}}