{"type":"Feature","geometry":{"type":"Point","coordinates":[47.78,13.02,430]},"properties":{"stationId":"LOWS","rawText":"LOWS 281450Z 28009KT 250V320 9999 FEW035 SCT065 04/M05 Q0998 NOSIG","observationTime":"2019-01-28T14:50:00Z","temp":4,"dewpoint":-5,"windDirection":280,"windSpeed":16.668,"visibility":6.21,"altim":29.468504,"qualityControlFlag":"TRUE","skyCondition1a":"FEW","skyCondition1b":3500,"skyCondition2a":"SCT","skyCondition2b":6500,"flightCategory":"VFR","metarType":"METAR","geometry_esri":{"x":47.78,"y":13.02,"z":430}}}