{"type":"Feature","geometry":{"type":"Point","coordinates":[47.78,13.02,430]},"properties":{"stationId":"LOWS","rawText":"LOWS 011050Z 15004KT 120V180 9999 FEW009 BKN040 05/03 Q1019 NOSIG","observationTime":"2018-12-01T10:50:00Z","temp":5,"dewpoint":3,"windDirection":150,"windSpeed":7.408,"visibility":6.21,"altim":30.088583,"qualityControlFlag":"TRUE","skyCondition1a":"FEW","skyCondition1b":900,"skyCondition2a":"BKN","skyCondition2b":4000,"flightCategory":"VFR","metarType":"METAR","geometry_esri":{"x":47.78,"y":13.02,"z":430}}}