{"type":"Feature","geometry":{"type":"Point","coordinates":[47.78,13.02,430]},"properties":{"stationId":"LOWS","rawText":"LOWS 291720Z 14012KT 9999 FEW090 SCT120 11/M00 Q1000 NOSIG","observationTime":"2020-02-29T17:20:00Z","temp":11,"dewpoint":0,"windDirection":140,"windSpeed":22.224,"visibility":6.21,"altim":29.52756,"qualityControlFlag":"TRUE","skyCondition1a":"FEW","skyCondition1b":9000,"skyCondition2a":"SCT","skyCondition2b":12000,"flightCategory":"VFR","metarType":"METAR","geometry_esri":{"x":47.78,"y":13.02,"z":430}}}