{"type":"Feature","geometry":{"type":"Point","coordinates":[47.78,13.02,430]},"properties":{"stationId":"LOWS","rawText":"LOWS 061650Z 20002KT 3200 BR FEW005 SCT010 BKN014 04/02 Q0991 NOSIG","observationTime":"2018-03-06T16:50:00Z","temp":4,"dewpoint":2,"windDirection":200,"windSpeed":3.704,"visibility":1.99,"altim":29.26181,"qualityControlFlag":"TRUE","skyCondition1a":"FEW","skyCondition1b":500,"skyCondition2a":"SCT","skyCondition2b":1000,"flightCategory":"IFR","metarType":"METAR","geometry_esri":{"x":47.78,"y":13.02,"z":430}}}