{"type":"Feature","geometry":{"type":"Point","coordinates":[47.78,13.02,430]},"properties":{"stationId":"LOWS","rawText":"LOWS 021050Z 17007KT 9999 FEW015 SCT038 BKN050 14/11 Q1008 WS ALL RWY NOSIG","observationTime":"2019-10-02T10:50:00Z","temp":14,"dewpoint":11,"windDirection":170,"windSpeed":12.964,"visibility":6.21,"altim":29.763779,"qualityControlFlag":"TRUE","skyCondition1a":"FEW","skyCondition1b":1500,"skyCondition2a":"SCT","skyCondition2b":3800,"flightCategory":"VFR","metarType":"METAR","geometry_esri":{"x":47.78,"y":13.02,"z":430}}}