{"type":"Feature","geometry":{"type":"Point","coordinates":[47.78,13.02,430]},"properties":{"stationId":"LOWS","rawText":"LOWS 031150Z 15005KT 060V200 9999 FEW075 SCT090 BKN300 13/02 Q1016 NOSIG","observationTime":"2019-03-03T11:50:00Z","temp":13,"dewpoint":2,"windDirection":150,"windSpeed":9.26,"visibility":6.21,"altim":30,"qualityControlFlag":"TRUE","skyCondition1a":"FEW","skyCondition1b":7500,"skyCondition2a":"SCT","skyCondition2b":9000,"flightCategory":"VFR","metarType":"METAR","geometry_esri":{"x":47.78,"y":13.02,"z":430}}}