{"type":"Feature","geometry":{"type":"Point","coordinates":[47.78,13.02,430]},"properties":{"stationId":"LOWS","rawText":"LOWS 162050Z 03002KT 8000 FEW008 BKN009 04/03 Q1012 NOSIG","observationTime":"2019-11-16T20:50:00Z","temp":4,"dewpoint":3,"windDirection":30,"windSpeed":3.704,"visibility":4.97,"altim":29.88189,"qualityControlFlag":"TRUE","skyCondition1a":"FEW","skyCondition1b":800,"skyCondition2a":"BKN","skyCondition2b":900,"flightCategory":"IFR","metarType":"METAR","geometry_esri":{"x":47.78,"y":13.02,"z":430}}}