{"type":"Feature","geometry":{"type":"Point","coordinates":[47.78,13.02,430]},"properties":{"stationId":"LOWS","rawText":"LOWS 281150Z 18003KT 150V210 9999 FEW005 BKN012 06/05 Q1002 NOSIG","observationTime":"2018-10-28T11:50:00Z","temp":6,"dewpoint":5,"windDirection":180,"windSpeed":5.556,"visibility":6.21,"altim":29.586615,"qualityControlFlag":"TRUE","skyCondition1a":"FEW","skyCondition1b":500,"skyCondition2a":"BKN","skyCondition2b":1200,"flightCategory":"MVFR","metarType":"METAR","geometry_esri":{"x":47.78,"y":13.02,"z":430}}}