{"type":"Feature","geometry":{"type":"Point","coordinates":[47.78,13.02,430]},"properties":{"stationId":"LOWS","rawText":"LOWS 071850Z VRB01KT 9999 FEW035 SCT040 BKN090 01/M02 Q1017 NOSIG","observationTime":"2019-02-07T18:50:00Z","temp":1,"dewpoint":-2,"windDirection":0,"windSpeed":1.852,"visibility":6.21,"altim":30.029528,"qualityControlFlag":"TRUE","skyCondition1a":"FEW","skyCondition1b":3500,"skyCondition2a":"SCT","skyCondition2b":4000,"flightCategory":"VFR","metarType":"METAR","geometry_esri":{"x":47.78,"y":13.02,"z":430}}}