{"type":"Feature","geometry":{"type":"Point","coordinates":[47.78,13.02,430]},"properties":{"stationId":"LOWS","rawText":"LOWS 071250Z 15006KT 9999 FEW070 BKN110 12/06 Q1013 NOSIG","observationTime":"2018-12-07T12:50:00Z","temp":12,"dewpoint":6,"windDirection":150,"windSpeed":11.112,"visibility":6.21,"altim":29.911417,"qualityControlFlag":"TRUE","skyCondition1a":"FEW","skyCondition1b":7000,"skyCondition2a":"BKN","skyCondition2b":11000,"flightCategory":"VFR","metarType":"METAR","geometry_esri":{"x":47.78,"y":13.02,"z":430}}}