{"type":"Feature","geometry":{"type":"Point","coordinates":[47.78,13.02,430]},"properties":{"stationId":"LOWS","rawText":"LOWS 081050Z 31006KT 270V350 9999 FEW006 SCT010 BKN040 12/10 Q1014 NOSIG","observationTime":"2020-06-08T10:50:00Z","temp":12,"dewpoint":10,"windDirection":310,"windSpeed":11.112,"visibility":6.21,"altim":29.940945,"qualityControlFlag":"TRUE","skyCondition1a":"FEW","skyCondition1b":600,"skyCondition2a":"SCT","skyCondition2b":1000,"flightCategory":"VFR","metarType":"METAR","geometry_esri":{"x":47.78,"y":13.02,"z":430}}}