{"type":"Feature","geometry":{"type":"Point","coordinates":[47.78,13.02,430]},"properties":{"stationId":"LOWS","rawText":"LOWS 281850Z 25006KT 220V290 9999 SCT060 BKN160 04/M02 Q1005 NOSIG","observationTime":"2020-01-28T18:50:00Z","temp":4,"dewpoint":-2,"windDirection":250,"windSpeed":11.112,"visibility":6.21,"altim":29.675198,"qualityControlFlag":"TRUE","skyCondition1a":"SCT","skyCondition1b":6000,"skyCondition2a":"BKN","skyCondition2b":16000,"flightCategory":"VFR","metarType":"METAR","geometry_esri":{"x":47.78,"y":13.02,"z":430}}}