{"type":"Feature","geometry":{"type":"Point","coordinates":[47.78,13.02,430]},"properties":{"stationId":"LOWS","rawText":"LOWS 201650Z 01006KT 9999 FEW070 SCT150 28/11 Q1012 NOSIG","observationTime":"2018-07-20T16:50:00Z","temp":28,"dewpoint":11,"windDirection":10,"windSpeed":11.112,"visibility":6.21,"altim":29.88189,"qualityControlFlag":"TRUE","skyCondition1a":"FEW","skyCondition1b":7000,"skyCondition2a":"SCT","skyCondition2b":15000,"flightCategory":"VFR","metarType":"METAR","geometry_esri":{"x":47.78,"y":13.02,"z":430}}}