{"type":"Feature","geometry":{"type":"Point","coordinates":[47.78,13.02,427]},"properties":{"stationId":"LOWS","rawText":"LOWS 260550Z 28008KT 210V330 9999 -RA FEW011 SCT020 BKN026 06/05 Q0999 NOSIG","observationTime":"2020-09-26T05:50:00Z","temp":6,"dewpoint":5,"windDirection":280,"windSpeed":14.816,"visibility":6.21,"altim":29.498032,"qualityControlFlag":"TRUE","skyCondition1a":"FEW","skyCondition1b":1100,"skyCondition2a":"SCT","skyCondition2b":2000,"flightCategory":"MVFR","metarType":"METAR","geometry_esri":{"x":47.78,"y":13.02,"z":427}}}