{"type":"Feature","geometry":{"type":"Point","coordinates":[47.78,13.02,430]},"properties":{"stationId":"LOWS","rawText":"LOWS 101650Z 14010KT 110V170 9999 SCT050 FEW050CB BKN100 17/12 Q1012 NOSIG","observationTime":"2018-05-10T16:50:00Z","temp":17,"dewpoint":12,"windDirection":140,"windSpeed":18.52,"visibility":6.21,"altim":29.88189,"qualityControlFlag":"TRUE","skyCondition1a":"SCT","skyCondition1b":5000,"skyCondition2a":"FEW","skyCondition2b":5000,"flightCategory":"VFR","metarType":"METAR","geometry_esri":{"x":47.78,"y":13.02,"z":430}}}