{"type":"Feature","geometry":{"type":"Point","coordinates":[47.78,13.02,427]},"properties":{"stationId":"LOWS","rawText":"LOWS 311250Z 32004KT 290V350 9999 FEW008 BKN011 M00/M01 Q1002 NOSIG","observationTime":"2021-01-31T12:50:00Z","temp":0,"dewpoint":-1,"windDirection":320,"windSpeed":7.408,"visibility":6.21,"altim":29.586615,"qualityControlFlag":"TRUE","skyCondition1a":"FEW","skyCondition1b":800,"skyCondition2a":"BKN","skyCondition2b":1100,"flightCategory":"MVFR","metarType":"METAR","geometry_esri":{"x":47.78,"y":13.02,"z":427}}}