{"type":"Feature","geometry":{"type":"Point","coordinates":[47.78,13.02,430]},"properties":{"stationId":"LOWS","rawText":"LOWS 141520Z 15011KT 9999 FEW100 SCT250 23/05 Q1013 NOSIG","observationTime":"2018-10-14T15:20:00Z","temp":23,"dewpoint":5,"windDirection":150,"windSpeed":20.372,"visibility":6.21,"altim":29.911417,"qualityControlFlag":"TRUE","skyCondition1a":"FEW","skyCondition1b":10000,"skyCondition2a":"SCT","skyCondition2b":25000,"flightCategory":"VFR","metarType":"METAR","geometry_esri":{"x":47.78,"y":13.02,"z":430}}}