{"type":"Feature","geometry":{"type":"Point","coordinates":[47.78,13.02,427]},"properties":{"stationId":"LOWS","rawText":"LOWS 241450Z 19003KT 160V230 9999 FEW006 SCT010 BKN030 12/11 Q1019 NOSIG","observationTime":"2020-10-24T14:50:00Z","temp":12,"dewpoint":11,"windDirection":190,"windSpeed":5.556,"visibility":6.21,"altim":30.088583,"qualityControlFlag":"TRUE","skyCondition1a":"FEW","skyCondition1b":600,"skyCondition2a":"SCT","skyCondition2b":1000,"flightCategory":"MVFR","metarType":"METAR","geometry_esri":{"x":47.78,"y":13.02,"z":427}}}