{"type":"Feature","geometry":{"type":"Point","coordinates":[47.78,13.02,430]},"properties":{"stationId":"LOWS","rawText":"LOWS 030850Z 27013KT 220V300 9999 -RA FEW010 BKN026 BKN040 04/00 Q1002 NOSIG","observationTime":"2020-03-03T08:50:00Z","temp":4,"dewpoint":0,"windDirection":270,"windSpeed":24.076,"visibility":6.21,"altim":29.586615,"qualityControlFlag":"TRUE","skyCondition1a":"FEW","skyCondition1b":1000,"skyCondition2a":"BKN","skyCondition2b":2600,"flightCategory":"MVFR","metarType":"METAR","geometry_esri":{"x":47.78,"y":13.02,"z":430}}}