{"type":"Feature","geometry":{"type":"Point","coordinates":[47.78,13.02,430]},"properties":{"stationId":"LOWS","rawText":"LOWS 061750Z 17005KT 3000 BR FEW005 SCT011 BKN014 03/02 Q0992 NOSIG","observationTime":"2018-03-06T17:50:00Z","temp":3,"dewpoint":2,"windDirection":170,"windSpeed":9.26,"visibility":1.86,"altim":29.291338,"qualityControlFlag":"TRUE","skyCondition1a":"FEW","skyCondition1b":500,"skyCondition2a":"SCT","skyCondition2b":1100,"flightCategory":"IFR","metarType":"METAR","geometry_esri":{"x":47.78,"y":13.02,"z":430}}}