{"type":"Feature","geometry":{"type":"Point","coordinates":[47.78,13.02,430]},"properties":{"stationId":"LOWS","rawText":"LOWS 070650Z 35003KT 320V020 9999 FEW015 SCT025 BKN050 18/15 Q1022 NOSIG","observationTime":"2018-07-07T06:50:00Z","temp":18,"dewpoint":15,"windDirection":350,"windSpeed":5.556,"visibility":6.21,"altim":30.177166,"qualityControlFlag":"TRUE","skyCondition1a":"FEW","skyCondition1b":1500,"skyCondition2a":"SCT","skyCondition2b":2500,"flightCategory":"VFR","metarType":"METAR","geometry_esri":{"x":47.78,"y":13.02,"z":430}}}