{"type":"Feature","geometry":{"type":"Point","coordinates":[47.78,13.02,430]},"properties":{"stationId":"LOWS","rawText":"LOWS 281350Z 01006KT 320V050 9999 FEW060 FEW060CB 30/11 Q1015 NOSIG","observationTime":"2018-05-28T13:50:00Z","temp":30,"dewpoint":11,"windDirection":10,"windSpeed":11.112,"visibility":6.21,"altim":29.970472,"qualityControlFlag":"TRUE","skyCondition1a":"FEW","skyCondition1b":6000,"skyCondition2a":"FEW","skyCondition2b":6000,"flightCategory":"VFR","metarType":"METAR","geometry_esri":{"x":47.78,"y":13.02,"z":430}}}