{"type":"Feature","geometry":{"type":"Point","coordinates":[47.78,13.02,430]},"properties":{"stationId":"LOWS","rawText":"LOWS 171750Z 06013KT 9999 FEW014 BKN017 02/M01 Q0995 WS ALL RWY NOSIG","observationTime":"2018-03-17T17:50:00Z","temp":2,"dewpoint":-1,"windDirection":60,"windSpeed":24.076,"visibility":6.21,"altim":29.379921,"qualityControlFlag":"TRUE","skyCondition1a":"FEW","skyCondition1b":1400,"skyCondition2a":"BKN","skyCondition2b":1700,"flightCategory":"MVFR","metarType":"METAR","geometry_esri":{"x":47.78,"y":13.02,"z":430}}}