{"type":"Feature","geometry":{"type":"Point","coordinates":[47.78,13.02,430]},"properties":{"stationId":"LOWS","rawText":"LOWS 260550Z 14005KT 110V180 9999 VCSH FEW005 SCT043 BKN048 12/11 Q1015 NOSIG","observationTime":"2019-09-26T05:50:00Z","temp":12,"dewpoint":11,"windDirection":140,"windSpeed":9.26,"visibility":6.21,"altim":29.970472,"qualityControlFlag":"TRUE","skyCondition1a":"FEW","skyCondition1b":500,"skyCondition2a":"SCT","skyCondition2b":4300,"flightCategory":"VFR","metarType":"METAR","geometry_esri":{"x":47.78,"y":13.02,"z":430}}}