{"type":"Feature","geometry":{"type":"Point","coordinates":[47.78,13.02,430]},"properties":{"stationId":"LOWS","rawText":"LOWS 070950Z 15008KT 110V180 9999 FEW050 BKN150 10/05 Q1017 NOSIG","observationTime":"2018-12-07T09:50:00Z","temp":10,"dewpoint":5,"windDirection":150,"windSpeed":14.816,"visibility":6.21,"altim":30.029528,"qualityControlFlag":"TRUE","skyCondition1a":"FEW","skyCondition1b":5000,"skyCondition2a":"BKN","skyCondition2b":15000,"flightCategory":"VFR","metarType":"METAR","geometry_esri":{"x":47.78,"y":13.02,"z":430}}}