{"type":"Feature","geometry":{"type":"Point","coordinates":[47.78,13.02,430]},"properties":{"stationId":"LOWS","rawText":"LOWS 041550Z 01003KT 340V040 9999 FEW020 SCT035 BKN100 18/15 Q1017 NOSIG","observationTime":"2018-09-04T15:50:00Z","temp":18,"dewpoint":15,"windDirection":10,"windSpeed":5.556,"visibility":6.21,"altim":30.029528,"qualityControlFlag":"TRUE","skyCondition1a":"FEW","skyCondition1b":2000,"skyCondition2a":"SCT","skyCondition2b":3500,"flightCategory":"VFR","metarType":"METAR","geometry_esri":{"x":47.78,"y":13.02,"z":430}}}