{"type":"Feature","geometry":{"type":"Point","coordinates":[47.78,13.02,430]},"properties":{"stationId":"LOWS","rawText":"LOWS 011950Z 16007KT 9999 FEW040 BKN100 18/16 Q1013 NOSIG","observationTime":"2020-07-01T19:50:00Z","temp":18,"dewpoint":16,"windDirection":160,"windSpeed":12.964,"visibility":6.21,"altim":29.911417,"qualityControlFlag":"TRUE","skyCondition1a":"FEW","skyCondition1b":4000,"skyCondition2a":"BKN","skyCondition2b":10000,"flightCategory":"VFR","metarType":"METAR","geometry_esri":{"x":47.78,"y":13.02,"z":430}}}