{"type":"Feature","geometry":{"type":"Point","coordinates":[47.78,13.02,430]},"properties":{"stationId":"LOWS","rawText":"LOWS 171220Z 02008KT 330V050 9999 FEW038 BKN044 23/14 Q1009 NOSIG","observationTime":"2020-06-17T12:20:00Z","temp":23,"dewpoint":14,"windDirection":20,"windSpeed":14.816,"visibility":6.21,"altim":29.793306,"qualityControlFlag":"TRUE","skyCondition1a":"FEW","skyCondition1b":3800,"skyCondition2a":"BKN","skyCondition2b":4400,"flightCategory":"VFR","metarType":"METAR","geometry_esri":{"x":47.78,"y":13.02,"z":430}}}