{"type":"Feature","geometry":{"type":"Point","coordinates":[47.78,13.02,430]},"properties":{"stationId":"LOWS","rawText":"LOWS 281350Z 16007KT 9999 -SHRA FEW036 BKN044 10/06 Q1006 NOSIG","observationTime":"2018-03-28T13:50:00Z","temp":10,"dewpoint":6,"windDirection":160,"windSpeed":12.964,"visibility":6.21,"altim":29.704725,"qualityControlFlag":"TRUE","skyCondition1a":"FEW","skyCondition1b":3600,"skyCondition2a":"BKN","skyCondition2b":4400,"flightCategory":"VFR","metarType":"METAR","geometry_esri":{"x":47.78,"y":13.02,"z":430}}}