{"type":"Feature","geometry":{"type":"Point","coordinates":[47.78,13.02,427]},"properties":{"stationId":"LOWS","rawText":"LOWS 020950Z 20003KT 130V240 9999 FEW110 BKN130 16/12 Q0997 NOSIG","observationTime":"2020-10-02T09:50:00Z","temp":16,"dewpoint":12,"windDirection":200,"windSpeed":5.556,"visibility":6.21,"altim":29.438976,"qualityControlFlag":"TRUE","skyCondition1a":"FEW","skyCondition1b":11000,"skyCondition2a":"BKN","skyCondition2b":13000,"flightCategory":"VFR","metarType":"METAR","geometry_esri":{"x":47.78,"y":13.02,"z":427}}}