{"type":"Feature","geometry":{"type":"Point","coordinates":[47.78,13.02,427]},"properties":{"stationId":"LOWS","rawText":"LOWS 231150Z 31006KT 270V360 9999 FEW030 SCT060 BKN090 22/14 Q1019 NOSIG","observationTime":"2020-08-23T11:50:00Z","temp":22,"dewpoint":14,"windDirection":310,"windSpeed":11.112,"visibility":6.21,"altim":30.088583,"qualityControlFlag":"TRUE","skyCondition1a":"FEW","skyCondition1b":3000,"skyCondition2a":"SCT","skyCondition2b":6000,"flightCategory":"VFR","metarType":"METAR","geometry_esri":{"x":47.78,"y":13.02,"z":427}}}