{"type":"Feature","geometry":{"type":"Point","coordinates":[47.78,13.02,430]},"properties":{"stationId":"LOWS","rawText":"LOWS 111950Z 16006KT 130V210 9999 FEW050 FEW060CB SCT080 BKN140 23/16 Q1006 NOSIG","observationTime":"2018-06-11T19:50:00Z","temp":23,"dewpoint":16,"windDirection":160,"windSpeed":11.112,"visibility":6.21,"altim":29.704725,"qualityControlFlag":"TRUE","skyCondition1a":"FEW","skyCondition1b":5000,"skyCondition2a":"FEW","skyCondition2b":6000,"flightCategory":"VFR","metarType":"METAR","geometry_esri":{"x":47.78,"y":13.02,"z":430}}}