{"type":"Feature","geometry":{"type":"Point","coordinates":[47.78,13.02,427]},"properties":{"stationId":"LOWS","rawText":"LOWS 191750Z 20003KT 0500 R15/0700N R33/0500N FZFG FEW001 BKN002 M01/M01 Q1023 NOSIG","observationTime":"2020-12-19T17:50:00Z","temp":-1,"dewpoint":-1,"windDirection":200,"windSpeed":5.556,"visibility":0.31,"altim":30.206694,"qualityControlFlag":"TRUE","skyCondition1a":"FEW","skyCondition1b":100,"skyCondition2a":"BKN","skyCondition2b":200,"flightCategory":"LIFR","metarType":"METAR","geometry_esri":{"x":47.78,"y":13.02,"z":427}}}