{"type":"Feature","geometry":{"type":"Point","coordinates":[47.78,13.02,430]},"properties":{"stationId":"LOWS","rawText":"LOWS 031750Z VRB02KT 9999 FEW065 BKN085 11/M02 Q1017 NOSIG","observationTime":"2020-04-03T17:50:00Z","temp":11,"dewpoint":-2,"windDirection":0,"windSpeed":3.704,"visibility":6.21,"altim":30.029528,"qualityControlFlag":"TRUE","skyCondition1a":"FEW","skyCondition1b":6500,"skyCondition2a":"BKN","skyCondition2b":8500,"flightCategory":"VFR","metarType":"METAR","geometry_esri":{"x":47.78,"y":13.02,"z":430}}}