{"type":"Feature","geometry":{"type":"Point","coordinates":[47.78,13.02,427]},"properties":{"stationId":"LOWS","rawText":"LOWS 232120Z 18007KT 9999 FEW110 BKN120 08/05 Q1014 NOSIG","observationTime":"2020-12-23T21:20:00Z","temp":8,"dewpoint":5,"windDirection":180,"windSpeed":12.964,"visibility":6.21,"altim":29.940945,"qualityControlFlag":"TRUE","skyCondition1a":"FEW","skyCondition1b":11000,"skyCondition2a":"BKN","skyCondition2b":12000,"flightCategory":"VFR","metarType":"METAR","geometry_esri":{"x":47.78,"y":13.02,"z":427}}}