{"type":"Feature","geometry":{"type":"Point","coordinates":[47.78,13.02,430]},"properties":{"stationId":"LOWS","rawText":"LOWS 131450Z 16007KT 100V210 9999 FEW050 BKN060 03/M01 Q0986 R15/1///95 NOSIG","observationTime":"2019-12-13T14:50:00Z","temp":3,"dewpoint":-1,"windDirection":160,"windSpeed":12.964,"visibility":6.21,"altim":29.114174,"qualityControlFlag":"TRUE","skyCondition1a":"FEW","skyCondition1b":5000,"skyCondition2a":"BKN","skyCondition2b":6000,"flightCategory":"VFR","metarType":"METAR","geometry_esri":{"x":47.78,"y":13.02,"z":430}}}